{"type":"FeatureCollection","features":[{"type":"Feature","geometry":{"type":"Point","coordinates":[129.32161,35.55512]},"properties":{"name":"2026년 외솔한글한마당","place":"외솔기념관 일원","startDate":"2026-10-09","endDate":"2026-10-09","content":"한글을 주제로 한 전시+체험+경연+공연","host":"ubc 울산방송","organizer":"ubc 울산방송","sponsor":"울산광역시청+울산광역시 중구청+외솔회","phone":"052-290-3642","homepage":"","relatedInfo":"","roadAddress":"울산광역시 중구 시계탑거리 4","parcelAddress":""}},{"type":"Feature","geometry":{"type":"Point","coordinates":[129.38079,35.50274]},"properties":{"name":"울산고래축제","place":"고래문화특구","startDate":"2026-10-15","endDate":"2026-10-18","content":"고래테마 체험+전시+공연+행사 등","host":"고래문화재단","organizer":"울산광역시 남구청","sponsor":"","phone":"052-226-1992","homepage":"http://www.ulsanwhale.com/index.jsp","relatedInfo":"고래퍼레이드+전시+다양한 공연+부대행사 등","roadAddress":"울산광역시 남구 장생포고래로 244(고래문화특구 일원)","parcelAddress":"울산광역시 남구 매암동 139-29"}},{"type":"Feature","geometry":{"type":"Point","coordinates":[127.51982,35.64024]},"properties":{"name":"장수한우랑사과랑축제","place":"의암공원 일원","startDate":"2026-09-10","endDate":"2026-09-13","content":"전국최대규모의 장수 한우마당+사과마당+레드푸드 존+흑백요리사와 함께하는 장수레드푸드 요리만들기 체험+장수레드푸드 사찰음식만들기체험+아빠와함께토마토스파게티 만들기 체험","host":"사단법인 장수한우랑사과랑축제추진위원회","organizer":"사단법인 장수한우랑사과랑축제추진위원회","sponsor":"","phone":"063-350-2356","homepage":"https://www.jangsufestival.com/index.php","relatedInfo":"","roadAddress":"전북특별자치도 장수군 장수읍 한누리로 378","parcelAddress":"전북특별자치도 장수군 장수읍 두산리 894"}},{"type":"Feature","geometry":{"type":"Point","coordinates":[127.41626,35.77325]},"properties":{"name":"진안홍삼축제","place":"마이산 북부 일원","startDate":"2026-09-18","endDate":"2026-09-20","content":"홍삼깍두기 蔘蔘 페스타+진안홍삼빙고+홍삼소원등 달기+홍삼향주머니 만들기+대동퍼레이드 등","host":"진안홍삼축제추진위원회","organizer":"전북특별자치도 진안군","sponsor":"","phone":"063-430-2392","homepage":"https://www.jinan.go.kr/festival/","relatedInfo":"","roadAddress":"전북특별자치도 진안군 진안읍 마이산로 160","parcelAddress":"전북특별자치도 진안군 진안읍 단양리 778-3"}},{"type":"Feature","geometry":{"type":"Point","coordinates":[126.39367,34.78653]},"properties":{"name":"목포항구축제","place":"목포항 및 삼학도 일원","startDate":"2026-10-16","endDate":"2026-10-18","content":"파시 해상 퍼레이드+파시장터+파시 경매","host":"목포시축제추진위원회","organizer":"전라남도 목포시","sponsor":"","phone":"061-270-8441","homepage":"https://www.mokpo.go.kr/tour/festival/harbor","relatedInfo":"","roadAddress":"전라남도 목포시 삼학로92번길 6 (산정동)","parcelAddress":"전라남도 목포시 산정동 1428-1"}},{"type":"Feature","geometry":{"type":"Point","coordinates":[127.13083,37.55985]},"properties":{"name":"강동선사문화축제","place":"서울 암사동 유적","startDate":"2026-10-16","endDate":"2026-10-18","content":"개폐막식+축하공연+개막 드론쇼+폐막 불꽃쇼+거리퍼레이드+강동선사 노래자랑+자치회관 프로그램 경연대회+바위절 호상놀이 재연","host":"서울특별시 강동구","organizer":"서울특별시 강동구","sponsor":"","phone":"02-3425-5240","homepage":"https://www.gdsunsa.com/","relatedInfo":"","roadAddress":"서울특별시 강동구 올림픽로 875 (암사동)","parcelAddress":"서울특별시 강동구 암사동 139-2"}},{"type":"Feature","geometry":{"type":"Point","coordinates":[127.65675,37.30002]},"properties":{"name":"여주오곡나루축제","place":"여주 신륵사관광지 일원","startDate":"2026-10-23","endDate":"2026-10-25","content":"여주쌀 가마솥 비빔밥+군고구마 기네스+여주 본두리 낙화놀이+여주 흔암리 쌍용거 줄다리기 등","host":"여주세종문화관광재단","organizer":"경기도 여주시","sponsor":"","phone":"031-881-9694","homepage":"https://www.yjfestival.or.kr/","relatedInfo":"","roadAddress":"경기도 여주시 신륵사길 7","parcelAddress":"경기도 여주시 천송동 297-1"}},{"type":"Feature","geometry":{"type":"Point","coordinates":[127.30126,35.6331]},"properties":{"name":"임실N치즈축제","place":"임실치즈테마파크+임실치즈마을+임실읍 일원","startDate":"2026-10-08","endDate":"2026-10-11","content":"임실N치즈 쭉쭉늘려 내치즈+디저트 퐁뒤체험+국가대표 임실N치즈 대형 쌀피자","host":"임실N치즈축제제전위원회","organizer":"임실N치즈축제제전위원회","sponsor":"문화체육관광부+농림축산식품부+한국관광공사+전북특별자치도+전북특별자치도 임실군","phone":"063-643-3900","homepage":"www.imsilfestival.com","relatedInfo":"","roadAddress":"전북특별자치도 임실군 성수면 도인2길 50","parcelAddress":"전북특별자치도 임실군 성수면 도인리 689"}},{"type":"Feature","geometry":{"type":"Point","coordinates":[127.99291,36.10308]},"properties":{"name":"김천김밥축제","place":"직지문화공원 및 사명대사공원 일원","startDate":"2026-10-23","endDate":"2026-10-25","content":"김밥플레이리스트(축하공연)+꼬달이 돌잡이 등","host":"경상북도 김천시","organizer":"경상북도 김천시","sponsor":"","phone":"053-965-0910","homepage":"https://gimbapcity.kr/","relatedInfo":"","roadAddress":"경상북도 김천시 대항면 황악로 1189-52","parcelAddress":"경상북도 김천시 대항면 운수리 산44-1"}},{"type":"Feature","geometry":{"type":"Point","coordinates":[128.33141,36.1294]},"properties":{"name":"구미라면축제","place":"구미역 일원","startDate":"2026-11-06","endDate":"2026-11-08","content":"이색라면 레스토랑 및 `갓 튀긴 라면` 팝업스토어 운영 등","host":"경상북도 구미시","organizer":"경상북도 구미시","sponsor":"","phone":"054-480-2652","homepage":"https://www.gumiramyun.com/","relatedInfo":"","roadAddress":"","parcelAddress":"경상북도 구미시 원평동 124-23"}},{"type":"Feature","geometry":{"type":"Point","coordinates":[126.8531,35.75463]},"properties":{"name":"김제지평선축제","place":"김제시 일원(벽골제 중심)","startDate":"2026-10-01","endDate":"2026-10-05","content":"대통령배 지평선 전국 농악 경연대회+벽골제 전설 쌍용놀이+풍년기원 입석줄다리기+지평선 연날리기 등","host":"(사)김제시지평선축제제전위원회","organizer":"전북특별자치도 김제시","sponsor":"","phone":"063-540-3172","homepage":"https://festival.gimje.go.kr/","relatedInfo":"","roadAddress":"전북특별자치도 김제시 부량면 벽골제로 442","parcelAddress":"전북특별자치도 김제시 부량면 신용리 242-1"}},{"type":"Feature","geometry":{"type":"Point","coordinates":[127.66258,36.00233]},"properties":{"name":"무주반딧불축제","place":"무주예체문화관","startDate":"2026-09-04","endDate":"2026-09-12","content":"반딧불이신비탐사+반딧불이주제관","host":"사)무주반딧불축제위원회","organizer":"전북특별자치도 무주군","sponsor":"문화체육관광부+전북특별자치도청+한국관광공사","phone":"063-324-2440","homepage":"https://www.firefly.or.kr/","relatedInfo":"","roadAddress":"전북특별자치도 무주군 무주읍 한풍루로 326-17","parcelAddress":"전북특별자치도 무주군 무주읍 당산리 1199-3"}},{"type":"Feature","geometry":{"type":"Point","coordinates":[127.50073,36.10003]},"properties":{"name":"금산세계인삼축제","place":"금산세계인삼엑스포 광장","startDate":"2026-10-02","endDate":"2026-10-11","content":"인삼캐기체험여행+홍삼족욕체험+인삼왕 선발대회+인삼제전+야간 드론 라이팅 쇼+금산인삼아트체험+금산인삼 민속촌+가족전통놀이 체험","host":"금산문화관광축제재단","organizer":"충청남도 금산군","sponsor":"","phone":"041-750-2316","homepage":"http://www.insamfestival.co.kr","relatedInfo":"","roadAddress":"충청남도 금산군 금산읍 인삼광장로 30","parcelAddress":"충청남도 금산군 금산읍 신대리 392"}},{"type":"Feature","geometry":{"type":"Point","coordinates":[127.11331,36.8191]},"properties":{"name":"천안흥타령축제","place":"천안종합운동장 일원","startDate":"2026-10-01","endDate":"2026-10-05","content":"전국춤경연대회+국제춤대회+국제스트릿댄스챔피언쉽+거리댄스퍼레이드","host":"천안문화재단","organizer":"천안문화재단","sponsor":"","phone":"1566-0155","homepage":"https://cheonanfestival.com/","relatedInfo":"","roadAddress":"충청남도 천안시 서북구 번영로 208","parcelAddress":"충청남도 천안시 서북구 백석동 251"}},{"type":"Feature","geometry":{"type":"Point","coordinates":[127.78653,36.15637]},"properties":{"name":"영동난계국악축제","place":"영동 레인보우힐링광장 일원","startDate":"2026-10-15","endDate":"2026-10-18","content":"퓨전국악공연+퓨전국악공연+세계민속춤 공연+어린이 공연+국악기 제작 및 연주 체험 등","host":"충청북도 영동군","organizer":"(재)영동군 문화관광재단+(사)난계기념사업회","sponsor":"","phone":"043-745-8917","homepage":"http://www.ydnan-gye.co.kr/","relatedInfo":"","roadAddress":"충청북도 영동군 영동읍 영동힐링로 117","parcelAddress":"충청북도 영동군 영동읍 매천리 197"}},{"type":"Feature","geometry":{"type":"Point","coordinates":[129.37759,36.05301]},"properties":{"name":"포항국제불빛축제","place":"영일대 해수욕장 외 포항시 일원","startDate":"2026-11-20","endDate":"2026-11-22","content":"국제불꽃쇼(한국+캐나다+이탈리아)+드론라이트쇼+라이트 아트웨이+거리 퍼레이드+데일리불꽃쇼","host":"포항문화재단","organizer":"경상북도 포항시","sponsor":"","phone":"054-289-7852","homepage":"","relatedInfo":"","roadAddress":"경상북도 포항시 북구 해안로 48 (항구동)","parcelAddress":"경상북도 포항시 북구 항구동 58-66"}},{"type":"Feature","geometry":{"type":"Point","coordinates":[126.55038,36.71355]},"properties":{"name":"서산해미읍성축제","place":"해미읍성","startDate":"2026-10-10","endDate":"2026-10-11","content":"고성방가EDM파티+서산 헤리티지+청허정 힐링 프로그램+해미 더 클래식+뮤지컬 갈라쇼+블랙이글스 에어쇼 등","host":"(재)서산문화재단","organizer":"충청남도 서산시","sponsor":"","phone":"041-660-2696","homepage":"http://www.haemifest.com/","relatedInfo":"","roadAddress":"충청남도 서산시 해미면 남문2로 143","parcelAddress":"충청남도 서산시 해미면 읍내리 491"}},{"type":"Feature","geometry":{"type":"Point","coordinates":[126.91637,35.14019]},"properties":{"name":"양림 크리스마스 문화축제","place":"양림오거리+우일선선교사사택","startDate":"2026-12-01","endDate":"2026-12-31","content":"트리점화식+거리퍼레이드+크리스마스 공연+먹거리존","host":"양림 크리스마스 문화축제 추진위원회","organizer":"광주광역시 남구청","sponsor":"","phone":"062-607-2316","homepage":"","relatedInfo":"","roadAddress":"광주광역시 남구 백서로 92-8","parcelAddress":"광주광역시 남구 양림동 48"}},{"type":"Feature","geometry":{"type":"Point","coordinates":[126.72698,37.38725]},"properties":{"name":"제26회소래포구축제","place":"인천 남동구 소래포구 일원 (해오름광장 등)","startDate":"2026-10-02","endDate":"2026-10-04","content":"소래포구의 생태자원과 역사적 배경을 연계한 체험행사 및 문화공연","host":"남동문화재단","organizer":"인천광역시 남동구청","sponsor":"","phone":"032-453-2142","homepage":"www.namdong.go.kr/soraefestival","relatedInfo":"","roadAddress":"인천광역시 남동구 아암대로 1550, (논현동)","parcelAddress":"인천광역시 남동구 논현동 775"}},{"type":"Feature","geometry":{"type":"Point","coordinates":[126.82876,35.13849]},"properties":{"name":"광주서창억새축제","place":"영산강(극락교~서창교 나눔누리숲)일원","startDate":"2026-10-15","endDate":"2026-10-18","content":"공식행사+멍때리기대회+SG 다이닝+나눔누리 노을530+체험행사 등","host":"광주광역시 서구청","organizer":"광주광역시 서구청","sponsor":"광주광역시청","phone":"062-350-4792","homepage":"seogu.gwangju.kr","relatedInfo":"","roadAddress":"광주광역시 서구 서창둑길 377","parcelAddress":"광주광역시 서구 벽진동 505-1"}},{"type":"Feature","geometry":{"type":"Point","coordinates":[126.95761,34.98964]},"properties":{"name":"미리미리 크리스마스","place":"화순읍 남산공원 일원","startDate":"2026-11-20","endDate":"2026-11-22","content":"크리스마스 테마 체험, 전시, 공연, 판매 등","host":"(재)화순군문화관광재단","organizer":"(재)화순군문화관광재단","sponsor":"","phone":"061-373-5483","homepage":"","relatedInfo":"","roadAddress":"전라남도 화순군 능주면 죽수길 73","parcelAddress":"전라남도 화순군 능주면 석고리 254-1"}},{"type":"Feature","geometry":{"type":"Point","coordinates":[126.95761,34.98964]},"properties":{"name":"제39회 화순적벽문화축제","place":"이서면 이서커뮤니티센터 및 망향정 일원","startDate":"2026-09-19","endDate":"2026-09-20","content":"걸어서 만나는 적벽+공연+체험 프로그램 등","host":"(재)화순군문화관광재단","organizer":"(재)화순군문화관광재단","sponsor":"","phone":"061-373-5482","homepage":"","relatedInfo":"","roadAddress":"전라남도 화순군 능주면 죽수길 73","parcelAddress":"전라남도 화순군 능주면 석고리 254-1"}},{"type":"Feature","geometry":{"type":"Point","coordinates":[126.98616,35.06454]},"properties":{"name":"2026 화순 고인돌 가을꽃 축제","place":"화순 고인돌 유적지 일원","startDate":"2026-10-17","endDate":"2026-10-25","content":"공연+전시+체험+먹거리부스 운영 등","host":"전라남도 화순군","organizer":"전라남도 화순군","sponsor":"","phone":"061-379-3575","homepage":"https://www.hwasun.go.kr/festival/","relatedInfo":"","roadAddress":"전라남도 화순군 화순읍 동헌길 23","parcelAddress":"전라남도 화순군 화순읍 훈리 35"}},{"type":"Feature","geometry":{"type":"Point","coordinates":[126.95761,34.98964]},"properties":{"name":"제27회 화순운주문화축제","place":"도암면 운주사 일원","startDate":"2026-10-31","endDate":"2026-11-01","content":"토크콘서트+사찰음식 프로그램 등","host":"(재)화순군문화관광재단","organizer":"(재)화순군문화관광재단","sponsor":"","phone":"061-373-5482","homepage":"","relatedInfo":"","roadAddress":"전라남도 화순군 능주면 죽수길 73","parcelAddress":"전라남도 화순군 능주면 석고리 254-1"}},{"type":"Feature","geometry":{"type":"Point","coordinates":[128.73063,36.56051]},"properties":{"name":"안동국제탈춤페스티벌","place":"중앙선1942 안동역+탈춤공원+원도심 일원","startDate":"2026-09-24","endDate":"2026-10-04","content":"국내외 탈춤공연행사+마당극&창작극공연+세계탈놀이경연대회+탈 탈랜트+세계창작탈공모전+대동난장+탈 만들기+탈춤 따라배우기 등","host":"한국정신문화재단","organizer":"한국정신문화재단","sponsor":"","phone":"054-840-3400","homepage":"https://www.maskdance.com/2024/intro.asp","relatedInfo":"","roadAddress":"경상북도 안동시 육사로 239 (운흥동)","parcelAddress":"경상북도 안동시 운흥동 300-15"}},{"type":"Feature","geometry":{"type":"Point","coordinates":[128.52095,36.86884]},"properties":{"name":"경북영주 풍기인삼축제","place":"영주시 풍기읍 남원천 및 인삼문화팝업공원 일원","startDate":"2026-10-03","endDate":"2026-10-11","content":"개삼터 고유제+주세붕군수 행차 재연+우량인삼 선발대회 및 전시+소백산 풍기인삼가요제+인삼깎기 경연대회 등","host":"영주풍기인삼축제조직위원회","organizer":"경상북도 영주시","sponsor":"","phone":"054-635-0020","homepage":"http://www.ginsengfestival.co.kr/","relatedInfo":"","roadAddress":"","parcelAddress":"경상북도 영주시 풍기읍 성내리 240-1"}},{"type":"Feature","geometry":{"type":"Point","coordinates":[126.91611,35.14935]},"properties":{"name":"광주 추억의 충장축제","place":"금남로+충장로+5.18민주광장+예술의거리 일원","startDate":"2026-10-07","endDate":"2026-10-11","content":"행정동 퍼레이드 상징물 제작展+아시아 컬쳐 스트리트+충장 발광 나이트+충장 어린이 놀이터 등","host":"광주광역시 동구+동구문화관광재단+충장축제위원회","organizer":"광주광역시 동구+동구문화관광재단+충장축제위원회","sponsor":"광주광역시+한국관광공사","phone":"062-608-4672","homepage":"http://recollection.kr/","relatedInfo":"","roadAddress":"광주광역시 동구 금남로 220","parcelAddress":"광주광역시 동구 금남로3가 12-3"}},{"type":"Feature","geometry":{"type":"Point","coordinates":[127.11331,36.8191]},"properties":{"name":"천안흥타령춤축제","place":"천안종합운동장 일원","startDate":"2026-10-01","endDate":"2026-10-05","content":"춤경연대회(전국춤경연대회+국제춤 대회+거리퍼레이드 등)+전시홍보 부스운영(중소기업제품판매+천안 농산물 홍보 및 체험한마당 등)+부대체험행사","host":"천안문화재단","organizer":"천안문화재단","sponsor":"","phone":"041-900-7020","homepage":"","relatedInfo":"","roadAddress":"충청남도 천안시 서북구 번영로 208","parcelAddress":""}},{"type":"Feature","geometry":{"type":"Point","coordinates":[129.01805,35.07682]},"properties":{"name":"부산고등어축제","place":"송도해수욕장","startDate":"2026-10-30","endDate":"2026-11-01","content":"개막행사+공연+체험·참여 프로그램+부대·특별행사 등","host":"부산서구문화원","organizer":"부산광역시 서구","sponsor":"","phone":"051-240-4062","homepage":"http://culture.bsseogu.go.kr","relatedInfo":"송도해수욕장+부산공동어시장+송도구름산책로+송도해상케이블카+암남공원+송도오션파크","roadAddress":"부산광역시 서구 송도해변로 100","parcelAddress":"부산광역시 서구 암남동 135-5"}},{"type":"Feature","geometry":{"type":"Point","coordinates":[129.08201,35.07715]},"properties":{"name":"영도다리축제","place":"아미르공원","startDate":"2026-10-30","endDate":"2026-11-01","content":"개폐막행사+도개퍼포먼스+공연·전시·체험 프로그램 등","host":"영도문화원","organizer":"부산광역시 영도구청","sponsor":"부산광역시","phone":"051-419-4062","homepage":"http://www.yeongdo.go.kr/ydfestival.web","relatedInfo":"","roadAddress":"부산광역시 영도구 해양로 301번길 55","parcelAddress":"부산광역시 영도구 동삼동 1165"}},{"type":"Feature","geometry":{"type":"Point","coordinates":[129.09055,35.21195]},"properties":{"name":"동래읍성역사축제","place":"동래문화회관+읍성광장+온천장 일원","startDate":"2026-10-16","endDate":"2026-10-18","content":"동래부사행차길놀이+동래성저전투재현 뮤지컬+동래세가닥줄다리기+동래장터 체험 등","host":"동래문화원+동래읍성역사축제추진위원회","organizer":"부산광역시 동래구청","sponsor":"부산광역시청+한국관광공사+부산관광공사 등","phone":"051-550-4092","homepage":"https://www.dongnae.go.kr/festival/index.dongnae?contentsSid=169","relatedInfo":"","roadAddress":"부산광역시 동래구 문화로 80(명륜동)","parcelAddress":"부산광역시 동래구 명륜동 137"}},{"type":"Feature","geometry":{"type":"Point","coordinates":[128.9901,35.19688]},"properties":{"name":"제13회 낙동강 구포나루 축제","place":"화명생태공원 연꽃단지 일원","startDate":"2026-10-16","endDate":"2026-10-18","content":"개막식 체험 공연 전시 등","host":"부산광역시 북구","organizer":"부산광역시 북구","sponsor":"부산광역시","phone":"051-309-4522","homepage":"https://www.bsbukgu.go.kr/tour/index.bsbukgu?menuCd=DOM_000000402006001000","relatedInfo":"","roadAddress":"부산광역시 북구 낙동대로1570번길 33(구포동)","parcelAddress":"부산광역시 북구 구포동 1124-1"}},{"type":"Feature","geometry":{"type":"Point","coordinates":[128.64267,35.94268]},"properties":{"name":"팔공산 왕건축제","place":"동화천 생태하천 둔치","startDate":"2026-09-12","endDate":"2026-09-13","content":"왕건 관련 체험프로그램 주민장기자랑대회+무대공연","host":"공산동 주민자치위원회","organizer":"공산동 주민자치위원회","sponsor":"대구광역시 동구청","phone":"053-662-3981","homepage":"","relatedInfo":"","roadAddress":"","parcelAddress":"대구광역시 동구 지묘동 1220-19"}},{"type":"Feature","geometry":{"type":"Point","coordinates":[128.66109,35.91737]},"properties":{"name":"용암산성 옥샘문화제","place":"불로천 다목적광장","startDate":"2026-10-24","endDate":"2026-10-25","content":"제례행사, 작품전시, 문화행사, 무대공연 등","host":"용암산성옥샘문화제추진위원회","organizer":"용암산성옥샘문화제추진위원회","sponsor":"대구광역시청+대구광역시 동구청","phone":"053-662-3801","homepage":"","relatedInfo":"","roadAddress":"","parcelAddress":"대구광역시 동구 도동 803"}},{"type":"Feature","geometry":{"type":"Point","coordinates":[128.69649,35.98973]},"properties":{"name":"팔공산 단풍축제","place":"팔공산 동화지구 분수대광장","startDate":"2026-10-30","endDate":"2026-11-03","content":"순두부 나눔 행사 및 무대공연 등","host":"팔공산동화지구번영회","organizer":"팔공산동화지구번영회","sponsor":"대구광역시청+대구광역시 동구청","phone":"053-981-6624","homepage":"","relatedInfo":"","roadAddress":"","parcelAddress":"대구광역시 동구 용수동 27-5"}},{"type":"Feature","geometry":{"type":"Point","coordinates":[128.63489,35.88569]},"properties":{"name":"동구 어울림한마당 축제","place":"율하체육공원 일원","startDate":"2026-10-17","endDate":"2026-10-17","content":"가요경연대회, i팝업놀이터, 평생학습 어울마당, 콘서트 등","host":"대구광역시동구","organizer":"대구광역시동구","sponsor":"","phone":"053-662-4072","homepage":"","relatedInfo":"","roadAddress":"대구광역시 동구 아양로 200","parcelAddress":"대구광역시 동구 효목동 956-7"}},{"type":"Feature","geometry":{"type":"Point","coordinates":[126.95937,37.47197]},"properties":{"name":"2026 관악강감찬축제","place":"낙성대공원","startDate":"2026-10-16","endDate":"2026-10-18","content":"고려 명장 강감찬 장군의 호국정신을 기리고자 개최되는 서울의 대표적인 역사문화축제이자 관악구민이 함께 만들고 즐기는 축제","host":"관악문화재단","organizer":"서울특별시 관악구청","sponsor":"","phone":"02-828-5763","homepage":"https://ggcfest.com/","relatedInfo":"","roadAddress":"서울특별시 관악구 낙성대로 77","parcelAddress":"서울특별시 관악구 봉천동 228"}},{"type":"Feature","geometry":{"type":"Point","coordinates":[129.03525,35.09648]},"properties":{"name":"유라리 건맥축제","place":"유라리광장+남포동건어물도매시장","startDate":"2026-09-04","endDate":"2026-09-05","content":"건맥마켓+건맥라운지+공연+체험 등","host":"부산광역시 중구청","organizer":"부산광역시 중구청","sponsor":"부산광역시 중구청","phone":"051-600-4085","homepage":"","relatedInfo":"","roadAddress":"부산광역시 중구 용미길9번길6-45","parcelAddress":"부산광역시 중구 남포동1가 79-2"}},{"type":"Feature","geometry":{"type":"Point","coordinates":[129.03147,35.09954]},"properties":{"name":"광복로겨울빛트리축제","place":"광복로 및 중구 관내 일원","startDate":"2026-12-05","endDate":"2027-02-14","content":"크리스마스트리장식+성탄음악행사+시민참여행사+점등식 등","host":"부산광역시 중구청","organizer":"부산광역시 중구청","sponsor":"","phone":"051-600-4085","homepage":"","relatedInfo":"","roadAddress":"부산광역시 중구 광복중앙로 2","parcelAddress":"부산광역시 중구 남포동4가 37-2"}},{"type":"Feature","geometry":{"type":"Point","coordinates":[128.08022,35.19043]},"properties":{"name":"진주남강유등축제","place":"진주성+진주남강일원","startDate":"2026-10-03","endDate":"2026-10-18","content":"유등+남가람 어울마당+사랑다리 건너기 체험+유등 띄우기 체험 등","host":"진주남강유등축제 제전위원회","organizer":"경상남도 진주시+진주문화예술재단","sponsor":"문화체육관광부+경상남도청+한국관광공사+경상남도교육청+언론기관","phone":"055-755-9111","homepage":"","relatedInfo":"","roadAddress":"경상남도 진주시 남강로 626 (본성동)","parcelAddress":"경상남도 진주시 본성동 415"}},{"type":"Feature","geometry":{"type":"Point","coordinates":[128.00375,35.48185]},"properties":{"name":"제5회 황매산억새축제","place":"황매산군립공원","startDate":"2026-10-24","endDate":"2026-11-01","content":"개막식+나눔카트투어+먹거리장터+지역농특산물 판매장터 운영 등","host":"황매산축제위원회","organizer":"경상남도 합천군청","sponsor":"","phone":"055-930-4753","homepage":"https://www.hc.go.kr/09418/09428/09429.web","relatedInfo":"","roadAddress":"경상남도 합천군 가회면 황매산공원길 4","parcelAddress":"경상남도 합천군 가회면 둔내리 산209-14"}},{"type":"Feature","geometry":{"type":"Point","coordinates":[128.15987,35.56017]},"properties":{"name":"제4회 합천황토한우축제","place":"합천군민체육공원","startDate":"2026-10-16","endDate":"2026-10-18","content":"한우구이터 운영+합천황토한우 할인 판매 행사","host":"합천축협","organizer":"합천축협","sponsor":"경상남도 합천군청+합천군의회","phone":"055-930-3573","homepage":"https://www.hc.go.kr/06573/06623/10013.web","relatedInfo":"","roadAddress":"경상남도 합천군 합천읍 문화로 62","parcelAddress":"경상남도 합천군 합천읍 합천리 896-15"}},{"type":"Feature","geometry":{"type":"Point","coordinates":[128.50492,35.52088]},"properties":{"name":"제9회 창녕양파마늘가요제","place":"창녕공설운동장 특설무대","startDate":"2026-09-11","endDate":"2026-09-11","content":"경연팀 공연+초대가수공연","host":"MBC경남","organizer":"경상남도 창녕군청","sponsor":"","phone":"055-530-1461","homepage":"https://www.cng.go.kr/01659/02141/03799.web","relatedInfo":"","roadAddress":"경상남도 창녕군 창녕읍 창녕대로 305","parcelAddress":"경상남도 창녕군 창녕읍 퇴천리 61"}},{"type":"Feature","geometry":{"type":"Point","coordinates":[127.92635,35.69514]},"properties":{"name":"거창한마당대축제","place":"스포츠파크 일원","startDate":"2026-10-01","endDate":"2026-10-04","content":"아림예술제+군민체육대회 등","host":"거창문화재단","organizer":"거창문화재단","sponsor":"경상남도 거창군","phone":"055-940-8458","homepage":"거창한마당축제.kr","relatedInfo":"","roadAddress":"경상남도 거창군 거창읍 심소정길 39-36","parcelAddress":"경상남도 거창군 거창읍 양평리 1160"}},{"type":"Feature","geometry":{"type":"Point","coordinates":[128.07284,35.54841]},"properties":{"name":"제7회 수려한합천영화제","place":"합천영상테마파크","startDate":"2026-10-16","endDate":"2026-10-18","content":"초청작(단편, 장편)상영+공모전(필름챌린지)+부대행사 등","host":"수려한합천영화제집행위원회","organizer":"(사)합천군관광협의회","sponsor":"경상남도+경상남도 합천군청","phone":"055-930-3753","homepage":"","relatedInfo":"","roadAddress":"경상남도 합천군 용주면 합천호수로 757","parcelAddress":"경상남도 합천군 용주면 가호리 256"}},{"type":"Feature","geometry":{"type":"Point","coordinates":[128.13654,35.7675]},"properties":{"name":"2026 대장경기록문화축제","place":"대장경테마파크","startDate":"2026-10-23","endDate":"2026-11-01","content":"공연+상설무대+체험부스운영 등","host":"경상남도 합천군청","organizer":"경상남도 합천군청","sponsor":"","phone":"055-930-4696","homepage":"https://www.hc.go.kr/06573/08250.web","relatedInfo":"","roadAddress":"경상남도 합천군 가야면 가야산로 1160","parcelAddress":"경상남도 합천군 가야면 야천리 943"}},{"type":"Feature","geometry":{"type":"Point","coordinates":[128.59961,36.23245]},"properties":{"name":"김수환추기경 사랑과 나눔 문화축전","place":"김수환추기경 사랑과 나눔공원 일원","startDate":"2026-10-01","endDate":"2026-10-31","content":"김수환추기경 문화축전","host":"매일신문사","organizer":"매일신문사","sponsor":"대구광역시+대구광역시 군위군","phone":"054-380-6065","homepage":"","relatedInfo":"","roadAddress":"대구광역시 군위군 군위읍 군위금성로 270","parcelAddress":"대구광역시 군위군 군위읍 용대리 424"}},{"type":"Feature","geometry":{"type":"Point","coordinates":[128.77933,36.12781]},"properties":{"name":"삼국유사 문화축전","place":"인각사 일원","startDate":"2026-10-01","endDate":"2026-10-31","content":"전통음악경연대회+삼국유사 한마음 음악회","host":"인각사","organizer":"인각사","sponsor":"대구광역시+대구광역시 군위군","phone":"054-380-7323","homepage":"","relatedInfo":"","roadAddress":"대구광역시 군위군 삼국유사면 삼국유사로 250","parcelAddress":"대구광역시 군위군 삼국유사면 화북리 612"}},{"type":"Feature","geometry":{"type":"Point","coordinates":[128.70126,36.16083]},"properties":{"name":"군위 바비큐축제","place":"삼국유사테마파크 일원","startDate":"2026-10-01","endDate":"2026-10-31","content":"바베큐축제","host":"군위문화관광재단","organizer":"군위문화관광재단","sponsor":"대구광역시+대구광역시 군위군","phone":"054-380-7322","homepage":"","relatedInfo":"","roadAddress":"대구광역시 군위군 의흥면 일연테마로 100","parcelAddress":"대구광역시 군위군 의흥면 이지리 1653"}},{"type":"Feature","geometry":{"type":"Point","coordinates":[128.71868,35.64839]},"properties":{"name":"2026청도반시축제","place":"청도야외공연장","startDate":"2026-10-01","endDate":"2026-10-31","content":"청도반시전시판매행사 및 공연","host":"경상북도 청도군청","organizer":"청도반시축제추진위원회","sponsor":"","phone":"054-370-2211","homepage":"http://www.청도반시축제.kr","relatedInfo":"","roadAddress":"경상북도 청도군 화양읍 청려로 1846","parcelAddress":"경상북도 청도군 화양읍 동천리 457"}},{"type":"Feature","geometry":{"type":"Point","coordinates":[128.71868,35.64839]},"properties":{"name":"2026청도세계코미디아트페스티벌","place":"청도야외공연장","startDate":"2026-10-01","endDate":"2026-10-31","content":"코미디를 테마로 한 공연+전시+체험 등","host":"경상북도 청도군청","organizer":"경상북도 청도군청","sponsor":"","phone":"054-370-2211","homepage":"http://www.청도코아페.kr","relatedInfo":"","roadAddress":"경상북도 청도군 화양읍 청려로 1846","parcelAddress":"경상북도 청도군 화양읍 동천리 457"}},{"type":"Feature","geometry":{"type":"Point","coordinates":[126.52859,34.29978]},"properties":{"name":"해넘이해맞이축제","place":"땅끝마을일원","startDate":"2026-12-31","endDate":"2027-01-01","content":"땅끝음악회+체험행사+먹거리 등","host":"전라남도 해남군청","organizer":"전라남도 해남군청","sponsor":"전라남도 해남군청","phone":"061-530-5158","homepage":"","relatedInfo":"","roadAddress":"전라남도 해남군 송지면 땅끝마을길 82","parcelAddress":"전라남도 해남군 송지면 송호리 1302"}},{"type":"Feature","geometry":{"type":"Point","coordinates":[126.90849,36.30757]},"properties":{"name":"제72회 백제문화제","place":"백제문화단지+부여군 일원","startDate":"2026-10-03","endDate":"2026-10-11","content":"제례+불전+퍼레이드+전시·체험+공연+경연","host":"백제문화재단","organizer":"충청남도 부여군","sponsor":"충청남도+한국관광공사+문화체육관광부","phone":"041-830-2207","homepage":"https://www.baekjeculturalfestival.kr/","relatedInfo":"","roadAddress":"충청남도 부여군 규암면 백제문로 455","parcelAddress":"충청남도 부여군 규암면 합정리 138"}},{"type":"Feature","geometry":{"type":"Point","coordinates":[126.80342,36.44503]},"properties":{"name":"2026 청양 고추구기자 축제(제27회)","place":"백세건강공원","startDate":"2026-09-11","endDate":"2026-09-13","content":"공연+전시+판매+체험+부대행사 등","host":"청양고추구기자축제추진위원회","organizer":"청양고추구기자축제추진위원회","sponsor":"충청남도 청양군","phone":"041-940-4852","homepage":"https://칠갑마루.com/_festa","relatedInfo":"칠갑마루+청양고추+청양구기자","roadAddress":"","parcelAddress":"충청남도 청양군 청양읍 읍내리 377-10"}},{"type":"Feature","geometry":{"type":"Point","coordinates":[127.66149,36.00262]},"properties":{"name":"제30회 무주반딧불축제","place":"등나무운동장","startDate":"2026-09-04","endDate":"2026-09-12","content":"환경탐사+체험 판매 등 상설행사+문화예술행사","host":"(사)무주반딧불축제제전위원회","organizer":"전북특별자치도 무주군청","sponsor":"문화체육관광부+전북특별자치도+한국관광공사","phone":"063-320-2537","homepage":"https://www.firefly.or.kr/","relatedInfo":"반디랜드+태권도원+한풍루","roadAddress":"전북특별자치도 무주군 무주읍 한풍루로 326-14","parcelAddress":"전북특별자치도 무주군 무주읍 당산리 1118"}},{"type":"Feature","geometry":{"type":"Point","coordinates":[127.30126,35.6331]},"properties":{"name":"산타축제","place":"임실치즈테마파크","startDate":"2026-12-24","endDate":"2026-12-27","content":"산타 및 겨울 관련 공연 이벤트 체험행사 등","host":"(재)임실치즈테마파크","organizer":"(재)임실치즈테마파크","sponsor":"문화체육관광부+전북특별자치도 임실군","phone":"063-643-8850","homepage":"www.cheesepark.kr","relatedInfo":"","roadAddress":"전북특별자치도 임실군 성수면 도인2길 50","parcelAddress":"전북특별자치도 임실군 성수면 도인리 689"}},{"type":"Feature","geometry":{"type":"Point","coordinates":[127.24718,35.65689]},"properties":{"name":"임실도자기축제","place":"도화지도예문화원","startDate":"2026-10-23","endDate":"2026-10-24","content":"도자기 만들기 체험 및 전문작가 전시회 개최, 다양한 문화공연, 먹거리장터 등","host":"신전마을회+사)전북향토문화콘텐츠산업진흥회","organizer":"신전마을회+사)전북향토문화콘텐츠산업진흥회","sponsor":"전북특별자치도+전북특별자치도 임실군","phone":"063-643-8689","homepage":"","relatedInfo":"","roadAddress":"전북특별자치도 임실군 관촌면 신전4길 33","parcelAddress":"전북특별자치도 임실군 관촌면 신전리 107-2"}},{"type":"Feature","geometry":{"type":"Point","coordinates":[126.31015,34.57265]},"properties":{"name":"명량대첩축제","place":"해남군 우수영관광지+진도군 녹진관광지 일원","startDate":"2026-09-11","endDate":"2026-09-13","content":"출정식+해전재현+공군에어쇼+조선수군재건+이순신리더십캠프 등","host":"(재)명량대첩기념사업회","organizer":"전라남도+전라남도 해남군청+전라남도 진도군청","sponsor":"대한민국해군+한국관광공사","phone":"061-530-5158","homepage":"www.mldc.kr","relatedInfo":"","roadAddress":"전라남도 해남군 문내면 관광레저로 12","parcelAddress":"전라남도 해남군 문내면 학동리 1021-3"}},{"type":"Feature","geometry":{"type":"Point","coordinates":[126.61663,34.47714]},"properties":{"name":"해남미남축제","place":"해남군 삼산면 두륜산도립공원 잔디구장 일원","startDate":"2026-10-30","endDate":"2026-11-01","content":"공식행사(개·폐회식)+공연행사+전시·체험+음식·특산물 판매 등","host":"해남군축제추진위원회","organizer":"전라남도 해남군청","sponsor":"전라남도 해남군청","phone":"061-530-5158","homepage":"www.해남미남축제.com","relatedInfo":"","roadAddress":"전라남도 해남군 삼산면 대흥사길 400","parcelAddress":"전라남도 해남군 삼산면 구림리 799"}},{"type":"Feature","geometry":{"type":"Point","coordinates":[126.74019,37.88954]},"properties":{"name":"제30회 파주장단콩축제","place":"임진각 광장","startDate":"2026-11-27","endDate":"2026-11-29","content":"파주장단콩 전시 및 판매+농특산물 홍보 및 판매+각종 공연+체험행사 등","host":"파주장단콩축제추진위원회","organizer":"경기도 파주시청","sponsor":"","phone":"031-940-5281","homepage":"http://tour.paju.go.kr","relatedInfo":"","roadAddress":"경기도 파주시 문산읍 임진각로 177","parcelAddress":"경기도 파주시 문산읍 마정리 1325-1"}},{"type":"Feature","geometry":{"type":"Point","coordinates":[126.69931,37.78801]},"properties":{"name":"2026 헤이리 판 페스티벌","place":"헤이리 예술마을","startDate":"2026-09-11","endDate":"2026-09-13","content":"공연+전시+체험프로그램+직거래장터 등","host":"(사)헤이리","organizer":"(사)헤이리","sponsor":"경기도 파주시청","phone":"031-946-8551","homepage":"https://www.heyri.net","relatedInfo":"","roadAddress":"경기도 파주시 탄현면 헤이리마을길 70-21","parcelAddress":"경기도 파주시 탄현면 법흥리 1652-239"}},{"type":"Feature","geometry":{"type":"Point","coordinates":[126.74019,37.88954]},"properties":{"name":"제18회 DMZ 국제다큐멘터리 영화제","place":"임진각 평화누리 야외공연장","startDate":"2026-09-10","endDate":"2026-09-16","content":"다큐멘터리 상영 및 시상+포럼+다큐강연 등","host":"사단법인 DMZ국제다큐멘터리영화제","organizer":"사단법인 DMZ국제다큐멘터리영화제","sponsor":"경기도+경기도 파주시청+문화체육관광부+영화진흥위원회","phone":"031-940-4723","homepage":"https://dmzdocs.com","relatedInfo":"","roadAddress":"경기도 파주시 문산읍 임진각로 177","parcelAddress":"경기도 파주시 문산읍 사목리 494-1"}},{"type":"Feature","geometry":{"type":"Point","coordinates":[126.68683,37.70855]},"properties":{"name":"제3회 파주 페어 북앤컬처","place":"아시아출판문화정보센터 등 출판도시 일원","startDate":"2026-10-09","endDate":"2026-10-18","content":"뮤지컬+연극+프린지공연+낭독공연+버스킹+동네책방+오픈하우스+전시 등","host":"(재)출판도시문화재단","organizer":"경기도 파주시청","sponsor":"","phone":"031-940-4721","homepage":"https://pajufair.com","relatedInfo":"","roadAddress":"경기도 파주시 회동길 145","parcelAddress":"경기도 파주시 문발동 524-3"}},{"type":"Feature","geometry":{"type":"Point","coordinates":[126.87113,37.86612]},"properties":{"name":"2026 제 36회 율곡문화제","place":"파주이이유적","startDate":"2026-10-24","endDate":"2026-10-25","content":"율곡이이의 사상과 철학을 현대적으로 재해석한 시민 참여형 역사문화축제","host":"파주문화재단","organizer":"경기도 파주시청","sponsor":"","phone":"031-950-8424","homepage":"https://www.pajucf.or.kr/main/main.php","relatedInfo":"","roadAddress":"","parcelAddress":"경기도 파주시 법원읍 동문리 16-1"}},{"type":"Feature","geometry":{"type":"Point","coordinates":[126.79031,37.85677]},"properties":{"name":"2026년 파주포크페스티벌(전야제)","place":"문산행복센터","startDate":"2026-09-04","endDate":"2026-09-04","content":"파주의 대표 공연예술축제로 평화의 도시 파주에서 포크의 울림과 시대의 이야기를 전함","host":"파주문화재단","organizer":"경기도 파주시청","sponsor":"","phone":"031-950-8431","homepage":"https://www.pajucf.or.kr/main/main.php","relatedInfo":"","roadAddress":"경기도 파주시 문산읍 통일로 1680","parcelAddress":"경기도 파주시 문산읍 선유리 1402"}},{"type":"Feature","geometry":{"type":"Point","coordinates":[126.74479,37.89204]},"properties":{"name":"2026년 파주포크페스티벌(본공연)","place":"임진각평화누리공원","startDate":"2026-09-05","endDate":"2026-09-05","content":"파주의 대표 공연예술축제로 평화의 도시 파주에서 포크의 울림과 시대의 이야기를 전함","host":"파주문화재단","organizer":"경기도 파주시청","sponsor":"","phone":"031-950-8431","homepage":"https://www.pajucf.or.kr/main/main.php","relatedInfo":"","roadAddress":"경기도 파주시 문산읍 임진각로 148-40","parcelAddress":"경기도 파주시 문산읍 마정리 1175-1"}},{"type":"Feature","geometry":{"type":"Point","coordinates":[126.76012,37.72011]},"properties":{"name":"2026년 제8회 운정호수공원 불꽃축제","place":"운정호수공원","startDate":"2026-10-31","endDate":"2026-12-31","content":"운정호수공원의 수변공간을 활용한 문화예술공연 불꽃쇼 및 빛조형물 전시 등","host":"파주문화재단","organizer":"경기도 파주시청","sponsor":"","phone":"031-950-8433","homepage":"https://www.pajucf.or.kr/main/main.php","relatedInfo":"","roadAddress":"경기도 파주시 경의로 1151","parcelAddress":"경기도 파주시 와동동 1412"}},{"type":"Feature","geometry":{"type":"Point","coordinates":[126.53981,37.64039]},"properties":{"name":"2026 김포 해병대문화축제","place":"김포함상공원 일원","startDate":"2026-10-31","endDate":"2026-10-31","content":"상륙작전 시연행사 + 공연 + 장비전시 및 탑승 + 체험부스 등","host":"경기도 김포시 + 해병2사단","organizer":"경기도 김포시 + 해병대 제2사단","sponsor":"","phone":"031-980-5110","homepage":"","relatedInfo":"","roadAddress":"","parcelAddress":"경기도 김포시 대곶면 대명리 551-1"}},{"type":"Feature","geometry":{"type":"Point","coordinates":[126.67478,37.64308]},"properties":{"name":"2026 김포 라베니체축제","place":"장기동 라베니체 일원","startDate":"2026-10-17","endDate":"2026-10-17","content":"불꽃쇼 + 콘서트 + 수상 버스킹 + 체험프로그램 등","host":"경기도 김포시","organizer":"김포문화재단","sponsor":"","phone":"031-980-5113","homepage":"","relatedInfo":"","roadAddress":"","parcelAddress":"경기도 김포시 장기동 2001-1"}},{"type":"Feature","geometry":{"type":"Point","coordinates":[126.53981,37.64039]},"properties":{"name":"2026 김포 선셋 페스타","place":"김포함상공원 일원","startDate":"2026-10-24","endDate":"2026-10-24","content":"선상다이닝 + 셀프바비큐존 + 로컬푸드 쿠킹쇼 등","host":"겸기도 김포시","organizer":"겸기도 김포시","sponsor":"","phone":"031-980-5105","homepage":"","relatedInfo":"","roadAddress":"","parcelAddress":"경기도 김포시 대곶면 대명리 551-1"}},{"type":"Feature","geometry":{"type":"Point","coordinates":[127.52106,37.82087]},"properties":{"name":"2026년 재즈페스티벌 in 가평","place":"자라섬+잣고을 광장+흥농종묘 앞 삼거리+음악역1939 뮤직홀","startDate":"2026-10-09","endDate":"2026-10-11","content":"재즈스트리트+파티 스테이지+재즈 스테이션+웰컴 포스트+미드나잇 재즈카페 무대 운영+미리보는 재즈페스티벌","host":"(사)문화현상","organizer":"경기도 가평군청","sponsor":"","phone":"031-581-2813","homepage":"https://jarasumjazz.com/","relatedInfo":"","roadAddress":"경기도 가평군 가평읍 자라섬로 60","parcelAddress":"경기도 가평군 가평읍 대곡리 27-14번지"}},{"type":"Feature","geometry":{"type":"Point","coordinates":[127.10641,36.28506]},"properties":{"name":"2026 한국유교문화축전","place":"한국유교문화진흥원(KCC EXPO 2025)","startDate":"2026-09-12","endDate":"2026-09-13","content":"유교의 가르침을 재조명하고 글로벌화하여 지역성장 동력 발판 마련","host":"한국유교문화진흥원","organizer":"충청남도청+충청남도 논산시","sponsor":"","phone":"041-980-3500","homepage":"https://www.ikcc.or.kr/ko/index","relatedInfo":"K유교 국제포럼+K유교영어스피치 경연대회+한국의 서원 간담회+유교문화 골든벨+유교탐험대 진행","roadAddress":"충청남도 논산시 노성명 종학길 10","parcelAddress":"충청남도 논산시 노성면 병사리 98-6"}},{"type":"Feature","geometry":{"type":"Point","coordinates":[127.01764,36.16164]},"properties":{"name":"2026 강경 국가유산 야행","place":"강경근대거리","startDate":"2026-08-28","endDate":"2026-08-29","content":"유서깊은 논산시 강경읍을 배경으로 밤의 매력을 느낄 수 있도록 기획한 국가유산 야간체험 행사","host":"논산문화관광재단","organizer":"충청남도 논산시","sponsor":"국가유산청","phone":"041-746-5664","homepage":"https://www.nonsan.go.kr/ggfestival/","relatedInfo":"김대건 순례길투어+국가유산 해설+시네마극장+토크콘서트+물길 퍼레이드 진행","roadAddress":"충청남도 논산시 강경읍 옥녀봉로 30-5","parcelAddress":"충청남도 논산시 강경읍 중앙리 53-7"}},{"type":"Feature","geometry":{"type":"Point","coordinates":[127.20081,36.21229]},"properties":{"name":"2026 연산대추축제","place":"연산역 일원","startDate":"2026-10-16","endDate":"2026-10-18","content":"지역 먹거리(연산대추) 및 관광자원을 활용한 특산물축제 개최","host":"논산문화관광재단","organizer":"충청남도 논산시","sponsor":"","phone":"041-746-5663","homepage":"","relatedInfo":"연산대추의 깊은 맛과 풍미를 느낄 수 있는 연산대추문화축제","roadAddress":"충청남도 논산시 선비로275번길 31-2","parcelAddress":"충청남도 논산시 청동리 127-74"}},{"type":"Feature","geometry":{"type":"Point","coordinates":[127.2472,36.12951]},"properties":{"name":"2026 양촌곶감축제","place":"양촌체육공원","startDate":"2026-12-11","endDate":"2026-12-13","content":"지역 먹거리(양촌곶감) 및 관광자원을 활용한 특산물축제 개최","host":"논산문화관광재단","organizer":"충청남도 논산시","sponsor":"","phone":"041-746-5664","homepage":"","relatedInfo":"양촌곶감의 달콤함과 크리스마스의 따뜻한 감성을 결합한 겨울 대표 축제","roadAddress":"충청남도 논산시 양촌면 이메길 31-13","parcelAddress":"충청남도  논산시 양촌면 양촌리 454"}},{"type":"Feature","geometry":{"type":"Point","coordinates":[126.76878,37.65385]},"properties":{"name":"2026 고양호수예술축제","place":"일산호수공원+일산문화광장","startDate":"2026-09-18","endDate":"2026-09-20","content":"국내외 거리예술공연 및 시민참여프로그램","host":"고양문화재단","organizer":"경기도 고양시청","sponsor":"","phone":"031-960-9685","homepage":"http://www.gylaf.kr","relatedInfo":"","roadAddress":"경기도 고양시 일산동구 호수로 595","parcelAddress":"경기도 고양시 일산동구 장항동 906"}},{"type":"Feature","geometry":{"type":"Point","coordinates":[126.98915,37.42819]},"properties":{"name":"2026 과천공연예술축제","place":"과천시민회관 옆 잔디마당","startDate":"2026-09-18","endDate":"2026-09-20","content":"광장집중형 예술축제","host":"과천문화재단","organizer":"경기도 과천시청","sponsor":"농협은행㈜과천시지부 등","phone":"02-2009-9731","homepage":"http://www.gcfest.or.kr","relatedInfo":"","roadAddress":"경기도 과천시 통영로 5","parcelAddress":"경기도 과천시 중앙동 6-2"}},{"type":"Feature","geometry":{"type":"Point","coordinates":[126.8699,37.46676]},"properties":{"name":"구름산예술제","place":"시민체육관","startDate":"2026-09-19","endDate":"2026-09-20","content":"예술 전시+부대행사","host":"한국예술문화단체총연합회 광명지회","organizer":"경기도 광명시청","sponsor":"광명시의회","phone":"02-2680-6229","homepage":"","relatedInfo":"","roadAddress":"경기도 광명시 철망산로 2","parcelAddress":"경기도 광명시 하안동 718-2"}},{"type":"Feature","geometry":{"type":"Point","coordinates":[126.86545,37.42704]},"properties":{"name":"광명동굴빛축제","place":"광명동굴 일원","startDate":"2026-10-03","endDate":"2026-10-04","content":"드론쇼+공연+체험프로그램 등","host":"광명도시공사","organizer":"광명도시공사","sponsor":"경기도 광명시+광명시의회","phone":"02-2090-1413","homepage":"","relatedInfo":"광명동굴","roadAddress":"경기도 광명시 가학로85번길 134-21","parcelAddress":"경기도 광명시 가학동 산 7"}},{"type":"Feature","geometry":{"type":"Point","coordinates":[126.86905,37.47661]},"properties":{"name":"2026 페스티벌 광명","place":"철산역 8차선도로","startDate":"2026-10-03","endDate":"2026-10-04","content":"GM 라이브(대중음악공연)+광명음악명예의전당어워즈+사회연대경제존+푸드존 등","host":"경기도 광명시청","organizer":"경기도 광명시청","sponsor":"광명시의회","phone":"02-2680-2064","homepage":"https://festivalgm.or.kr/2025/","relatedInfo":"","roadAddress":"경기도 광명시 철산로 13","parcelAddress":"경기도 광명시 철산동 526"}},{"type":"Feature","geometry":{"type":"Point","coordinates":[127.12118,37.38031]},"properties":{"name":"2026 파크콘서트","place":"중앙공원 야외공연장","startDate":"2026-09-01","endDate":"2026-09-30","content":"기간 중 공연 3회 예정 / 1일 1회","host":"성남문화재단 공연기획부","organizer":"경기도 성남시","sponsor":"","phone":"031-729-2973","homepage":"","relatedInfo":"","roadAddress":"","parcelAddress":"경기도 성남시 분당구 수내동 65"}},{"type":"Feature","geometry":{"type":"Point","coordinates":[127.12628,37.42017]},"properties":{"name":"사회복지페스티벌","place":"성남시청","startDate":"2026-09-04","endDate":"2026-09-04","content":"사회복지의 날 기념식 및 사회복지박람회","host":"성남시사회복지협의회","organizer":"경기도 성남시","sponsor":"","phone":"031-729-2842","homepage":"","relatedInfo":"","roadAddress":"경기도 성남시 중원구 성남대로 997","parcelAddress":"경기도 성남시 중원구 여수동 200"}},{"type":"Feature","geometry":{"type":"Point","coordinates":[127.11276,37.36086]},"properties":{"name":"제5회 정자동 놀터축제 및 작품발표회","place":"정자동 봉우재어린이공원 일대","startDate":"2026-10-01","endDate":"2026-10-31","content":"공연+체험부스+전시 등","host":"경기도 성남시 분당구 정자동 주민자치위원회","organizer":"경기도 성남시","sponsor":"","phone":"031-729-7682","homepage":"","relatedInfo":"","roadAddress":"경기도 성남시 분당구 내정로7번길 18","parcelAddress":"경기도 성남시 분당구 정자동 145"}},{"type":"Feature","geometry":{"type":"Point","coordinates":[127.12666,37.42934]},"properties":{"name":"2026 모두모여모란","place":"모란 민속 5일장","startDate":"2026-10-01","endDate":"2026-10-31","content":"의식행사+무대 공연 및 유관기관 참여","host":"경기도 성남시 지역경제상권과","organizer":"경기도 성남시","sponsor":"","phone":"031-729-8973","homepage":"","relatedInfo":"","roadAddress":"경기도 성남시 중원구 둔촌대로 68","parcelAddress":"경기도 성남시 중원구 성남동 4931"}},{"type":"Feature","geometry":{"type":"Point","coordinates":[127.12628,37.42017]},"properties":{"name":"식품제조 홍보 및 판매관","place":"성남시청","startDate":"2026-10-01","endDate":"2026-10-01","content":"식품 홍보 및 판매","host":"경기도 성남시 위생정책과","organizer":"경기도 성남시","sponsor":"","phone":"031-729-3122","homepage":"","relatedInfo":"","roadAddress":"경기도 성남시 중원구 성남대로 997","parcelAddress":"경기도 성남시 중원구 여수동 200"}},{"type":"Feature","geometry":{"type":"Point","coordinates":[127.15242,37.37655]},"properties":{"name":"튼튼쑥쑥 걷기대회","place":"율동공원","startDate":"2026-10-01","endDate":"2026-10-31","content":"어린이 걷기대회","host":"성남시민간어린이집연합회","organizer":"경기도 성남시","sponsor":"","phone":"031-729-2932","homepage":"","relatedInfo":"","roadAddress":"경기도 성남시 분당구 문정로 72","parcelAddress":"경기도 성남시 분당구 율동 산91-12"}},{"type":"Feature","geometry":{"type":"Point","coordinates":[127.12628,37.42017]},"properties":{"name":"반려동물 문화행사(페스티벌)","place":"성남시청 광장","startDate":"2026-10-24","endDate":"2026-10-24","content":"행동학 강의+포토존+유기견 입양 홍보 등","host":"경기도 성남시 농업기술센터","organizer":"경기도 성남시","sponsor":"","phone":"031-729-3287","homepage":"","relatedInfo":"","roadAddress":"경기도 성남시 중원구 성남대로 997","parcelAddress":"경기도 성남시 중원구 여수동 200"}},{"type":"Feature","geometry":{"type":"Point","coordinates":[127.12487,37.42518]},"properties":{"name":"2026년 가을걷이 한마당","place":"성남시민농원","startDate":"2026-10-31","endDate":"2026-10-31","content":"전시마당+체험마당+놀이마당+먹거리마당 등","host":"경기도 성남시 농업기술센터","organizer":"경기도 성남시","sponsor":"","phone":"031-729-4032","homepage":"","relatedInfo":"","roadAddress":"경기도 성남시 중원구 여수대로 197","parcelAddress":"경기도 성남시 수정구 성남동 1949-8"}},{"type":"Feature","geometry":{"type":"Point","coordinates":[127.12051,37.4118]},"properties":{"name":"우리가족 꼬마영웅 올림픽","place":"탄천종합운동장","startDate":"2026-11-01","endDate":"2026-11-30","content":"어린이 미니올림픽","host":"성남시국공립어린이집연합회","organizer":"경기도 성남시","sponsor":"","phone":"031-729-2932","homepage":"","relatedInfo":"","roadAddress":"경기도 성남시 분당구 탄천로 215","parcelAddress":"경기도 성남시 분당구 야탑동 486"}},{"type":"Feature","geometry":{"type":"Point","coordinates":[129.30773,35.55057]},"properties":{"name":"울산공업축제","place":"태화강국가정원 남구둔치 일원","startDate":"2026-10-08","endDate":"2026-10-11","content":"울산의 과거와 현재, 미래를 보여주고 산업도시 울산의 정체성을 나타내는 울산의 대표축제","host":"울산공업축제추진위원회","organizer":"울산광역시","sponsor":"","phone":"052-276-8590","homepage":"http://www.울산공업축제.kr","relatedInfo":"","roadAddress":"","parcelAddress":"울산광역시 남구 신정동 1513"}},{"type":"Feature","geometry":{"type":"Point","coordinates":[127.48778,36.63298]},"properties":{"name":"한여름밤의 오싹 호러페스티벌","place":"중앙공원 및 용두사지철당간 등 성안길 일원","startDate":"2026-08-21","endDate":"2026-08-22","content":"호러를 테마로 청주 관광자원 연계한 축제","host":"충청북도 청주시청 관광과","organizer":"충청북도 청주시청","sponsor":"충청북도 청주시청","phone":"043-201-1793","homepage":"","relatedInfo":"","roadAddress":"충청북도 청주시 상당구 남사로 117","parcelAddress":"충청북도 청주시 상당구 남문로2가 92-6"}},{"type":"Feature","geometry":{"type":"Point","coordinates":[127.48778,36.63298]},"properties":{"name":"국가유산 미디어아트","place":"중앙공원 및 용두사지철당간 등 원도심 일원","startDate":"2026-08-28","endDate":"2026-09-17","content":"청주 원도심 국가유산을 활용한 미디어아트 제작 및 운영","host":"청주시문화산업진흥재단","organizer":"충청북도 청주시청","sponsor":"충청북도 청주시청","phone":"043-201-2436","homepage":"","relatedInfo":"","roadAddress":"충청북도 청주시 상당구 남사로 117","parcelAddress":"충청북도 청주시 상당구 남문로2가 92-6"}},{"type":"Feature","geometry":{"type":"Point","coordinates":[127.48778,36.63298]},"properties":{"name":"원도심골목길축제<여름:성안이즈백>","place":"성안동+CGV서문 광장+옛 롯데시네마 광장+로데오거리","startDate":"2026-08-29","endDate":"2026-08-30","content":"원도심의 매력을 느낄수있는 도보형 축제","host":"청주시문화산업진흥재단","organizer":"충청북도 청주시청","sponsor":"충청북도 청주시청","phone":"043-201-2018","homepage":"","relatedInfo":"","roadAddress":"충청북도 청주시 상당구 남사로 117","parcelAddress":"충청북도 청주시 상당구 남문로2가 92-6"}},{"type":"Feature","geometry":{"type":"Point","coordinates":[127.47146,36.64397]},"properties":{"name":"직지문화축제","place":"고인쇄박물관+예술의전당","startDate":"2026-09-04","endDate":"2026-09-06","content":"직지의 기록유산 등재일(9월)4일을 기념하여 직지의 의미와 가치 확산 도모를 위한 시민 참여형 축제","host":"고인쇄박물관 학예연구실","organizer":"충청북도 청주시청","sponsor":"충청북도 청주시청","phone":"043-201-3662","homepage":"","relatedInfo":"","roadAddress":"충청북도 청주시 흥덕구 직지대로 713","parcelAddress":"충청북도 청주시 흥덕구 운천동 866"}},{"type":"Feature","geometry":{"type":"Point","coordinates":[127.48778,36.63298]},"properties":{"name":"청주읍성큰잔치","place":"중앙공원 및 성안길","startDate":"2026-09-05","endDate":"2026-09-06","content":"임진왜란 청주성탈환 434주년 기념 시민참여형 축제","host":"청주문화원","organizer":"충청북도 청주시청","sponsor":"충청북도 청주시청","phone":"043-201-2013","homepage":"","relatedInfo":"","roadAddress":"충청북도 청주시 상당구 남사로 117","parcelAddress":"충청북도 청주시 상당구 남문로2가 92-6"}},{"type":"Feature","geometry":{"type":"Point","coordinates":[127.49238,36.6562]},"properties":{"name":"동부창고페스타","place":"동부창고 일원","startDate":"2026-09-12","endDate":"2026-09-13","content":"공연, 체험, 전시, 야간경관 등 동부창고 명소화 문화축제","host":"청주시문화산업진흥재단","organizer":"충청북도 청주시청","sponsor":"충청북도 청주시청","phone":"043-201-2038","homepage":"","relatedInfo":"","roadAddress":"충청북도 청주시 청원구 상당로 314","parcelAddress":"충청북도 청주시 청원구 내덕동 201-1"}},{"type":"Feature","geometry":{"type":"Point","coordinates":[127.49238,36.6562]},"properties":{"name":"청주전통공예페스티벌","place":"문화제조창 갤러리","startDate":"2026-09-17","endDate":"2026-09-27","content":"지역전통공예 활성화 및 시민 참여형 축제","host":"청주공예비엔날레조직위원회","organizer":"충청북도 청주시청","sponsor":"충청북도 청주시청","phone":"043-201-2038","homepage":"","relatedInfo":"","roadAddress":"충청북도 청주시 청원구 상당로 314","parcelAddress":"충청북도 청주시 청원구 내덕동 201-1"}},{"type":"Feature","geometry":{"type":"Point","coordinates":[127.60129,36.72124]},"properties":{"name":"세종대왕과 초정약수축제","place":"초정행궁","startDate":"2026-10-16","endDate":"2026-10-18","content":"세종대왕과 초정광천수를 모티브로 한 문화관광축제","host":"청주예총","organizer":"충청북도 청주시청","sponsor":"충청북도 청주시청","phone":"043-201-1792","homepage":"","relatedInfo":"","roadAddress":"충청북도 청주시 청원구 내수읍 초정약수로 851","parcelAddress":"충청북도 청주시 청원구 내수읍 초정리 81-5"}},{"type":"Feature","geometry":{"type":"Point","coordinates":[127.40433,36.73169]},"properties":{"name":"청원생명축제","place":"미래지농촌테마공원","startDate":"2026-10-02","endDate":"2026-10-11","content":"청원생명브랜드 홍보 및 지역화합 추진","host":"청원생명축제추진위원회","organizer":"충청북도 청주시청","sponsor":"충청북도 청주시청","phone":"043-201-2132","homepage":"","relatedInfo":"","roadAddress":"","parcelAddress":"충청북도 청주시 청원구 오창읍 용두리 1-13"}},{"type":"Feature","geometry":{"type":"Point","coordinates":[127.31934,36.62122]},"properties":{"name":"오송화장품 뷰티산업엑스포","place":"OSCO","startDate":"2026-10-22","endDate":"2026-10-24","content":"산업전시, 무역상담, 판매, 컨퍼런스, 뷰티체험 등","host":"오송바이오진흥재단","organizer":"충청북도+충청북도 청주시청","sponsor":"충청북도 청주시청","phone":"043-201-1412","homepage":"","relatedInfo":"","roadAddress":"충청북도 청주시 흥덕구 오송읍 오송생명로 250","parcelAddress":"충청북도 청주시 흥덕구 만수리 925"}},{"type":"Feature","geometry":{"type":"Point","coordinates":[127.49238,36.6562]},"properties":{"name":"청주 미식주 페스타","place":"동부창고 일원","startDate":"2026-10-24","endDate":"2026-10-25","content":"청주의 음식문화를 총망라한 식문화축제","host":"충청북도 청주시청","organizer":"충청북도 청주시청","sponsor":"충청북도 청주시청","phone":"043-201-2056","homepage":"","relatedInfo":"","roadAddress":"충청북도 청주시 청원구 상당로 314","parcelAddress":"충청북도 청주시 청원구 내덕동 201-1"}},{"type":"Feature","geometry":{"type":"Point","coordinates":[127.49238,36.6562]},"properties":{"name":"디저트베이커리 페스타","place":"문화제조창 잔디광장","startDate":"2026-10-31","endDate":"2026-11-01","content":"달콤한 도시 청주의 다채로운 디저트베이커리를 만날 수있는 달콤한 축제","host":"충청북도 청주시청","organizer":"충청북도 청주시청","sponsor":"충청북도 청주시청","phone":"043-201-2057","homepage":"","relatedInfo":"","roadAddress":"충청북도 청주시 청원구 상당로 314","parcelAddress":"충청북도 청주시 청원구 내덕동 201-1"}},{"type":"Feature","geometry":{"type":"Point","coordinates":[128.72605,34.86688]},"properties":{"name":"거제맥주축제","place":"장승포 수변공원 일원","startDate":"2026-08-23","endDate":"2026-08-24","content":"맥주 무제한 제공+무대공연+먹거리 체험 부스 등","host":"거제해양관광개발공사","organizer":"거제해양관광개발공사","sponsor":"","phone":"055-639-8192","homepage":"","relatedInfo":"","roadAddress":"경상남도 거제시 장승로 146-12","parcelAddress":"경상남도 거제시 장승포동 685-3"}},{"type":"Feature","geometry":{"type":"Point","coordinates":[128.50388,34.83387]},"properties":{"name":"거제둔덕포도&한우축제","place":"둔덕가족생활체육공원 일원","startDate":"2026-09-05","endDate":"2026-09-06","content":"포도판매+포도 경매, 체험+공연 등","host":"거제둔덕포도한우축제추진위원회","organizer":"거제둔덕포도한우축제추진위원회","sponsor":"","phone":"055-639-6611","homepage":"","relatedInfo":"","roadAddress":"","parcelAddress":"경상남도 거제시 둔덕면 하둔리 645"}},{"type":"Feature","geometry":{"type":"Point","coordinates":[128.57913,34.85646]},"properties":{"name":"거제 섬꽃축제","place":"거제시 농업기술센터 일원","startDate":"2026-10-31","endDate":"2026-11-08","content":"가을꽃 전시+농업기술 홍보+문화예술 전시 등","host":"거제시농업기술센터 농업지원과","organizer":"거제시농업기술센터 농업지원과","sponsor":"","phone":"055-639-6443","homepage":"http://www.geoje.go.kr/flower/index.geoje","relatedInfo":"","roadAddress":"경상남도 거제시 거제면 거제남서로 3577","parcelAddress":"경상남도 거제시 거제면 서정리 978-14"}},{"type":"Feature","geometry":{"type":"Point","coordinates":[128.72605,34.86688]},"properties":{"name":"장승포항송년불꽃축제","place":"장승포항 수변공원 일원","startDate":"2026-12-31","endDate":"2026-12-31","content":"식전공연+개막식+불꽃연출+식후공연+부대행사 등","host":"거제시해양관광개발공사","organizer":"거제시해양관광개발공사","sponsor":"","phone":"055-639-3534","homepage":"","relatedInfo":"","roadAddress":"경상남도 거제시 장승로 146-12","parcelAddress":"경상남도 거제시 장승포동 685-3"}},{"type":"Feature","geometry":{"type":"Point","coordinates":[127.10243,37.1669]},"properties":{"name":"제3회 화성 루나 빛 축제","place":"동탄호수공원","startDate":"2026-10-31","endDate":"2026-10-31","content":"빛 콘텐츠 및 루나마켓+루나쇼+문화공연","host":"화성시문화관광재단","organizer":"경기도 화성시","sponsor":"","phone":"031-5189-3835","homepage":"","relatedInfo":"","roadAddress":"경기도 화성시 동탄구 동탄순환대로 69","parcelAddress":"경기도 화성시 동탄구 송동 727번지"}},{"type":"Feature","geometry":{"type":"Point","coordinates":[126.68127,37.11603]},"properties":{"name":"화성송산포도축제","place":"궁평항","startDate":"2026-09-05","endDate":"2026-09-06","content":"포도 체험, 직거래 장터","host":"(재)화성푸드통합지원센터","organizer":"경기도 화성시","sponsor":"","phone":"031-5189-6441","homepage":"","relatedInfo":"","roadAddress":"경기도 화성시 만세구 서신면 궁평항로 1049-24","parcelAddress":"경기도 화성시 만세구 서신면 궁평리 689번지"}},{"type":"Feature","geometry":{"type":"Point","coordinates":[127.08662,37.1983]},"properties":{"name":"제3회 도농 어울림 축제","place":"동탄여울공원","startDate":"2026-09-19","endDate":"2026-09-20","content":"농업문화 체험+직거래 장터","host":"화성시농업기술센터","organizer":"경기도 화성시","sponsor":"","phone":"031-5189-6335","homepage":"","relatedInfo":"","roadAddress":"경기도 화성시 동탄구 동부대로 1063-3","parcelAddress":"경기도 화성시 동탄구 여울동 1060"}},{"type":"Feature","geometry":{"type":"Point","coordinates":[126.99597,37.20664]},"properties":{"name":"정조효문화제 및 정조대왕능행차 공동재현","place":"정조효공원+융건릉 일원","startDate":"2026-10-03","endDate":"2026-10-04","content":"현륭원 천원 재현+을묘년 원행 재현+현륭원 제향","host":"화성시문화관광재단","organizer":"경기도 화성시","sponsor":"","phone":"031-5189-6654","homepage":"http://www.정조효문화제.com/","relatedInfo":"","roadAddress":"경기도 화성시 병점구 장조1로 34","parcelAddress":"경기도 화성시 병점구 안녕동 228"}},{"type":"Feature","geometry":{"type":"Point","coordinates":[127.06188,37.20875]},"properties":{"name":"2025 화성 학생동아리 축제","place":"동탄센트럴파크 일원","startDate":"2026-10-24","endDate":"2026-10-24","content":"초중고 학생동아리 공연+전시 및 체험부스 운영","host":"화성시 인재육성재단","organizer":"경기도 화성시","sponsor":"","phone":"031-898-8440","homepage":"http://www.hsscf.kr/","relatedInfo":"","roadAddress":"경기도 화성시 동탄구 동탄지성로 121","parcelAddress":"경기도 화성시 동탄구 반송동 43-2"}},{"type":"Feature","geometry":{"type":"Point","coordinates":[127.49691,36.63734]},"properties":{"name":"원도심골목길축제<가을:집대성>","place":"대성동+청주향교길","startDate":"2026-11-07","endDate":"2026-11-08","content":"다양한 문화예술 프로그램을 매개로 정체된 원도심에 활력을 불어넣는 시민참여형 축제","host":"청주시문화산업진흥재단","organizer":"충청북도 청주시청","sponsor":"충청북도 청주시청","phone":"043-201-2018","homepage":"","relatedInfo":"","roadAddress":"충청북도 청주시 상당구 대성로122번길 81","parcelAddress":"충청북도 청주시 상당구 대성동 55-1"}},{"type":"Feature","geometry":{"type":"Point","coordinates":[128.73293,36.56274]},"properties":{"name":"안동국제탈춤페스티벌","place":"중앙선1942안동역+탈춤공원+원도심 일원+하회마을 외","startDate":"2026-09-25","endDate":"2026-10-04","content":"탈춤공연+경연대회+대동난장 등","host":"한국정신문화재단","organizer":"한국정신문화재단","sponsor":"문화체육관광부+국가유산청+경상북도+경상북도 안동시","phone":"054-840-3400","homepage":"www.maskdance.com","relatedInfo":"명예대표 문화관광축제","roadAddress":"경상북도 안동시 경동로 684 일대","parcelAddress":""}},{"type":"Feature","geometry":{"type":"Point","coordinates":[128.35071,36.11578]},"properties":{"name":"2026 구미푸드페스티벌","place":"시청 앞 송정맛길","startDate":"2026-10-09","endDate":"2026-10-10","content":"지역 음식테마 축제","host":"경상북도 구미시","organizer":"경상북도 구미시","sponsor":"","phone":"054-480-5593","homepage":"","relatedInfo":"","roadAddress":"","parcelAddress":"경상북도 구미시 송정동 501"}},{"type":"Feature","geometry":{"type":"Point","coordinates":[128.33094,36.12833]},"properties":{"name":"2026 구미라면축제","place":"구미역(원평동)일원","startDate":"2026-11-06","endDate":"2026-11-08","content":"라면테마축제","host":"경상북도 구미시","organizer":"경상북도 구미시","sponsor":"농심","phone":"054-480-2652","homepage":"구미라면.com","relatedInfo":"","roadAddress":"경상북도 구미시 구미중앙로 76","parcelAddress":"경상북도 구미시 원평동 1008-1"}},{"type":"Feature","geometry":{"type":"Point","coordinates":[128.84281,35.90454]},"properties":{"name":"2026 경산 반려문화축제","place":"남천강변","startDate":"2026-11-09","endDate":"2026-11-10","content":"반려동식물 특강+체험 행사","host":"(재)경산문화관광재단","organizer":"(재)경산문화관광재단","sponsor":"경상북도 경산시","phone":"053-810-5357","homepage":"www.gbgs.go.kr","relatedInfo":"","roadAddress":"경상북도 경산시 진량읍 대구대로 201","parcelAddress":"경상북도 경산시 진량읍 내리리 15"}},{"type":"Feature","geometry":{"type":"Point","coordinates":[128.74787,35.81827]},"properties":{"name":"2026 경산갓바위소원성취축제","place":"갓바위 공영주차장+와촌면민운동장","startDate":"2026-06-01","endDate":"2026-09-30","content":"다례봉행+음악회","host":"(재)경산문화관광재단","organizer":"(재)경산문화관광재단","sponsor":"경상북도+경상북도 경산시","phone":"053-819-0332","homepage":"https://gsctf.or.kr/","relatedInfo":"","roadAddress":"경상북도 경산시 계양로 28","parcelAddress":"경상북도 경산시 계양동 683-2"}},{"type":"Feature","geometry":{"type":"Point","coordinates":[128.74787,35.81827]},"properties":{"name":"제15회 경산대추축제 농산물한마당","place":"경산생활체육공원 어귀마당","startDate":"2026-10-01","endDate":"2026-10-31","content":"우수 농산물 홍보+판매","host":"(재)경산문화관광재단","organizer":"(재)경산문화관광재단","sponsor":"경상북도+경상북도 경산시","phone":"053-819-0334","homepage":"https://gsctf.or.kr/","relatedInfo":"","roadAddress":"경상북도 경산시 계양로 28","parcelAddress":"경상북도 경산시 계양동 683-2"}},{"type":"Feature","geometry":{"type":"Point","coordinates":[129.05549,36.43272]},"properties":{"name":"청송사과축제","place":"청송읍 용전천 변(현비암 일원)","startDate":"2026-11-04","endDate":"2026-11-08","content":"공연+경연+체험+전시+판매","host":"청송군축제추진위원회","organizer":"경상북도 청송군청","sponsor":"문화체육관광부+경상북도+청송군의회+청송경찰서+청송교육지원청+청송군관내농협+(사)청송사과협회+청송사과유통센터+(재)청송문화관광재단","phone":"054-870-6237","homepage":"","relatedInfo":"","roadAddress":"","parcelAddress":"경상북도 청송군 청송읍 월막리 368-2"}},{"type":"Feature","geometry":{"type":"Point","coordinates":[128.64024,34.7733]},"properties":{"name":"거제몽돌해변불꽃축제","place":"학동흑진주몽돌해변 일원","startDate":"2026-11-07","endDate":"2026-11-07","content":"체험행사+공연+불꽃 퍼레이드 등","host":"학동마을회","organizer":"동부면사무소","sponsor":"","phone":"055-639-6492","homepage":"","relatedInfo":"","roadAddress":"경상남도 거제시 동부면 학동6길 18-1","parcelAddress":"경상남도 거제시 동부면 학동리 295-1"}},{"type":"Feature","geometry":{"type":"Point","coordinates":[126.55038,36.71356]},"properties":{"name":"서산해미읍성축제","place":"해미읍성","startDate":"2026-10-09","endDate":"2026-10-11","content":"전통문화 공연 및 체험 등","host":"(재)서산문화재단(서산해미읍성축제추진위원회)","organizer":"충청남도 서산시","sponsor":"충청남도+충청남도의회 등","phone":"041-660-2364","homepage":"https://www.seosan.go.kr/tour/index.do","relatedInfo":"","roadAddress":"충청남도 서산시 해미면 남문2로 143","parcelAddress":""}},{"type":"Feature","geometry":{"type":"Point","coordinates":[126.71173,35.98773]},"properties":{"name":"2026 제14회 군산시간여행축제","place":"시간여행마을 일원","startDate":"2026-10-02","endDate":"2026-10-05","content":"근대를 축으로 한 시간여행축제","host":"전북특별자치도 군산시","organizer":"전북특별자치도 군산시","sponsor":"","phone":"063-454-3302","homepage":"http://festival.gunsan.go.kr/","relatedInfo":"주변관광지 : 군산근대역사박물관+초원사진관+동국사 등","roadAddress":"전북특별자치도 군산시 중앙로 178","parcelAddress":"전북특별자치도 군산시 중앙로1가 11-1"}},{"type":"Feature","geometry":{"type":"Point","coordinates":[126.98613,35.94973]},"properties":{"name":"익산천만송이국화축제","place":"익산중앙체육공원","startDate":"2026-10-23","endDate":"2026-11-01","content":"국화조형물 및 작품 전시+로컬푸드 판매+체험+공연+이벤트","host":"익산시농업기술센터","organizer":"전북특별자치도 익산시청","sponsor":"","phone":"063-859-4977","homepage":"https://www.iksan.go.kr/gukhwa/","relatedInfo":"","roadAddress":"전북특별자치도 익산시 하나로 322","parcelAddress":"전북특별자치도 익산시 어양동 52"}},{"type":"Feature","geometry":{"type":"Point","coordinates":[127.43426,35.79492]},"properties":{"name":"제8회 진안고원 김치보쌈축제","place":"진안홍삼한방센터 일원","startDate":"2026-11-14","endDate":"2026-11-15","content":"우리집 김치담그기+사랑의 김장나눔 등","host":"진안YMCA","organizer":"전북특별자치도 진안군","sponsor":"","phone":"063-430-2393","homepage":"https://jinankimchi.kr/","relatedInfo":"","roadAddress":"전북특별자치도 진안군 진안읍 진무로 1166","parcelAddress":"전북특별자치도 진안군 진안읍 군상리 234"}},{"type":"Feature","geometry":{"type":"Point","coordinates":[127.41626,35.77325]},"properties":{"name":"2026 진안홍삼축제","place":"마이산 북부 일원","startDate":"2026-09-18","endDate":"2026-09-20","content":"홍삼 수삼판매+홍삼관련체험+문화공연 등","host":"진안홍삼축제추진위원회","organizer":"전북특별자치도 진안군","sponsor":"","phone":"063-430-2392","homepage":"https://www.jinan.go.kr/festival/","relatedInfo":"","roadAddress":"전북특별자치도 진안군 진안읍 마이산로 160","parcelAddress":"전북특별자치도 진안군 진안읍 단양리 778"}},{"type":"Feature","geometry":{"type":"Point","coordinates":[127.05916,37.51182]},"properties":{"name":"강남페스티벌","place":"코엑스26+영동대로 등","startDate":"2026-10-02","endDate":"2026-10-05","content":"개막제+영동대로 K-POP 콘서트 등","host":"서울특별시 강남구청","organizer":"서울특별시 강남구청","sponsor":"","phone":"02-3423-5534","homepage":"https://visitgangnam.net/cultural-events/","relatedInfo":"","roadAddress":"서울특별시 강남구 영동대로 513","parcelAddress":"서울특별시 강남구 삼성동 159"}},{"type":"Feature","geometry":{"type":"Point","coordinates":[128.58615,35.88302]},"properties":{"name":"떡볶이 페스티벌","place":"대구IM뱅크 PARK 일원","startDate":"2026-10-23","endDate":"2026-10-25","content":"떡볶이 콘테스트+떡볶이 매식행사+공연+체험 등","host":"대구광역시 북구","organizer":"대구광역시 북구","sponsor":"대구광역시","phone":"053-665-2795","homepage":"","relatedInfo":"","roadAddress":"","parcelAddress":"대구광역시 북구 고성동3가 2"}},{"type":"Feature","geometry":{"type":"Point","coordinates":[128.60395,35.90943]},"properties":{"name":"금호강 바람소리길축제","place":"산격대교 하단 일원","startDate":"2026-09-19","endDate":"2026-09-20","content":"불꽃놀이+공연+전시+체험 등","host":"(재)행복북구문화재단","organizer":"(재)행복북구문화재단","sponsor":"대구광역시 북구, 대구광역시","phone":"053-665-2172","homepage":"","relatedInfo":"","roadAddress":"","parcelAddress":"대구광역시 북구 산격동 1477-1"}},{"type":"Feature","geometry":{"type":"Point","coordinates":[126.72186,37.50707]},"properties":{"name":"2026 부평풍물대축제","place":"부평대로+신트리공원 등","startDate":"2026-10-02","endDate":"2026-10-04","content":"전통풍물공연+창작연희공연+퍼레이드+개막 및 폐막 공연+체험행사+경연대회 등","host":"부평구축제위원회+ 부평구문화재단+ 부평문화원","organizer":"인천광역시 부평구청","sponsor":"","phone":"032-509-7516","homepage":"https://portal.icbp.go.kr/bpf/","relatedInfo":"","roadAddress":"인천광역시 부평구 부평대로 168","parcelAddress":"인천광역시 부평구 부평동 879"}},{"type":"Feature","geometry":{"type":"Point","coordinates":[129.1022,37.51606]},"properties":{"name":"동해무릉제","place":"동해웰빙레포츠타운","startDate":"2026-09-17","endDate":"2026-09-20","content":"개막식+공연행사+먹거리+체험거리부스운영","host":"한국예술문화단체총연합회 동해지회","organizer":"강원특별자치도 동해시청","sponsor":"강원특별자치도 동해시청","phone":"033-530-2412","homepage":"dhfesta.or.kr/dmrf","relatedInfo":"","roadAddress":"강원특별자치도 동해시 덕골길 10","parcelAddress":"강원특별자치도 동해시 천곡동 363-1"}},{"type":"Feature","geometry":{"type":"Point","coordinates":[127.27349,36.49718]},"properties":{"name":"세종한글축제","place":"세종호수,중앙공원 일원","startDate":"2026-10-09","endDate":"2026-10-11","content":"세종대왕과 애민정신을 바탕으로 매년 한글날을 맞아 개최되는 세종시 대표축제","host":"세종특별자치시 문화관광재단","organizer":"세종특별자치시청","sponsor":"","phone":"044-850-0591","homepage":"https://www.sjcf.or.kr/index.do","relatedInfo":"","roadAddress":"세종특별자치시 호수공원길 155","parcelAddress":"세종특별자치시 세종동 1201"}},{"type":"Feature","geometry":{"type":"Point","coordinates":[127.1111,35.36784]},"properties":{"name":"순창장류축제","place":"순창전통고추장민속마을 및 발효테마파크 일원","startDate":"2026-10-15","endDate":"2026-10-18","content":"임금님 진상행렬+발효나라 1997+다함께 고추장 만들자+전통장문화학교+콩+삶고 찧고 메주만들자","host":"순창장류축제추진위원회","organizer":"전북특별자치도 순창군","sponsor":"","phone":"063-650-1624","homepage":"http://www.jangfestival.co.kr","relatedInfo":"","roadAddress":"전북특별자치도 순창군 순창읍 장류로 55","parcelAddress":"전북특별자치도 순창군 순창읍 백산리 580"}},{"type":"Feature","geometry":{"type":"Point","coordinates":[128.37155,37.61411]},"properties":{"name":"평창효석문화제","place":"메밀꽃밭+봉평면 일대","startDate":"2026-09-04","endDate":"2026-09-13","content":"마당극공연(메밀꽃필무렵)+평창메밀꽃가요제+전국효석백일장+이효석문화포럼+이효석문학상시상식+라디오공개방송","host":"사단법인 이효석문학선양회","organizer":"사단법인 이효석문학선양회","sponsor":"","phone":"033-335-2323","homepage":"http://www.hyoseok.com","relatedInfo":"","roadAddress":"강원특별자치도 평창군 봉평면 이효석길 157","parcelAddress":"강원특별자치도 평창군 봉평면 원길리 764-1"}},{"type":"Feature","geometry":{"type":"Point","coordinates":[127.82936,35.44106]},"properties":{"name":"산청한방약초축제","place":"동의보감촌 일원","startDate":"2026-10-02","endDate":"2026-10-11","content":"산청혜민서+내몸의 보약체험+산청한의학박물관 특별전+약초판매장터+산청약초관+동의보감상설체험 등","host":"산청축제관광재단","organizer":"산청축제관광재단","sponsor":"","phone":"055-970-6670","homepage":"http://www.scherb.or.kr/","relatedInfo":"","roadAddress":"경상남도 산청군 금서면 동의보감로555번길 45-6","parcelAddress":"경상남도 산청군 금서면 특리 1300-28"}},{"type":"Feature","geometry":{"type":"Point","coordinates":[128.9741,35.16879]},"properties":{"name":"부산국제록페스티벌","place":"삼락생태공원","startDate":"2026-10-02","endDate":"2026-10-04","content":"부산국제록페스티벌+Rookies on the BU-ROCK+Road to BU-ROCK+푸드코트 라운지+캠핑존 등","host":"부산축제조직위원회","organizer":"부산광역시","sponsor":"","phone":"051-713-5000","homepage":"https://busanrockfestival.com/","relatedInfo":"","roadAddress":"","parcelAddress":"부산광역시 사상구 삼락동 29-50"}},{"type":"Feature","geometry":{"type":"Point","coordinates":[126.723,37.49442]},"properties":{"name":"부평풍물대축제","place":"부평역+부평대로 & 부평 일대","startDate":"2026-10-02","endDate":"2026-10-04","content":"개폐막공원+부평대동퍼레이드 & 부평만만세 등","host":"부평구축제위원회+부평구문화재단+부평문화원","organizer":"인천광역시 부평구","sponsor":"","phone":"032-509-7516","homepage":"https://portal.icbp.go.kr/bpf/","relatedInfo":"","roadAddress":"인천광역시 부평구 부평대로 34-1 (부평동)","parcelAddress":"인천광역시 부평구 부평동 126-10"}},{"type":"Feature","geometry":{"type":"Point","coordinates":[129.56653,36.07608]},"properties":{"name":"호미곶한민족해맞이축전","place":"호미곶 해맞이광장","startDate":"2026-12-31","endDate":"2027-01-01","content":"호미곶등대 미디어파사드+호랑이탈춤 및 만들기 체험 등","host":"포항문화재단","organizer":"경상북도 포항시","sponsor":"","phone":"054-289-7852","homepage":"http://www.phcf.or.kr","relatedInfo":"","roadAddress":"경상북도 포항시 남구 호미곶면 해맞이로 136","parcelAddress":"경상북도 포항시 남구 호미곶면 대보리 286-6"}},{"type":"Feature","geometry":{"type":"Point","coordinates":[129.3472,36.11084]},"properties":{"name":"포항 흥해 국가유산야행","place":"흥해면 일원+영일민속박물관","startDate":"2026-06-12","endDate":"2026-10-04","content":"문화유산 미디어아트+인문탐방 스탬프 투어+인문학 콘서트 등","host":"포항문화재단","organizer":"경상북도 포항시","sponsor":"","phone":"054-289-7855","homepage":"http://www.phcf.or.kr","relatedInfo":"","roadAddress":"경상북도 포항시 북구 흥해읍 한동로 51","parcelAddress":"경상북도 포항시 북구 흥해읍 성내리 39-8"}},{"type":"Feature","geometry":{"type":"Point","coordinates":[129.36844,36.04321]},"properties":{"name":"포항스틸아트페스티벌","place":"포항시 일원+동빈문화창고1969","startDate":"2026-10-24","endDate":"2026-11-15","content":"스틸작품 전시스틸워크숍 및 예술교육프로그램+아트투어 등","host":"포항문화재단","organizer":"경상북도 포항시","sponsor":"","phone":"054-289-7854","homepage":"http://www.phcf.or.kr","relatedInfo":"","roadAddress":"경상북도 포항시 북구 삼호로 36, 6층","parcelAddress":"경상북도 포항시 북구 동빈1가 90"}},{"type":"Feature","geometry":{"type":"Point","coordinates":[129.37807,36.05729]},"properties":{"name":"포항국제불빛축제","place":"영일대해수욕장 (또는) 형산강체육공원","startDate":"2026-11-20","endDate":"2026-11-22","content":"불꽃연화쇼+드론쇼+퍼레이드+라이트 아트+프린지 공연 등","host":"포항문화재단","organizer":"경상북도 포항시","sponsor":"","phone":"054-289-7853","homepage":"http://www.phcf.or.kr","relatedInfo":"","roadAddress":"","parcelAddress":"경상북도 포항시 북구 두호동 685-1"}},{"type":"Feature","geometry":{"type":"Point","coordinates":[128.66597,37.3772]},"properties":{"name":"정선아리랑제","place":"정선공설운동장 일대","startDate":"2026-10-01","endDate":"2026-10-04","content":"개막식 주제공연+전국아리랑경창대회+아리랑 퍼레이드+정선전통 맹글장 등","host":"정선아리랑문화재단","organizer":"강원특별자치도 정선군","sponsor":"","phone":"033-560-3013","homepage":"http://arirangfestival.kr","relatedInfo":"","roadAddress":"","parcelAddress":"강원특별자치도 정선군 정선읍 봉양리 104"}},{"type":"Feature","geometry":{"type":"Point","coordinates":[126.74875,37.51294]},"properties":{"name":"부천국제만화축제","place":"한국만화박물관 및 한국만화영상진흥원 일원","startDate":"2026-09-18","endDate":"2026-09-20","content":"만화 기획·특별전시+경기국제코스프레페스티벌+BICOF 플레이그라운드+비밀상점 등","host":"한국만화영상진흥원","organizer":"한국만화영상진흥원","sponsor":"","phone":"032-310-3071","homepage":"https://www.bicof.com","relatedInfo":"","roadAddress":"경기도 부천시 원미구 길주로 1 (상동)","parcelAddress":"경기도 부천시 원미구 상동 529-2"}},{"type":"Feature","geometry":{"type":"Point","coordinates":[127.01371,37.28187]},"properties":{"name":"수원화성문화제","place":"수원화성 일원","startDate":"2026-10-04","endDate":"2026-10-11","content":"수원판타지 야조+정조대왕 능행차+시민의 위대한 건축 화홍+수원 가마레이스","host":"경기도 수원시+수원화성문화제 추진위원회+수원문화재단","organizer":"경기도 수원시","sponsor":"","phone":"031-5191-3647","homepage":"https://shfestival.com","relatedInfo":"","roadAddress":"경기도 수원시 팔달구 정조로 825 (남창동) 행궁광장","parcelAddress":"경기도 수원시 팔달구 남창동 6-2 화성행궁"}},{"type":"Feature","geometry":{"type":"Point","coordinates":[126.78126,37.38979]},"properties":{"name":"시흥갯골축제","place":"시흥갯골생태공원","startDate":"2026-09-18","endDate":"2026-09-20","content":"소금의기억+희망 종이비행기+갯골 버스킹+바람의 음악제+갯골 느린 우체국 등","host":"경기도 시흥시","organizer":"경기도 시흥시","sponsor":"","phone":"031-310-2920","homepage":"","relatedInfo":"","roadAddress":"경기도 시흥시 동서로 287","parcelAddress":"경기도 시흥시 장곡동 724-32"}},{"type":"Feature","geometry":{"type":"Point","coordinates":[127.3078,37.03284]},"properties":{"name":"안성맞춤 남사당 바우덕이축제","place":"안성맞춤랜드 및 안성천 일원","startDate":"2026-10-02","endDate":"2026-10-05","content":"추모제+전야제+개장식+개폐막식","host":"안성맞춤 남사당 바우덕이축제위원회","organizer":"경기도 안성시","sponsor":"","phone":"031-678-5414","homepage":"https://www.anseong.go.kr/festival","relatedInfo":"","roadAddress":"경기도 안성시 보개면 남사당로 198","parcelAddress":"경기도 안성시 보개면 복평리 303-3"}},{"type":"Feature","geometry":{"type":"Point","coordinates":[129.05572,36.43241]},"properties":{"name":"청송사과축제","place":"청송읍 용전천 현비암 일원","startDate":"2026-11-04","endDate":"2026-11-08","content":"청송사과 퍼레이드+청송사과 꽃줄엮기 전국대회+꿀잼-사과난타+사과 티코스터 만들기 등","host":"청송군축제추진위원회","organizer":"경상북도 청송군","sponsor":"","phone":"054-870-6237","homepage":"https://csapplefestival.kr/","relatedInfo":"","roadAddress":"","parcelAddress":"경상북도 청송군 청송읍 월막리 362"}},{"type":"Feature","geometry":{"type":"Point","coordinates":[126.85146,35.1601]},"properties":{"name":"광주김치축제","place":"광주광역시청","startDate":"2026-10-23","endDate":"2026-10-25","content":"천인의밥상(음식먹거리 부스)+K-김치파티+광주스타셰프 푸드쇼+김치명인 푸드스테이지+김치마켓","host":"광주김치축제위원회","organizer":"광주광역시청","sponsor":"","phone":"062-613-3955","homepage":"http://kimchi.gwangju.go.kr","relatedInfo":"","roadAddress":"광주광역시 서구 내방로 111","parcelAddress":"광주광역시 서구 치평동 1200"}},{"type":"Feature","geometry":{"type":"Point","coordinates":[126.52261,35.05814]},"properties":{"name":"겨울빛축제","place":"함평엑스포공원","startDate":"2026-12-01","endDate":"2027-01-01","content":"함평의 밤 빛의 향연","host":"전라남도 함평군+함평축제관광재단","organizer":"전라남도 함평군+함평축제관광재단","sponsor":"전라남도+한국관광공사+농림축산식품부+농촌진흥청+대한민국국화동호회","phone":"061-320-2239","homepage":"https://www.hpftf.or.kr/","relatedInfo":"크리스마스+트리+겨울 빛 야관경관 축제","roadAddress":"전라남도 함평군 함평읍 곤재로 27","parcelAddress":"전라남도 함평군 함평읍 수호리 1153-1"}},{"type":"Feature","geometry":{"type":"Point","coordinates":[126.52261,35.05814]},"properties":{"name":"대한민국 국향대전","place":"함평엑스포공원","startDate":"2026-10-01","endDate":"2026-11-01","content":"마법의 국향랜드","host":"전라남도 함평군+함평축제관광재단","organizer":"전라남도 함평군+함평축제관광재단","sponsor":"전라남도+한국관광공사+농림축산식품부+농촌진흥청+대한민국국화동호회","phone":"061-320-2239","homepage":"https://www.hpftf.or.kr/","relatedInfo":"가을과 겨울 정취를 만끽할 수 있는 경관연출과 대형트리","roadAddress":"전라남도 함평군 함평읍 곤재로 27","parcelAddress":"전라남도 함평군 함평읍 수호리 1153-1"}},{"type":"Feature","geometry":{"type":"Point","coordinates":[126.78151,35.30951]},"properties":{"name":"황룡강 가을꽃축제","place":"황룡강변 일원","startDate":"2026-10-08","endDate":"2026-10-11","content":"공연+체험+판매행사 등","host":"전라남도 장성군축제위원회","organizer":"전라남도 장성군청","sponsor":"","phone":"061-390-7252","homepage":"https://www.jangseong.go.kr/home/tour_new/festival/festival_04/festival_04_04","relatedInfo":"","roadAddress":"","parcelAddress":"전라남도 장성군 장성읍 기산리 461-1"}},{"type":"Feature","geometry":{"type":"Point","coordinates":[126.88304,35.43578]},"properties":{"name":"백양사 고불매 선매향 축제","place":"백양사 일원","startDate":"2026-10-26","endDate":"2026-10-26","content":"공연+체험+판매행사 등","host":"대한불교조계종 백암산 백양사","organizer":"전라남도 장성군청","sponsor":"","phone":"061-390-7241","homepage":"","relatedInfo":"","roadAddress":"","parcelAddress":"전라남도 장성군 북하면 약수리 123"}},{"type":"Feature","geometry":{"type":"Point","coordinates":[126.88304,35.43578]},"properties":{"name":"백양사 산사음악회","place":"백양사 일원","startDate":"2026-10-26","endDate":"2026-10-26","content":"공연+체험+판매행사 등","host":"대한불교조계종 백암산 백양사","organizer":"전라남도 장성군청","sponsor":"","phone":"061-390-7241","homepage":"","relatedInfo":"","roadAddress":"","parcelAddress":"전라남도 장성군 북하면 약수리 123"}},{"type":"Feature","geometry":{"type":"Point","coordinates":[126.6715,35.25251]},"properties":{"name":"삼계면 민관군 화합 전통문화체험 축제","place":"삼계면 택지지구 일대","startDate":"2026-09-26","endDate":"2026-09-26","content":"공연+체험+판매행사 등","host":"삼계면 청년회","organizer":"장성군 삼계면 행정복지센터","sponsor":"","phone":"061-390-6963","homepage":"","relatedInfo":"","roadAddress":"","parcelAddress":"전라남도 장성군 삼계면 주산리 751-1"}},{"type":"Feature","geometry":{"type":"Point","coordinates":[126.76904,35.29214]},"properties":{"name":"황룡면 뱃나드리 축제","place":"황룡강변 일대","startDate":"2026-10-26","endDate":"2026-10-26","content":"공연+체험+판매행사 등","host":"황룡면 뱃나드리 축제 추진위원회","organizer":"장성군 황룡면 행정복지센터","sponsor":"","phone":"061-390-6991","homepage":"","relatedInfo":"","roadAddress":"","parcelAddress":"전라남도 장성군 황룡면 장산리 1-60"}},{"type":"Feature","geometry":{"type":"Point","coordinates":[126.78522,35.3032]},"properties":{"name":"장성읍 영천 막걸리 축제","place":"장성읍 행정복지센터 일대","startDate":"2026-09-26","endDate":"2026-09-26","content":"공연+체험+판매행사 등","host":"장성읍 축제추진위원회","organizer":"장성군 장성읍 행정복지센터","sponsor":"","phone":"061-390-6801","homepage":"","relatedInfo":"","roadAddress":"","parcelAddress":"전라남도 장성군 장성읍 영천리 1105-1"}},{"type":"Feature","geometry":{"type":"Point","coordinates":[126.47228,36.53883]},"properties":{"name":"홍성남당항 대하축제","place":"남당항 해양분수공원 일원","startDate":"2026-08-21","endDate":"2026-09-20","content":"대하 판매 및 공연 행사 등","host":"남당항축제추진위원회","organizer":"충청남도 홍성군","sponsor":"충청남도 홍성군","phone":"041-630-1237","homepage":"https://www.hongseong.go.kr/tour/index.do","relatedInfo":"남당항+해양분수공원","roadAddress":"충청남도 홍성군 서부면 남당항로213번길 1-1","parcelAddress":"충청남도 홍성군 서부면 남당리 859-3"}},{"type":"Feature","geometry":{"type":"Point","coordinates":[126.62498,36.5005]},"properties":{"name":"광천김토굴새우젓축제","place":"광천전통시장 일원","startDate":"2026-10-16","endDate":"2026-10-18","content":"광천김새우젓 판매 및 공연행사 등","host":"광천김토굴새우젓축제추진위원회","organizer":"충청남도 홍성군","sponsor":"충청남도 홍성군","phone":"041-630-1237","homepage":"https://www.hongseong.go.kr/tour/index.do","relatedInfo":"광천+전통시장","roadAddress":"충청남도 홍성군 광천읍 광천1길 45","parcelAddress":"충청남도 홍성군 광천읍 광천리 230"}},{"type":"Feature","geometry":{"type":"Point","coordinates":[126.66139,36.60172]},"properties":{"name":"홍성글로벌바비큐페스티벌","place":"홍주읍성","startDate":"2026-10-29","endDate":"2026-11-01","content":"홍성 농특산물을 이용한 바비큐 판매 및 체험","host":"(재)홍주문화관광재단/홍성군자원봉사센터","organizer":"충청남도 홍성군","sponsor":"충청남도 홍성군","phone":"041-634-8705","homepage":"https://hongju.or.kr/home/main.do","relatedInfo":"홍주읍성","roadAddress":"충청남도 홍성군 홍성읍 아문길 27","parcelAddress":"충청남도 홍성군 홍성읍 오관리 98"}},{"type":"Feature","geometry":{"type":"Point","coordinates":[128.97657,35.17001]},"properties":{"name":"부산국제록페스티벌","place":"삼락생태공원","startDate":"2026-10-02","endDate":"2026-10-04","content":"국내외 유명밴드 스테이지 공연 등","host":"(사)부산축제조직위원회","organizer":"부산광역시청","sponsor":"","phone":"051-888-5221","homepage":"https://festivalbusan.com/","relatedInfo":"","roadAddress":"부산광역시 사상구 낙동대로 1231","parcelAddress":"부산광역시 사상구 삼락동 617-3"}},{"type":"Feature","geometry":{"type":"Point","coordinates":[129.11852,35.15377]},"properties":{"name":"부산불꽃축제","place":"광안리해수욕장","startDate":"2026-11-07","endDate":"2026-11-07","content":"불꽃 토크쇼+부산멀티불꽃쇼 등","host":"(사)부산축제조직위원회","organizer":"부산광역시청","sponsor":"","phone":"051-888-5222","homepage":"https://festivalbusan.com/","relatedInfo":"","roadAddress":"부산광역시 수영구 광안해변로 219","parcelAddress":"부산광역시 수영구 광안동 192-20"}},{"type":"Feature","geometry":{"type":"Point","coordinates":[126.88921,35.1831]},"properties":{"name":"광주비엔날레","place":"광주비엔날레전시관","startDate":"2026-09-05","endDate":"2026-11-15","content":"현대미술 전시+파빌리온전시+국제학술행사","host":"광주비엔날레재단","organizer":"광주광역시청","sponsor":"","phone":"062-613-3431","homepage":"https://www.gwangjubiennale.org/gb/index.do","relatedInfo":"","roadAddress":"광주광역시 북구 비엔날레로 111","parcelAddress":"광주광역시 북구 용봉동 산 149-2"}},{"type":"Feature","geometry":{"type":"Point","coordinates":[126.91873,35.14836]},"properties":{"name":"광주프린지페스티벌","place":"5·18민주광장+국립아시아문화전당 주변","startDate":"2026-10-23","endDate":"2026-10-25","content":"거리공연(음악, 마임, 거리극 등)+시민참여 체험프로그램","host":"광주문화재단","organizer":"광주광역시청","sponsor":"","phone":"062-613-3182","homepage":"","relatedInfo":"","roadAddress":"광주광역시 동구 금남로 245","parcelAddress":"광주광역시 동구 금남로1가 1-1"}},{"type":"Feature","geometry":{"type":"Point","coordinates":[126.91186,35.1419]},"properties":{"name":"광주사운드파크페스티벌","place":"광주사직공원 일원","startDate":"2026-10-10","endDate":"2026-10-10","content":"뮤지션 공연","host":"광주정보문화산업진흥원","organizer":"광주광역시청","sponsor":"","phone":"062-613-2471","homepage":"https://www.gicon.or.kr/menu.es?mid=a11003020200","relatedInfo":"","roadAddress":"광주광역시 남구 사직길 49","parcelAddress":"광주광역시 남구 사동 177"}},{"type":"Feature","geometry":{"type":"Point","coordinates":[127.29906,37.51627]},"properties":{"name":"제40회 정약용문화제","place":"남양주시 정약용유적지 일원","startDate":"2026-10-17","endDate":"2026-10-18","content":"정약용 선생의 정신을 기리는 역사문화축제","host":"경기도 남양주시","organizer":"경기도 남양주시","sponsor":"경기도","phone":"031-590-2799","homepage":"https://www.nyj.go.kr/thinkj/index.do","relatedInfo":"","roadAddress":"경기도 남양주시 조안면 다산로747번길 11","parcelAddress":"경기도 남양주시 조안면 능내리 95-3"}},{"type":"Feature","geometry":{"type":"Point","coordinates":[127.18363,37.7464]},"properties":{"name":"제21회 광릉숲축제","place":"남양주시 광릉숲 일원","startDate":"2026-10-24","endDate":"2026-10-25","content":"광릉숲길 걷기+숲속공연+환경경 체험프로그램 운영 등","host":"경기도 남양주시","organizer":"경기도 남양주시","sponsor":"경기도","phone":"031-590-2454","homepage":"https://www.nyj.go.kr/gff/index.do","relatedInfo":"","roadAddress":"경기도 남양주시 진접읍 봉선사길 32","parcelAddress":"경기도 남양주시 진접읍 부평리 255번지"}},{"type":"Feature","geometry":{"type":"Point","coordinates":[128.18092,36.12418]},"properties":{"name":"한여름밤 김천페스타","place":"한국전력기술 전정","startDate":"2026-09-11","endDate":"2026-09-12","content":"농산물 가공식품 직거래를 통한 지역축제","host":"경상북도 김천시청","organizer":"경상북도 김천시청","sponsor":"","phone":"054-421-2544","homepage":"","relatedInfo":"","roadAddress":"경상북도 김천시 혁신로 269","parcelAddress":"경상북도 김천시 율곡동 932"}},{"type":"Feature","geometry":{"type":"Point","coordinates":[128.45189,36.65368]},"properties":{"name":"2026 예천활축제","place":"한천체육공원+예천읍 일원","startDate":"2026-10-30","endDate":"2026-11-01","content":"활쏘기+활공성전+활놀이터+활활마켓 등","host":"(재)예천문화관광재단","organizer":"경상북도 예천군","sponsor":"경상북도 + 경상북도 예천군","phone":"054-650-6031","homepage":"yctf.kr","relatedInfo":"","roadAddress":"","parcelAddress":"경상북도 예천군 예천읍 남본리 310-1"}},{"type":"Feature","geometry":{"type":"Point","coordinates":[128.41156,36.68968]},"properties":{"name":"2026 금당야행","place":"금당실전통마을","startDate":"2026-09-04","endDate":"2026-09-05","content":"공연+스탬프투어+전통혼례+먹거리 부스 등","host":"(재)예천문화관광재단","organizer":"경상북도 예천군","sponsor":"경상북도 + 경상북도 예천군","phone":"054-650-6031","homepage":"yctf.kr","relatedInfo":"","roadAddress":"경상북도 예천군 용문면 금당실길 52-4","parcelAddress":"경상북도 예천군 용문면 상금곡리 438-5"}},{"type":"Feature","geometry":{"type":"Point","coordinates":[128.2989,36.56374]},"properties":{"name":"2026 삼강나루주막축제","place":"삼강문화단지","startDate":"2026-09-25","endDate":"2026-09-27","content":"공연+주모선발대회+카약체험+보부상체험 등","host":"(재)예천문화관광재단","organizer":"경상북도 예천군","sponsor":"경상북도 예천군","phone":"054-650-6031","homepage":"yctf.kr","relatedInfo":"","roadAddress":"경상북도 예천군 풍양면 삼강리길 33","parcelAddress":"경상북도 예천군 풍양면 삼강리 151"}},{"type":"Feature","geometry":{"type":"Point","coordinates":[128.73797,36.8904]},"properties":{"name":"봉화송이축제","place":"내성천 주변","startDate":"2026-10-15","endDate":"2026-10-18","content":"송이라면체험+송이골든벨 등","host":"(재)봉화축제관광재단","organizer":"경상북도 봉화군청","sponsor":"","phone":"054-674-3053","homepage":"https:/bhftf.or.kr","relatedInfo":"분천산타마을+봉화송이축제","roadAddress":"","parcelAddress":"경상북도 봉화군 봉화읍 내성리 506"}},{"type":"Feature","geometry":{"type":"Point","coordinates":[129.05868,36.9326]},"properties":{"name":"한겨울 분천 산타마을 축제","place":"분천역","startDate":"2026-12-19","endDate":"2027-02-14","content":"산타썰매+크리스마스우체통+소원트리 등","host":"(재)봉화축제관광재단","organizer":"경상북도 봉화군청","sponsor":"","phone":"054-674-3053","homepage":"https:/bhftf.or.kr","relatedInfo":"분천산타마을+봉화은어축제","roadAddress":"경상북도 봉화군 소천면 분천길 49","parcelAddress":""}},{"type":"Feature","geometry":{"type":"Point","coordinates":[128.25589,35.31545]},"properties":{"name":"의령 리치리치 페스티벌","place":"서동생활공원","startDate":"2026-10-02","endDate":"2026-10-05","content":"개막식+메인프로그램+상설프로그램등","host":"경상남도 의령군 의령 리치리치 페스티벌 추진위원회","organizer":"경상남도 의령군 의령 리치리치 페스티벌 추진위원회","sponsor":"경상남도+경상남도 의령군+의령군의회","phone":"055-570-2512","homepage":"https://www.uiryeong.go.kr/festival/index.uiryeong","relatedInfo":"","roadAddress":"경상남도 의령군 의령읍 의병로8길 44","parcelAddress":"경상남도 의령군 의령읍 서동리 543"}},{"type":"Feature","geometry":{"type":"Point","coordinates":[127.7209,35.52758]},"properties":{"name":"제21회 함양산삼축제","place":"함양상림공원","startDate":"2026-10-07","endDate":"2026-10-11","content":"산양삼 및 가공품 판매존+산삼체험존(황금산삼을 찾아라+산삼캐기)+어울림마켓존(청년존+프리마켓)+패밀리&펫존(어린이놀이터=펫존)+각종공연(개막식+폐막식+산막나이트+비바페스티벌)+산삼경매존+함양농특산품 판매홍보관+향토먹거리관, 푸드트럭","host":"함양산삼축제위원회","organizer":"경상남도 함양군청","sponsor":"경상남도 함양군청","phone":"055-964-3353","homepage":"https://www.sansamfestival.or.kr","relatedInfo":"","roadAddress":"경상남도 함양군 함양읍 대맛길 107-1","parcelAddress":"경상남도 함양군 함양읍 교산리 1043-6"}},{"type":"Feature","geometry":{"type":"Point","coordinates":[127.81217,35.6313]},"properties":{"name":"함양연암문화제","place":"오리숲+안의면 시가지 일원","startDate":"2026-09-12","endDate":"2026-09-13","content":"학술대회+연암역사 퀴즈대회+연암 부임행차+연암제례+축하공연+노래자랑","host":"함양연암문화제운영위원회","organizer":"경상남도 함양군청","sponsor":"","phone":"055-960-4610","homepage":"","relatedInfo":"","roadAddress":"","parcelAddress":"경상남도 함양군 안의면 금천리 77-6"}},{"type":"Feature","geometry":{"type":"Point","coordinates":[129.03228,35.10021]},"properties":{"name":"부산시민의종 타종식","place":"용두산공원","startDate":"2026-12-31","endDate":"2026-12-31","content":"시민의종 타종+문화공연","host":"(사)부산축제조직위원회","organizer":"부산광역시청","sponsor":"","phone":"051-888-5224","homepage":"https://festivalbusan.com/","relatedInfo":"","roadAddress":"부산광역시 중구 용두산길 37-55(광복동2가)","parcelAddress":"부산광역시 중구 광복동2가 1-2"}},{"type":"Feature","geometry":{"type":"Point","coordinates":[127.08145,36.98444]},"properties":{"name":"평택 원평나루 억새축제","place":"군문교 아래 억새밭(노을생태문화공원)","startDate":"2026-10-31","endDate":"2026-10-31","content":"공연+상설공연+체험+먹거리","host":"평택시문화재단+평택예총+평택 원평나루 억새축제 추진위원회","organizer":"경기도 평택시청","sponsor":"","phone":"070-8874-3038","homepage":"https://www.pccf.or.kr/","relatedInfo":"","roadAddress":"","parcelAddress":"경기도 평택시 평택동 219-3"}},{"type":"Feature","geometry":{"type":"Point","coordinates":[126.92086,36.92121]},"properties":{"name":"평택호 물빛축제","place":"평택호 관광단지 일원(한국소리터+모래톱공원)","startDate":"2026-09-12","endDate":"2026-09-12","content":"공연+상설공연+체험+먹거리","host":"평택시문화재단+평택예총+평택호 물빛축제 추진위원회","organizer":"경기도 평택시청","sponsor":"","phone":"070-8874-1013","homepage":"https://www.pccf.or.kr/","relatedInfo":"","roadAddress":"경기도 평택시 현덕면 평택호길 147","parcelAddress":"경기도 평택시 현덕면 권관리 301-1"}},{"type":"Feature","geometry":{"type":"Point","coordinates":[127.11409,36.99113]},"properties":{"name":"제13회 노을동요제","place":"평택남부문예회관(대공연장)","startDate":"2026-09-12","endDate":"2026-09-12","content":"공연+경연대회","host":"평택시문화재단+평택시사신문+노을문화재단(준)+SKbroadband기남방송","organizer":"경기도 평택시청","sponsor":"경기도평택교육지원청+평택문화원+굿모닝병원","phone":"070-8874-3025","homepage":"http://www.noel.or.kr/","relatedInfo":"","roadAddress":"경기도 평택시 중앙로 277","parcelAddress":"경기도 평택시 비전동 847"}},{"type":"Feature","geometry":{"type":"Point","coordinates":[127.04396,36.95956]},"properties":{"name":"10월 마토예술제","place":"안정리예술인광장","startDate":"2026-10-24","endDate":"2026-10-24","content":"뮤지컬을 테마로 한 프로그램 (공연+체험 등)","host":"평택시문화재단","organizer":"경기도 평택시청","sponsor":"","phone":"070-8874-3026","homepage":"https://www.pccf.or.kr/","relatedInfo":"","roadAddress":"경기도 평택시 팽성읍 안정쇼핑로11","parcelAddress":"경기도 평택시 팽성읍 안정리 113-1"}},{"type":"Feature","geometry":{"type":"Point","coordinates":[126.77243,34.62597]},"properties":{"name":"강진만 춤추는 갈대축제","place":"강진만 생태공원 일원","startDate":"2026-10-24","endDate":"2026-11-01","content":"가을의 정취와 추억, 살아있는 생태, 어린이들의 놀이터를 제공하는 남도답사 1번지 이미지 창출과 갈대·음악·자연을 대표하는 명품 축제","host":"강진군축제추진위원회","organizer":"전라남도 강진군","sponsor":"","phone":"061-430-3413","homepage":"http://www.gangjin.go.kr/culture/festival/gangjinman_reed","relatedInfo":"","roadAddress":"전라남도 강진군 강진읍 남당로 97-23","parcelAddress":"전라남도 강진군 강진읍 목리 128-1"}},{"type":"Feature","geometry":{"type":"Point","coordinates":[126.78131,34.64527]},"properties":{"name":"강진하맥축제","place":"강진 종합운동장","startDate":"2026-08-27","endDate":"2026-08-29","content":"네덜란드의 홉과 강진의 쌀귀리를 결합한 강진에서만 맛볼수 있는 하멜촌 맥주를 판매·홍보하여 경쟁력 제고 및 치맥과 공연을 즐길 수 있는 여름 축제로의 도약","host":"강진군축제추진위원회","organizer":"전라남도 강진군","sponsor":"","phone":"061-430-3357","homepage":"http://www.gangjin.go.kr/culture/festival/hamelchon","relatedInfo":"","roadAddress":"전라남도 강진군 군동면 종합운동장길 60","parcelAddress":"전라남도 강진군 군동면 호계리 1076"}},{"type":"Feature","geometry":{"type":"Point","coordinates":[128.00818,36.11709]},"properties":{"name":"김천김밥축제","place":"직지문화공원+사명대사공원","startDate":"2026-10-23","endDate":"2026-10-25","content":"로컬 및 8도김밥 판매+공연+체험프로그램 운영 등","host":"경상북도 김천시청","organizer":"경상북도 김천시청","sponsor":"","phone":"054-420-6714","homepage":"","relatedInfo":"","roadAddress":"경상북도 김천시 대항면 직지사길 130","parcelAddress":"경상북도 김천시 대항면 운수리 103"}},{"type":"Feature","geometry":{"type":"Point","coordinates":[126.53541,36.24311]},"properties":{"name":"무창포 신비의 바닷길 축제","place":"무창포해수욕장 일원","startDate":"2026-09-11","endDate":"2026-09-13","content":"바닷길 및 맨손고기잡기 체험 + 축하공연 등","host":"(재)보령축제관광재단","organizer":"충청남도 보령시","sponsor":"","phone":"041-930-0891","homepage":"","relatedInfo":"","roadAddress":"충청남도 보령시 웅천읍 열린바다1길 30","parcelAddress":"충청남도 보령시 웅천읍 관당리 804"}},{"type":"Feature","geometry":{"type":"Point","coordinates":[127.51811,35.64112]},"properties":{"name":"장수 한우랑 사과랑 축제","place":"의암공원 및 누리파크 일원","startDate":"2026-09-10","endDate":"2026-09-13","content":"장수한우마당+RED푸드존+REDFOOD가족요리대전+사과낚시체험+사과골프+사과볼링사과양궁체험+향토음식거리+사과떡매치기","host":"사)장수한우랑사과랑축제추진위원회","organizer":"사)장수한우랑사과랑축제추진위원회","sponsor":"전북특별자치도 장수군","phone":"063-350-2356","homepage":"http://www.jangsufestival.com","relatedInfo":"","roadAddress":"전북특별자치도 장수군 장수읍 한누리로 393","parcelAddress":"전북특별자치도 장수군 장수읍 두산리 474"}},{"type":"Feature","geometry":{"type":"Point","coordinates":[127.75768,34.96772]},"properties":{"name":"광양전어축제","place":"진월면 망덕포구 일원","startDate":"2026-09-04","endDate":"2026-09-06","content":"공연+경연+체험+전시+판매+부대행사","host":"광양전어축제추진위원회","organizer":"광양전어축제추진위원회","sponsor":"전라남도 광양시청","phone":"061-797-4264","homepage":"http://www.gwangyang.go.kr/tour_culture","relatedInfo":"","roadAddress":"전라남도 광양시 진월면 망덕길 167","parcelAddress":"전라남도 광양시 진월면 망덕리 48-3"}},{"type":"Feature","geometry":{"type":"Point","coordinates":[127.57743,34.9696]},"properties":{"name":"광양전통숯불구이축제","place":"광양읍 서천변 일원","startDate":"2026-10-01","endDate":"2026-10-01","content":"공연+경연+체험+전시+판매+부대행사","host":"광양전통숯불구이축제추진위원회","organizer":"전라남도 광양시청","sponsor":"전라남도 광양시청","phone":"061-797-4903","homepage":"http://www.gwangyang.go.kr/tour_culture","relatedInfo":"","roadAddress":"","parcelAddress":"전라남도 광양시 광양읍 칠성리 881-2"}},{"type":"Feature","geometry":{"type":"Point","coordinates":[127.57542,34.98292]},"properties":{"name":"광양 K-POP 페스티벌","place":"광양공설운동장 일원","startDate":"2026-10-23","endDate":"2026-10-24","content":"공연+체험+부대행사","host":"전라남도 광양시청","organizer":"전라남도 광양시청","sponsor":"전라남도 광양시청","phone":"061-797-3714","homepage":"http://www.gwangyang.go.kr/tour_culture","relatedInfo":"","roadAddress":"전라남도 광양시 광양읍 매천로 695-20","parcelAddress":"전라남도 광양시 광양읍 구산리 299"}},{"type":"Feature","geometry":{"type":"Point","coordinates":[126.93883,34.48464]},"properties":{"name":"2026 장흥 회령포 이순신 축제","place":"회령진성+회진항_물양장","startDate":"2026-09-11","endDate":"2026-09-13","content":"삼도수군통제사 입성식+출정식 주제공연+장흥회령포 판옥선노젓기대회+회령포골든벨+회령포가요제+조선수군학교체험 등","host":"전라남도 장흥군","organizer":"장흥 회령포 이순신 축제 추진위원회","sponsor":"","phone":"061-860-5762","homepage":"https://www.jangheung.go.kr/tour/festival/autumn/hoeryeongpo","relatedInfo":"회령포란 이순신 장군이 삼도수군통제사 교지를 받고 회령진성에서 회령포 결의(취임식)를 다진 장소로, 명량대첩 기포지로서 회령포의 역사성을 재조명하는 역사문화축제이자, 회진면민과 지역문화예술단체 등 전 지역민이 함께 협력하고 참여하는 축제","roadAddress":"","parcelAddress":"전라남도 장흥군 회진면 회진리 1009-3"}},{"type":"Feature","geometry":{"type":"Point","coordinates":[126.9231,35.14614]},"properties":{"name":"제23회 광주 추억의 충장축제","place":"5.18민주광장 및 국립아시아문화전당+충장로+금남로+예술의 거리 등 광주 일원","startDate":"2026-10-07","endDate":"2026-10-11","content":"공식행사+퍼레이드+전시+공연+체험+국제교류행사 등","host":"광주광역시 동구","organizer":"광주광역시 동구","sponsor":"문화체육관광부+광주광역시","phone":"062-608-4674","homepage":"http://recollection.kr/","relatedInfo":"","roadAddress":"광주광역시 동구 서남로 1(동구청)","parcelAddress":"광주광역시 동구 서석동 31"}},{"type":"Feature","geometry":{"type":"Point","coordinates":[127.01439,37.28188]},"properties":{"name":"2026 수원화성 미디어아트","place":"화서문+장안문+장안공원 일대","startDate":"2026-10-03","endDate":"2026-10-18","content":"수원화성 대표 건축물에 프로젝션 맵핑/인터렉티브 미디어아트/레이저 등 디지털 미디어 기술을 활용한 미디어아트쇼","host":"(재)수원문화재단","organizer":"경기도 수원시","sponsor":"","phone":"031-5191-3084","homepage":"https://www.swcf.or.kr/hlfl/","relatedInfo":"","roadAddress":"경기도 수원시 팔달구 정조로 825","parcelAddress":"경기도 수원시 팔달구 남창동 6-2"}},{"type":"Feature","geometry":{"type":"Point","coordinates":[127.01439,37.28188]},"properties":{"name":"2026 정조대왕 능행차 공동재현","place":"서울 경복궁~수원화성~화성 융릉(수원구간 : 노송지대~종합운동장~장안문~수원화성)","startDate":"2026-10-04","endDate":"2026-10-04","content":"1795년 정조대왕의 을묘년 원행을 완벽하게 재현하는 국내 최대 퍼레이드","host":"경기도 수원시+(재)수원문화재단","organizer":"경기도 수원시","sponsor":"","phone":"031-5191-2367","homepage":"https://shfestival.com","relatedInfo":"","roadAddress":"경기도 수원시 팔달구 정조로 825","parcelAddress":"경기도 수원시 팔달구 남창동 6-2"}},{"type":"Feature","geometry":{"type":"Point","coordinates":[127.01439,37.28188]},"properties":{"name":"제63회 수원화성문화제","place":"행궁광장 등 수원화성 일원","startDate":"2026-10-04","endDate":"2026-10-11","content":"정조대왕의 효심과 부국강병의 원대한 꿈으로 축성된 세계문화유산 수원화성에서 펼쳐지는 8일간의 행사","host":"경기도 수원시+(재)수원문화재단","organizer":"경기도 수원시","sponsor":"","phone":"031-5191-3068","homepage":"https://shfestival.com","relatedInfo":"","roadAddress":"경기도 수원시 팔달구 정조로 825","parcelAddress":"경기도 수원시 팔달구 남창동 6-2"}},{"type":"Feature","geometry":{"type":"Point","coordinates":[128.52282,35.84342]},"properties":{"name":"희망달서 대축제","place":"달서아트센터","startDate":"2026-10-17","endDate":"2026-10-18","content":"희망가득체험부스+다문화 어울림제+축하 콘서트 등","host":"(재)달서문화재단","organizer":"(재)달서문화재단","sponsor":"대구광역시 달서구+달서구의회","phone":"053-584-9711","homepage":"http://www.dscf.or.kr","relatedInfo":"","roadAddress":"대구광역시 달서구 문화회관길 160(장기동)","parcelAddress":"대구광역시 달서구 장기동 722-1"}},{"type":"Feature","geometry":{"type":"Point","coordinates":[126.60746,37.55844]},"properties":{"name":"아라뱃길 카약축제","place":"정서진","startDate":"2026-09-05","endDate":"2026-09-05","content":"수상레저체험 + 부대행사","host":"케이워터운영관리㈜ + (사)인천광역시서구카누연맹","organizer":"인천광역시 서구+한국수자원공사","sponsor":"","phone":"032-560-5933","homepage":"http://www.seo.incheon.kr/","relatedInfo":"","roadAddress":"인천광역시 서구 정서진1로 41","parcelAddress":"인천광역시 서구 오류동 1563"}},{"type":"Feature","geometry":{"type":"Point","coordinates":[126.60746,37.55844]},"properties":{"name":"정서진 해넘이 행사","place":"정서진","startDate":"2026-12-31","endDate":"2026-12-31","content":"경관조명행사 + 체험프로그램","host":"인천광역시 서구문화원","organizer":"인천광역시 서구문화원","sponsor":"인천광역시 서구","phone":"032-582-4341","homepage":"https://www.inscc.kr/user/index.php","relatedInfo":"","roadAddress":"인천광역시 서구 정서진1로 41","parcelAddress":"인천광역시 서구 오류동 1563"}},{"type":"Feature","geometry":{"type":"Point","coordinates":[126.9231,35.14614]},"properties":{"name":"제5회 광주 버스킹 월드컵","place":"금남로+5.18 민주광장 등 광주 전역","startDate":"2026-10-07","endDate":"2026-10-11","content":"토너먼트 방식(온라인 예선을 거쳐 본선 진행)의 버스킹 공연","host":"광주광역시 동구","organizer":"광주광역시 동구","sponsor":"문화체육관광부+광주광역시","phone":"062-608-4674","homepage":"https://www.buskingworldcup.com/","relatedInfo":"","roadAddress":"광주광역시 동구 서남로 1(동구청)","parcelAddress":"광주광역시 동구 서석동 31"}},{"type":"Feature","geometry":{"type":"Point","coordinates":[126.9231,35.14614]},"properties":{"name":"금남로 차 없는 거리 걷자잉","place":"금남로공원+전일빌딩245 등","startDate":"2026-04-04","endDate":"2026-11-07","content":"놀자잉+줄여잉+쉬자잉+찍어잉","host":"광주광역시 동구","organizer":"광주광역시 동구","sponsor":"","phone":"062-608-2906","homepage":"","relatedInfo":"","roadAddress":"광주광역시 동구 서남로 1(동구청)","parcelAddress":"광주광역시 동구 서석동 31"}},{"type":"Feature","geometry":{"type":"Point","coordinates":[127.17797,37.24087]},"properties":{"name":"처인성문화제","place":"처인성 일원","startDate":"2026-09-12","endDate":"2026-09-13","content":"처인승첩기념식+김윤후승장 추모다례재+체험부스+경연대회+공연 등","host":"용인문화원","organizer":"용인문화원","sponsor":"경기도 용인시청","phone":"031-6193-2097","homepage":"http://www.ycc50.org/","relatedInfo":"","roadAddress":"경기도 용인시 처인구 중부대로 1199","parcelAddress":"경기도 용인시 처인구 삼가동 556"}},{"type":"Feature","geometry":{"type":"Point","coordinates":[127.17797,37.24087]},"properties":{"name":"용인시민의 날 연계 축제 행사","place":"용인미르스타디움","startDate":"2026-10-03","endDate":"2026-10-04","content":"용인시민의 날 기념 조아용 캐릭터 축제 및 다양한 연계행사 진행","host":"경기도 용인시청","organizer":"경기도 용인시청","sponsor":"경기도 용인시청","phone":"031-6193-2064","homepage":"https://www.yongin.go.kr","relatedInfo":"","roadAddress":"경기도 용인시 처인구 중부대로 1199","parcelAddress":"경기도 용인시 처인구 삼가동 556"}},{"type":"Feature","geometry":{"type":"Point","coordinates":[127.17797,37.24087]},"properties":{"name":"포은문화제","place":"정몽주 묘역","startDate":"2026-10-10","endDate":"2026-10-11","content":"천장행렬+경연대회+어린이 포은스쿨+체험부스+기념식+공연 등","host":"용인문화원 포은문화제추진위원회","organizer":"용인문화원","sponsor":"경기도 용인시청","phone":"031-6193-2097","homepage":"http://www.ycc50.org/","relatedInfo":"","roadAddress":"경기도 용인시 처인구 중부대로 1199","parcelAddress":"경기도 용인시 처인구 삼가동 556"}},{"type":"Feature","geometry":{"type":"Point","coordinates":[127.7201,37.92102]},"properties":{"name":"제38회 춘천인형극제","place":"춘천인형극장 등 춘천시 일원","startDate":"2026-07-31","endDate":"2026-12-26","content":"퍼펫카니발 퍼레이드, 국내외 인형극 공연, 아트마켓, 포럼, 부대행사 등","host":"(재)춘천인형극제","organizer":"(재)춘천인형극제","sponsor":"강원특별자치도+강원특별자치도 춘천시","phone":"033-242-8452","homepage":"www.cocobau.com","relatedInfo":"","roadAddress":"강원특별자치도 춘천시 영서로 3017","parcelAddress":"강원특별자치도 춘천시 사농동 277-3"}},{"type":"Feature","geometry":{"type":"Point","coordinates":[127.73133,37.88237]},"properties":{"name":"2026 춘천연극제","place":"봄내극장+춘천시공영주차장+춘천농협 엔타 로비 등","startDate":"2026-06-11","endDate":"2026-12-19","content":"관객과 함께 웃고 호흡하는 연극제","host":"(사)춘천연극제","organizer":"(사)춘천연극제","sponsor":"강원특별자치도청+강원특별자치도 춘천시청+신한은행+한국수력원자력 한강수력본부+KBSJOB(주)한국고용정보+(주)미디어+NH농협은행+G1방송+대원당","phone":"033-241-4345","homepage":"http://citf.or.kr/","relatedInfo":"","roadAddress":"강원특별자치도 춘천시 서부대성로 71","parcelAddress":"강원특별자치도 춘천시 옥천동 73-2"}},{"type":"Feature","geometry":{"type":"Point","coordinates":[127.72934,37.87262]},"properties":{"name":"2026 에코 아트페어","place":"강원디자인진흥원","startDate":"2026-10-16","endDate":"2026-10-29","content":"기후위기를 극복하는 제로 웨이스트 전시 형태","host":"강원행복시대","organizer":"강원도민일보","sponsor":"강원도민일보사+강원특별자치도 춘천시청","phone":"033-260-9331","homepage":"","relatedInfo":"전시관람","roadAddress":"강원특별자치도 춘천시 서면 박사로 890 2동 1층","parcelAddress":"강원특별자치도 춘천시 금산리 1018"}},{"type":"Feature","geometry":{"type":"Point","coordinates":[128.66023,37.38024]},"properties":{"name":"정선아리랑제","place":"강원특별자치도 정선군 정선읍 정선공설운동장","startDate":"2026-10-01","endDate":"2026-10-04","content":"강원특별자치도 무형문화재 제1호인 정선아리랑의 전승보존 및 계승","host":"정선아리랑문화재단","organizer":"강원특별자치도 정선군청","sponsor":"문화체육관광부+국립국악원 등","phone":"033-560-2548","homepage":"www.arirangfestival.kr","relatedInfo":"","roadAddress":"강원특별자치도 정선군 정선읍 봉양3길 17","parcelAddress":"강원특별자치도 정선군 정선읍 봉양리 253-1"}},{"type":"Feature","geometry":{"type":"Point","coordinates":[126.59722,36.3513]},"properties":{"name":"2026년 보령 국가유산야행","place":"보령경찰서망루 일원","startDate":"2026-10-09","endDate":"2026-10-11","content":"문화유산에서 느끼는 야간 경관 체험","host":"(재)보령축제관광재단","organizer":"충청남도 보령시","sponsor":"","phone":"041-930-0891","homepage":"","relatedInfo":"","roadAddress":"충청남도 보령시 대천로 33","parcelAddress":"충청남도 보령시 대천동 171"}},{"type":"Feature","geometry":{"type":"Point","coordinates":[127.09272,37.60656]},"properties":{"name":"중랑 북페스티벌","place":"중랑구청 잔디광장","startDate":"2026-10-01","endDate":"2026-10-01","content":"가을에 어울리는 독서문화체험 부스 및 각종 체험행사 등","host":"서울특별시 중랑구청","organizer":"서울특별시 중랑구청","sponsor":"서울특별시청","phone":"02-2094-1832","homepage":"https://www.jungnang.go.kr/portal/main.do","relatedInfo":"","roadAddress":"서울특별시 중랑구 봉화산로 179","parcelAddress":"서울특별시 중랑구 신내동 662"}},{"type":"Feature","geometry":{"type":"Point","coordinates":[128.55929,35.87232]},"properties":{"name":"달구벌목민관축제","place":"구민운동장 일대","startDate":"2026-10-10","endDate":"2026-10-11","content":"달구벌목민관추원제, 달구벌목민관 부임 행차 퍼레이드 등","host":"대구광역시 서구청","organizer":"대구광역시 서구청","sponsor":"대구광역시 서구청","phone":"053-663-2181","homepage":"http://www.dgs.go.kr/tour/","relatedInfo":"","roadAddress":"대구광역시 서구 국채보상로 257","parcelAddress":"대구광역시 서구 평리동 1230-9"}},{"type":"Feature","geometry":{"type":"Point","coordinates":[126.63251,37.40785]},"properties":{"name":"제14회 연수 능허대 문화축제","place":"연수한마음공원","startDate":"2026-10-09","endDate":"2026-10-11","content":"능허대 소재 체험프로그램+문화공연","host":"연수구축제추진위원회+연수문화재단","organizer":"인천광역시 연수구청","sponsor":"","phone":"032-749-7332","homepage":"https://www.yeonsu.go.kr/tour/festival/neungheodae_festival/info.asp","relatedInfo":"","roadAddress":"","parcelAddress":"인천광역시 연수구 송도동 26-1"}},{"type":"Feature","geometry":{"type":"Point","coordinates":[126.67834,37.40949]},"properties":{"name":"크리스마스 문화축제","place":"연수구청 한마음광장","startDate":"2026-11-27","endDate":"2027-01-20","content":"크리스마스트리 경관조성+문화공연","host":"연수문화재단","organizer":"인천광역시 연수구청","sponsor":"","phone":"032-749-7335","homepage":"https://www.yeonsu.go.kr/tour/festival/christmas/info.asp","relatedInfo":"","roadAddress":"인천광역시 연수구 원인재로 115","parcelAddress":""}},{"type":"Feature","geometry":{"type":"Point","coordinates":[127.38336,36.35506]},"properties":{"name":"2026 대전 서구 아트페스티벌","place":"샘머리+보라매공원(서구청앞) 일원","startDate":"2026-10-09","endDate":"2026-10-11","content":"도심 속에서 펼쳐지는 빛과 문화예술의 항연","host":"서구축제추진위원회+대전광역시서구문화원+한국예총대전광역시연합회+한국미술협회 대전광역시지회","organizer":"대전광역시 서구","sponsor":"하나은행","phone":"042-288-2742","homepage":"https://www.seogu.go.kr/prog/fstvl/tour/sub04_02/14/view.do","relatedInfo":"","roadAddress":"대전광역시 서구 둔산서로 100","parcelAddress":"대전광역시 서구 둔산동 1544"}},{"type":"Feature","geometry":{"type":"Point","coordinates":[127.08913,37.57334]},"properties":{"name":"용마폭포문화예술축제","place":"용마폭포공원","startDate":"2026-10-17","endDate":"2026-10-17","content":"클래식·성악 등 가을 분위기에 어울리는 공연+각종 체험행사 등","host":"중랑문화재단","organizer":"중랑문화재단","sponsor":"서울특별시 중랑구청+서울특별시청","phone":"02-3407-6540","homepage":"https://www.jnfac.or.kr/contents/1335","relatedInfo":"","roadAddress":"서울특별시 중랑구 용마산로 250-12","parcelAddress":"서울특별시 중랑구 면목동 산 1-4"}},{"type":"Feature","geometry":{"type":"Point","coordinates":[128.97283,35.1674]},"properties":{"name":"제23회 사상강변축제","place":"삼락생태공원","startDate":"2026-10-10","endDate":"2026-10-11","content":"개막식+불꽃놀이+강변음악회+강변가요제+체험부스 등","host":"사상문화원","organizer":"부산광역시 사상구청","sponsor":"","phone":"051-310-4062","homepage":"http://www.sasangculture.or.kr/","relatedInfo":"","roadAddress":"","parcelAddress":"부산광역시 사상구 삼락동 29-51번지"}},{"type":"Feature","geometry":{"type":"Point","coordinates":[129.1562,35.27716]},"properties":{"name":"철마한우불고기축제","place":"철마도시농업공원 일원(철마면 개좌로 789)","startDate":"2026-10-22","endDate":"2026-10-26","content":"철마한우가요제+전통 놀이 체험+풍물패 길놀이+철마한우고기 할인판매+청정 농특산물 직거래판매 등","host":"철마한우불고기축제추진위원회","organizer":"철마한우불고기축제추진위원회","sponsor":"","phone":"051-709-2891","homepage":"https://www.gijang.go.kr/tour/index.gijang?menuCd=DOM_000000302004000000","relatedInfo":"","roadAddress":"부산광역시 기장군 철마면 개좌로 789","parcelAddress":""}},{"type":"Feature","geometry":{"type":"Point","coordinates":[129.18189,35.32219]},"properties":{"name":"정관생태하천학습문화축제","place":"좌광천 일원","startDate":"2026-10-16","endDate":"2026-10-18","content":"공연+전시+참여 및 체험행사+부대행사 등","host":"정관생태하천학습문화축제추진위원회","organizer":"정관생태하천학습문화축제추진위원회","sponsor":"","phone":"051-709-4062","homepage":"https://www.gijang.go.kr/tour/index.gijang?menuCd=DOM_000000302007000000","relatedInfo":"","roadAddress":"부산광역시 기장군 정관읍 구연3로 27","parcelAddress":"부산광역시 기장군 정관읍 매학리 742"}},{"type":"Feature","geometry":{"type":"Point","coordinates":[128.5429,35.87362]},"properties":{"name":"미소&행복 구민축제","place":"구민운동장","startDate":"2026-10-11","endDate":"2026-10-11","content":"구민화합경기+ 구민가요제 등","host":"대구광역시 서구문화원","organizer":"대구광역시 서구청","sponsor":"대구광역시 서구청","phone":"053-663-2181","homepage":"http://www.dgs.go.kr/tour/","relatedInfo":"","roadAddress":"대구광역시 서구 문화로 96","parcelAddress":"대구광역시 서구 이현동 산28-12"}},{"type":"Feature","geometry":{"type":"Point","coordinates":[127.01294,37.63501]},"properties":{"name":"종교연합바자회","place":"한신대학교 신학대학원","startDate":"2026-10-18","endDate":"2026-10-18","content":"종교연합 바자회 기증물품 판매+문화공연 수익금전액 난치병어린이돕기 후원","host":"서울특별시 강북구 관내 3종교연합","organizer":"서울특별시 강북구 관내 3종교연합","sponsor":"서울특별시 강북구+한신대학교서울캠퍼스","phone":"02-901-6207","homepage":"www.gangbuk.go.kr","relatedInfo":"","roadAddress":"서울특별시 강북구 인수봉로 159","parcelAddress":"서울특별시 강북구 수유동 498-16"}},{"type":"Feature","geometry":{"type":"Point","coordinates":[126.89604,37.45707]},"properties":{"name":"2026 금천하모니축제","place":"금천구청 및 안양천 일대","startDate":"2026-10-17","endDate":"2026-10-18","content":"공연+전시+체험+마켓 등","host":"서울특별시 금천문화재단","organizer":"서울특별시 금천구청","sponsor":"서울특별시청","phone":"02-2627-1442","homepage":"https://gcfac.or.kr/content?gcfac_menu_cd=U0107","relatedInfo":"","roadAddress":"서울특별시 금천구 시흥대로73길 70","parcelAddress":"서울특별시 금천구 시흥동 1020"}},{"type":"Feature","geometry":{"type":"Point","coordinates":[126.85373,37.5676]},"properties":{"name":"제3회 허준인트로 축제","place":"허준근린공원","startDate":"2026-09-12","endDate":"2026-09-12","content":"허준축제 사전 콘서트 및 공연","host":"서울특별시 강서구","organizer":"서울특별시 강서구","sponsor":"강서구의회","phone":"02-2600-5890","homepage":"","relatedInfo":"","roadAddress":"서울특별시 강서구 허준로5길 42","parcelAddress":""}},{"type":"Feature","geometry":{"type":"Point","coordinates":[126.83768,37.53773]},"properties":{"name":"강서문화야행","place":"강서아트리움 일대(예정)","startDate":"2026-09-01","endDate":"2026-09-01","content":"경관조명전시+포토존 조성","host":"서울특별시 강서구","organizer":"서울특별시 강서구","sponsor":"강서구의회","phone":"02-2600-5890","homepage":"","relatedInfo":"","roadAddress":"서울특별시 강서구 가로공원로 195","parcelAddress":""}},{"type":"Feature","geometry":{"type":"Point","coordinates":[126.83284,37.57224]},"properties":{"name":"제24회 허준축제","place":"서울식물원+마곡광장+마곡중앙로","startDate":"2026-10-10","endDate":"2026-10-11","content":"허준콘서트+각종 의료건강 프로그램 운영","host":"강서문화원","organizer":"서울특별시 강서구","sponsor":"서울특별시+강서구의회","phone":"02-2600-6455","homepage":"","relatedInfo":"","roadAddress":"서울특별시 강서구 마곡동로 161","parcelAddress":""}},{"type":"Feature","geometry":{"type":"Point","coordinates":[126.8362,37.55964]},"properties":{"name":"마곡위시빌리지","place":"마곡문화의거리","startDate":"2026-11-27","endDate":"2026-12-27","content":"경관조성+공연 등","host":"서울특별시 강서구","organizer":"서울특별시 강서구","sponsor":"서울특별시+강서구의회","phone":"02-2600-5890","homepage":"","relatedInfo":"","roadAddress":"서울특별시 강서구 마곡동로4길23","parcelAddress":"서울특별시 강서구 마곡동 797-12"}}]}