{"type":"FeatureCollection","features":[{"type":"Feature","geometry":{"type":"Point","coordinates":[127.01441,37.28958]},"properties":{"id":1,"name":"보영만두","address":"경기도 수원시 장안구 팔달로 271","category":"쫄면, 군만두","phone":"031-255-1085","naverUrl":"https://map.naver.com/v5/search/%EA%B2%BD%EA%B8%B0%EB%8F%84%20%EC%88%98%EC%9B%90%EC%8B%9C%20%EC%9E%A5%EC%95%88%EA%B5%AC%20%ED%8C%94%EB%8B%AC%EB%A1%9C%20271%20"}},{"type":"Feature","geometry":{"type":"Point","coordinates":[127.00488,37.29606]},"properties":{"id":2,"name":"길림성","address":"경기도 수원시 장안구 송원로 2, 2","category":"찹쌀탕수육","phone":"031-252-1001","naverUrl":"https://map.naver.com/v5/search/%EA%B2%BD%EA%B8%B0%EB%8F%84%20%EC%88%98%EC%9B%90%EC%8B%9C%20%EC%9E%A5%EC%95%88%EA%B5%AC%20%EC%86%A1%EC%9B%90%EB%A1%9C%202%2C%202"}},{"type":"Feature","geometry":{"type":"Point","coordinates":[126.99785,37.3019]},"properties":{"id":3,"name":"소문난대구왕뽈찜","address":"경기도 수원시 장안구 만석로 161","category":"아구뽈찜","phone":"031-241-7050","naverUrl":"https://map.naver.com/v5/search/%EA%B2%BD%EA%B8%B0%EB%8F%84%20%EC%88%98%EC%9B%90%EC%8B%9C%20%EC%9E%A5%EC%95%88%EA%B5%AC%20%EB%A7%8C%EC%84%9D%EB%A1%9C%20161%20"}},{"type":"Feature","geometry":{"type":"Point","coordinates":[126.99924,37.3032]},"properties":{"id":4,"name":"아그집쭈꾸미","address":"경기도 수원시 장안구 만석로 181-3","category":"쭈꾸미덮밥","phone":"031-241-1359","naverUrl":"https://map.naver.com/v5/search/%EA%B2%BD%EA%B8%B0%EB%8F%84%20%EC%88%98%EC%9B%90%EC%8B%9C%20%EC%9E%A5%EC%95%88%EA%B5%AC%20%EB%A7%8C%EC%84%9D%EB%A1%9C%20181-3"}},{"type":"Feature","geometry":{"type":"Point","coordinates":[127.00114,37.30381]},"properties":{"id":5,"name":"태능숯불갈비","address":"경기도 수원시 장안구 정조로1110번길 3","category":"돼지갈비","phone":"031-257-8205","naverUrl":"https://map.naver.com/v5/search/%EA%B2%BD%EA%B8%B0%EB%8F%84%20%EC%88%98%EC%9B%90%EC%8B%9C%20%EC%9E%A5%EC%95%88%EA%B5%AC%20%EC%A0%95%EC%A1%B0%EB%A1%9C1110%EB%B2%88%EA%B8%B8%203%20"}},{"type":"Feature","geometry":{"type":"Point","coordinates":[127.01461,37.29085]},"properties":{"id":6,"name":"북문해물탕","address":"경기도 수원시 장안구 정조로922번길 27","category":"해물탕","phone":"031-291-7939","naverUrl":"https://map.naver.com/v5/search/%EA%B2%BD%EA%B8%B0%EB%8F%84%20%EC%88%98%EC%9B%90%EC%8B%9C%20%EC%9E%A5%EC%95%88%EA%B5%AC%20%EC%A0%95%EC%A1%B0%EB%A1%9C922%EB%B2%88%EA%B8%B8%2027%20"}},{"type":"Feature","geometry":{"type":"Point","coordinates":[126.9969,37.3085]},"properties":{"id":7,"name":"제철쌈밥&샤브칼국수","address":"경기도 수원시 장안구 파장천로44번길 28","category":"쭈꾸미볶음, 돼지불고기, 고등어구이","phone":"031-246-5530","naverUrl":"https://map.naver.com/v5/search/%EA%B2%BD%EA%B8%B0%EB%8F%84%20%EC%88%98%EC%9B%90%EC%8B%9C%20%EC%9E%A5%EC%95%88%EA%B5%AC%20%ED%8C%8C%EC%9E%A5%EC%B2%9C%EB%A1%9C44%EB%B2%88%EA%B8%B8%2028"}},{"type":"Feature","geometry":{"type":"Point","coordinates":[126.98895,37.31788]},"properties":{"id":8,"name":"백세짬뽕","address":"경기도 수원시 장안구 경수대로 1196-3","category":"짬뽕, 차돌짬뽕, 매운차돌짜장","phone":"031-293-5888","naverUrl":"https://map.naver.com/v5/search/%EA%B2%BD%EA%B8%B0%EB%8F%84%20%EC%88%98%EC%9B%90%EC%8B%9C%20%EC%9E%A5%EC%95%88%EA%B5%AC%20%EA%B2%BD%EC%88%98%EB%8C%80%EB%A1%9C%201196-3"}},{"type":"Feature","geometry":{"type":"Point","coordinates":[127.00839,37.30077]},"properties":{"id":9,"name":"주식회사 북경오리구이","address":"경기도 수원시 장안구 송원로 63","category":"오리구이","phone":"031-242-5292","naverUrl":"https://map.naver.com/v5/search/%EA%B2%BD%EA%B8%B0%EB%8F%84%20%EC%88%98%EC%9B%90%EC%8B%9C%20%EC%9E%A5%EC%95%88%EA%B5%AC%20%EC%86%A1%EC%9B%90%EB%A1%9C%2063%20"}},{"type":"Feature","geometry":{"type":"Point","coordinates":[127.01298,37.28994]},"properties":{"id":10,"name":"북회원","address":"경기도 수원시 장안구 정조로921번길 4","category":"자장면,탕수육","phone":"031-245-6987","naverUrl":"https://map.naver.com/v5/search/%EA%B2%BD%EA%B8%B0%EB%8F%84%20%EC%88%98%EC%9B%90%EC%8B%9C%20%EC%9E%A5%EC%95%88%EA%B5%AC%20%EC%A0%95%EC%A1%B0%EB%A1%9C921%EB%B2%88%EA%B8%B8%204"}},{"type":"Feature","geometry":{"type":"Point","coordinates":[127.00326,37.30274]},"properties":{"id":11,"name":"신사강식당","address":"경기도 수원시 장안구 정조로1088번길 11","category":"삼겹살,김치찌개","phone":"031-247-5454","naverUrl":"https://map.naver.com/v5/search/%EA%B2%BD%EA%B8%B0%EB%8F%84%20%EC%88%98%EC%9B%90%EC%8B%9C%20%EC%9E%A5%EC%95%88%EA%B5%AC%20%EC%A0%95%EC%A1%B0%EB%A1%9C1088%EB%B2%88%EA%B8%B8%2011%20"}},{"type":"Feature","geometry":{"type":"Point","coordinates":[127.00651,37.3126]},"properties":{"id":12,"name":"덕수궁","address":"경기도 수원시 장안구 수일로123번길 115","category":"유황오리","phone":"031-252-5789","naverUrl":"https://map.naver.com/v5/search/%EA%B2%BD%EA%B8%B0%EB%8F%84%20%EC%88%98%EC%9B%90%EC%8B%9C%20%EC%9E%A5%EC%95%88%EA%B5%AC%20%EC%88%98%EC%9D%BC%EB%A1%9C123%EB%B2%88%EA%B8%B8%20115%20"}},{"type":"Feature","geometry":{"type":"Point","coordinates":[126.99911,37.31258]},"properties":{"id":13,"name":"콩마당","address":"경기도 수원시 장안구 파장천로 92","category":"두부정식,두부전,전골","phone":"031-254-2827","naverUrl":"https://map.naver.com/v5/search/%EA%B2%BD%EA%B8%B0%EB%8F%84%20%EC%88%98%EC%9B%90%EC%8B%9C%20%EC%9E%A5%EC%95%88%EA%B5%AC%20%ED%8C%8C%EC%9E%A5%EC%B2%9C%EB%A1%9C%2092%20"}},{"type":"Feature","geometry":{"type":"Point","coordinates":[127.01485,37.28987]},"properties":{"id":14,"name":"명성돼지갈비","address":"경기도 수원시 장안구 팔달로271번길 16-16","category":"돼지갈비","phone":"031-242-2122","naverUrl":"https://map.naver.com/v5/search/%EA%B2%BD%EA%B8%B0%EB%8F%84%20%EC%88%98%EC%9B%90%EC%8B%9C%20%EC%9E%A5%EC%95%88%EA%B5%AC%20%ED%8C%94%EB%8B%AC%EB%A1%9C271%EB%B2%88%EA%B8%B8%2016-16%20"}},{"type":"Feature","geometry":{"type":"Point","coordinates":[127.00066,37.30623]},"properties":{"id":15,"name":"송풍가든","address":"경기도 수원시 장안구 경수대로 1013","category":"갈비,갈비탕,비빔밥","phone":"031-252-4700","naverUrl":"https://map.naver.com/v5/search/%EA%B2%BD%EA%B8%B0%EB%8F%84%20%EC%88%98%EC%9B%90%EC%8B%9C%20%EC%9E%A5%EC%95%88%EA%B5%AC%20%EA%B2%BD%EC%88%98%EB%8C%80%EB%A1%9C%201013%20"}},{"type":"Feature","geometry":{"type":"Point","coordinates":[126.99931,37.31272]},"properties":{"id":16,"name":"우전옥 간장게장","address":"경기도 수원시 장안구 파장천로 94","category":"게장정식","phone":"031-269-3001","naverUrl":"https://map.naver.com/v5/search/%EA%B2%BD%EA%B8%B0%EB%8F%84%20%EC%88%98%EC%9B%90%EC%8B%9C%20%EC%9E%A5%EC%95%88%EA%B5%AC%20%ED%8C%8C%EC%9E%A5%EC%B2%9C%EB%A1%9C%2094%20"}},{"type":"Feature","geometry":{"type":"Point","coordinates":[126.97803,37.2995]},"properties":{"id":17,"name":"수천냉면","address":"경기도 수원시 장안구 덕영대로497번길 8-1","category":"냉면","phone":"031-247-1066","naverUrl":"https://map.naver.com/v5/search/%EA%B2%BD%EA%B8%B0%EB%8F%84%20%EC%88%98%EC%9B%90%EC%8B%9C%20%EC%9E%A5%EC%95%88%EA%B5%AC%20%EB%8D%95%EC%98%81%EB%8C%80%EB%A1%9C497%EB%B2%88%EA%B8%B8%208-1%20"}},{"type":"Feature","geometry":{"type":"Point","coordinates":[126.97347,37.30252]},"properties":{"id":18,"name":"토기장이유황오리","address":"경기도 수원시 장안구 서부로 2178","category":"유황오리","phone":"031-271-1118","naverUrl":"https://map.naver.com/v5/search/%EA%B2%BD%EA%B8%B0%EB%8F%84%20%EC%88%98%EC%9B%90%EC%8B%9C%20%EC%9E%A5%EC%95%88%EA%B5%AC%20%EC%84%9C%EB%B6%80%EB%A1%9C%202178%20"}},{"type":"Feature","geometry":{"type":"Point","coordinates":[126.98067,37.31106]},"properties":{"id":19,"name":"풍어생선구이정식","address":"경기도 수원시 장안구 천천로210번길 17-12","category":"고등어구이, 삼치구이, 임연수구이","phone":"031-256-3792","naverUrl":"https://map.naver.com/v5/search/%EA%B2%BD%EA%B8%B0%EB%8F%84%20%EC%88%98%EC%9B%90%EC%8B%9C%20%EC%9E%A5%EC%95%88%EA%B5%AC%20%EC%B2%9C%EC%B2%9C%EB%A1%9C210%EB%B2%88%EA%B8%B8%2017-12"}},{"type":"Feature","geometry":{"type":"Point","coordinates":[126.99219,37.31005]},"properties":{"id":20,"name":"곤지암소머리국밥","address":"경기도 수원시 장안구 경수대로 1099","category":"국밥","phone":"031-247-1066","naverUrl":"https://map.naver.com/v5/search/%EA%B2%BD%EA%B8%B0%EB%8F%84%20%EC%88%98%EC%9B%90%EC%8B%9C%20%EC%9E%A5%EC%95%88%EA%B5%AC%20%EA%B2%BD%EC%88%98%EB%8C%80%EB%A1%9C%201099%20"}},{"type":"Feature","geometry":{"type":"Point","coordinates":[127.01464,37.30699]},"properties":{"id":21,"name":"육미옥(조원점)","address":"경기도 수원시 장안구 수일로 221","category":"수제돼지갈비","phone":"031-255-8040","naverUrl":"https://map.naver.com/v5/search/%EA%B2%BD%EA%B8%B0%EB%8F%84%20%EC%88%98%EC%9B%90%EC%8B%9C%20%EC%9E%A5%EC%95%88%EA%B5%AC%20%EC%88%98%EC%9D%BC%EB%A1%9C%20221%20"}},{"type":"Feature","geometry":{"type":"Point","coordinates":[127.01798,37.3342]},"properties":{"id":22,"name":"폭포농원","address":"경기도 수원시 장안구 광교산로 594-3","category":"보리밥, 돼지바베큐, 파전","phone":"031-256-9774","naverUrl":"https://map.naver.com/v5/search/%EA%B2%BD%EA%B8%B0%EB%8F%84%20%EC%88%98%EC%9B%90%EC%8B%9C%20%EC%9E%A5%EC%95%88%EA%B5%AC%20%EA%B4%91%EA%B5%90%EC%82%B0%EB%A1%9C%20594-3"}},{"type":"Feature","geometry":{"type":"Point","coordinates":[127.01705,37.29132]},"properties":{"id":23,"name":"사강식당","address":"경기도 수원시 장안구 팔달로 301","category":"갈비구이","phone":"031-256-7433","naverUrl":"https://map.naver.com/v5/search/%EA%B2%BD%EA%B8%B0%EB%8F%84%20%EC%88%98%EC%9B%90%EC%8B%9C%20%EC%9E%A5%EC%95%88%EA%B5%AC%20%ED%8C%94%EB%8B%AC%EB%A1%9C%20301%20"}},{"type":"Feature","geometry":{"type":"Point","coordinates":[127.01901,37.31538]},"properties":{"id":24,"name":"자선농원","address":"경기도 수원시 장안구 광교산로 363-1","category":"보리밥","phone":"031-247-6093","naverUrl":"https://map.naver.com/v5/search/%EA%B2%BD%EA%B8%B0%EB%8F%84%20%EC%88%98%EC%9B%90%EC%8B%9C%20%EC%9E%A5%EC%95%88%EA%B5%AC%20%EA%B4%91%EA%B5%90%EC%82%B0%EB%A1%9C%20363-1"}},{"type":"Feature","geometry":{"type":"Point","coordinates":[127.01403,37.29124]},"properties":{"id":25,"name":"장안아구탕","address":"경기도 수원시 장안구 팔달로279번길 33","category":"아구탕","phone":"031-255-5946","naverUrl":"https://map.naver.com/v5/search/%EA%B2%BD%EA%B8%B0%EB%8F%84%20%EC%88%98%EC%9B%90%EC%8B%9C%20%EC%9E%A5%EC%95%88%EA%B5%AC%20%ED%8C%94%EB%8B%AC%EB%A1%9C279%EB%B2%88%EA%B8%B8%2033%20"}},{"type":"Feature","geometry":{"type":"Point","coordinates":[126.94347,37.2633]},"properties":{"id":26,"name":"뜰안채","address":"경기도 수원시 권선구 칠보로 88번길 125","category":"채식뷔페","phone":"031-291-5879","naverUrl":"https://map.naver.com/v5/search/%EA%B2%BD%EA%B8%B0%EB%8F%84%20%EC%88%98%EC%9B%90%EC%8B%9C%20%EA%B6%8C%EC%84%A0%EA%B5%AC%20%EC%B9%A0%EB%B3%B4%EB%A1%9C%2088%EB%B2%88%EA%B8%B8%20125%20"}},{"type":"Feature","geometry":{"type":"Point","coordinates":[126.95487,37.26556]},"properties":{"id":27,"name":"훈장골","address":"경기도 수원시 권선구 칠보로 146","category":"생등심, 소왕갈비, 한방양념한돈구이","phone":"031-296-7855","naverUrl":"https://map.naver.com/v5/search/%EA%B2%BD%EA%B8%B0%EB%8F%84%20%EC%88%98%EC%9B%90%EC%8B%9C%20%EA%B6%8C%EC%84%A0%EA%B5%AC%20%EC%B9%A0%EB%B3%B4%EB%A1%9C%20146"}},{"type":"Feature","geometry":{"type":"Point","coordinates":[126.95847,37.28549]},"properties":{"id":28,"name":"주식회사 기와집","address":"경기도 수원시 권선구 서수원로 594번길 251","category":"장어, 한우등심, 장어탕","phone":"031-298-8882","naverUrl":"https://map.naver.com/v5/search/%EA%B2%BD%EA%B8%B0%EB%8F%84%20%EC%88%98%EC%9B%90%EC%8B%9C%20%EA%B6%8C%EC%84%A0%EA%B5%AC%20%EC%84%9C%EC%88%98%EC%9B%90%EB%A1%9C%20594%EB%B2%88%EA%B8%B8%20251%20"}},{"type":"Feature","geometry":{"type":"Point","coordinates":[126.96579,37.25723]},"properties":{"id":29,"name":"백년돌판짜장교동짬뽕","address":"경기도 수원시 권선구 서수원로 340","category":"돌판짜장, 교동짬뽕, 시래기항아리짬뽕","phone":"031-298-8953","naverUrl":"https://map.naver.com/v5/search/%EA%B2%BD%EA%B8%B0%EB%8F%84%20%EC%88%98%EC%9B%90%EC%8B%9C%20%EA%B6%8C%EC%84%A0%EA%B5%AC%20%EC%84%9C%EC%88%98%EC%9B%90%EB%A1%9C%20340"}},{"type":"Feature","geometry":{"type":"Point","coordinates":[126.96788,37.2744]},"properties":{"id":30,"name":"명가정한우마을","address":"경기도 수원시 권선구 금호로 163","category":"소양념갈비, 돼지갈비, 왕갈비탕","phone":"031-255-9916","naverUrl":"https://map.naver.com/v5/search/%EA%B2%BD%EA%B8%B0%EB%8F%84%20%EC%88%98%EC%9B%90%EC%8B%9C%20%EA%B6%8C%EC%84%A0%EA%B5%AC%20%EA%B8%88%ED%98%B8%EB%A1%9C%20163%20"}},{"type":"Feature","geometry":{"type":"Point","coordinates":[127.02195,37.25925]},"properties":{"id":31,"name":"수원한양설렁탕","address":"경기도 수원시 권선구 장다리로 102","category":"마늘설렁탕","phone":"031-238-7800","naverUrl":"https://map.naver.com/v5/search/%EA%B2%BD%EA%B8%B0%EB%8F%84%20%EC%88%98%EC%9B%90%EC%8B%9C%20%EA%B6%8C%EC%84%A0%EA%B5%AC%20%EC%9E%A5%EB%8B%A4%EB%A6%AC%EB%A1%9C%20102%20"}},{"type":"Feature","geometry":{"type":"Point","coordinates":[127.0232,37.26358]},"properties":{"id":32,"name":"최네집","address":"경기도 수원시 권선구 효원로 196","category":"부대찌개, 베이컨, 소세지구이","phone":"031-222-5066","naverUrl":"https://map.naver.com/v5/search/%EA%B2%BD%EA%B8%B0%EB%8F%84%20%EC%88%98%EC%9B%90%EC%8B%9C%20%EA%B6%8C%EC%84%A0%EA%B5%AC%20%ED%9A%A8%EC%9B%90%EB%A1%9C%20196%20"}},{"type":"Feature","geometry":{"type":"Point","coordinates":[126.97216,37.26321]},"properties":{"id":33,"name":"고등어명품이되다","address":"경기도 수원시 권선구 서부로 1731","category":"고등어구이, 갈치조림, 고등어회","phone":"031-291-4792","naverUrl":"https://map.naver.com/v5/search/%EA%B2%BD%EA%B8%B0%EB%8F%84%20%EC%88%98%EC%9B%90%EC%8B%9C%20%EA%B6%8C%EC%84%A0%EA%B5%AC%20%EC%84%9C%EB%B6%80%EB%A1%9C%201731"}},{"type":"Feature","geometry":{"type":"Point","coordinates":[126.99759,37.26069]},"properties":{"id":34,"name":"기장옥샤브칼국수","address":"경기도 수원시 권선구 세화로 86","category":"샤브칼국수, 수육, 해물찜","phone":"031-293-6661","naverUrl":"https://map.naver.com/v5/search/%EA%B2%BD%EA%B8%B0%EB%8F%84%20%EC%88%98%EC%9B%90%EC%8B%9C%20%EA%B6%8C%EC%84%A0%EA%B5%AC%20%EC%84%B8%ED%99%94%EB%A1%9C%2086"}},{"type":"Feature","geometry":{"type":"Point","coordinates":[127.02848,37.23388]},"properties":{"id":35,"name":"태흥장어","address":"경기도 수원시 권선구 곡반정로 58","category":"장어, 강된장, 장어탕","phone":"031-223-0999","naverUrl":"https://map.naver.com/v5/search/%EA%B2%BD%EA%B8%B0%EB%8F%84%20%EC%88%98%EC%9B%90%EC%8B%9C%20%EA%B6%8C%EC%84%A0%EA%B5%AC%20%EA%B3%A1%EB%B0%98%EC%A0%95%EB%A1%9C%2058%20"}},{"type":"Feature","geometry":{"type":"Point","coordinates":[126.97421,37.24375]},"properties":{"id":36,"name":"최미삼순대국고색점","address":"경기도 수원시 권선구 오목천로 125","category":"순대국밥","phone":"031-227-1245","naverUrl":"https://map.naver.com/v5/search/%EA%B2%BD%EA%B8%B0%EB%8F%84%20%EC%88%98%EC%9B%90%EC%8B%9C%20%EA%B6%8C%EC%84%A0%EA%B5%AC%20%EC%98%A4%EB%AA%A9%EC%B2%9C%EB%A1%9C%20125"}},{"type":"Feature","geometry":{"type":"Point","coordinates":[126.96273,37.27201]},"properties":{"id":37,"name":"열구자","address":"경기도 수원시 권선구 금호로 104-12","category":"갑오징어세트, 두부전골, 청국장","phone":"031-297-2650","naverUrl":"https://map.naver.com/v5/search/%EA%B2%BD%EA%B8%B0%EB%8F%84%20%EC%88%98%EC%9B%90%EC%8B%9C%20%EA%B6%8C%EC%84%A0%EA%B5%AC%20%EA%B8%88%ED%98%B8%EB%A1%9C%20104-12%20"}},{"type":"Feature","geometry":{"type":"Point","coordinates":[126.97196,37.26068]},"properties":{"id":38,"name":"일호점미역","address":"경기도 수원시 권선구 권선로 179","category":"조개미역국, 가자미 조개 미역국","phone":"031-296-6660","naverUrl":"https://map.naver.com/v5/search/%EA%B2%BD%EA%B8%B0%EB%8F%84%20%EC%88%98%EC%9B%90%EC%8B%9C%20%EA%B6%8C%EC%84%A0%EA%B5%AC%20%EA%B6%8C%EC%84%A0%EB%A1%9C%20179"}},{"type":"Feature","geometry":{"type":"Point","coordinates":[126.97328,37.26753]},"properties":{"id":39,"name":"마포집손칼국수","address":"경기도 수원시 권선구 서부로 1780-26","category":"모둠샤브, 해물칼국수, 물갈비","phone":"031-296-6686","naverUrl":"https://map.naver.com/v5/search/%EA%B2%BD%EA%B8%B0%EB%8F%84%20%EC%88%98%EC%9B%90%EC%8B%9C%20%EA%B6%8C%EC%84%A0%EA%B5%AC%20%EC%84%9C%EB%B6%80%EB%A1%9C%201780-26%20"}},{"type":"Feature","geometry":{"type":"Point","coordinates":[127.01686,37.25683]},"properties":{"id":40,"name":"송호참치전문점","address":"경기도 수원시 권선구 세지로 54","category":"참치회","phone":"031-232-0037","naverUrl":"https://map.naver.com/v5/search/%EA%B2%BD%EA%B8%B0%EB%8F%84%20%EC%88%98%EC%9B%90%EC%8B%9C%20%EA%B6%8C%EC%84%A0%EA%B5%AC%20%EC%84%B8%EC%A7%80%EB%A1%9C%2054%20"}},{"type":"Feature","geometry":{"type":"Point","coordinates":[126.96235,37.24189]},"properties":{"id":41,"name":"대궐막국수수원직영점","address":"경기도 수원시 권선구 삼천병마로 1559","category":"고성동치미막국수, 황금옹심이메밀막국수, 수육","phone":"031-8019-9865","naverUrl":"https://map.naver.com/v5/search/%EA%B2%BD%EA%B8%B0%EB%8F%84%20%EC%88%98%EC%9B%90%EC%8B%9C%20%EA%B6%8C%EC%84%A0%EA%B5%AC%20%EC%82%BC%EC%B2%9C%EB%B3%91%EB%A7%88%EB%A1%9C%201559"}},{"type":"Feature","geometry":{"type":"Point","coordinates":[127.01552,37.25403]},"properties":{"id":42,"name":"춘천중앙막국수","address":"경기도 수원시 권선구 세지로 20-1","category":"족발, 보쌈, 막국수","phone":"031-225-3534","naverUrl":"https://map.naver.com/v5/search/%EA%B2%BD%EA%B8%B0%EB%8F%84%20%EC%88%98%EC%9B%90%EC%8B%9C%20%EA%B6%8C%EC%84%A0%EA%B5%AC%20%EC%84%B8%EC%A7%80%EB%A1%9C%2020-1%20"}},{"type":"Feature","geometry":{"type":"Point","coordinates":[126.95855,37.28601]},"properties":{"id":43,"name":"㈜21세기초가집","address":"경기도 수원시 권선구 서수원로 594번길 260","category":"낙지덮밥, 보쌈, 오리백숙","phone":"031-297-6161","naverUrl":"https://map.naver.com/v5/search/%EA%B2%BD%EA%B8%B0%EB%8F%84%20%EC%88%98%EC%9B%90%EC%8B%9C%20%EA%B6%8C%EC%84%A0%EA%B5%AC%20%EC%84%9C%EC%88%98%EC%9B%90%EB%A1%9C%20594%EB%B2%88%EA%B8%B8%20260%20"}},{"type":"Feature","geometry":{"type":"Point","coordinates":[126.9838,37.2319]},"properties":{"id":44,"name":"한끼나주곰탕","address":"경기도 수원시 권선구 서부로 1369","category":"나주곰탕, 사골곰탕, 도가니탕","phone":"031-236-5060","naverUrl":"https://map.naver.com/v5/search/%EA%B2%BD%EA%B8%B0%EB%8F%84%20%EC%88%98%EC%9B%90%EC%8B%9C%20%EA%B6%8C%EC%84%A0%EA%B5%AC%20%EC%84%9C%EB%B6%80%EB%A1%9C%201369%20"}},{"type":"Feature","geometry":{"type":"Point","coordinates":[127.02382,37.25011]},"properties":{"id":45,"name":"소반낙지마당","address":"경기도 수원시 권선구 덕영대로 1217번길 25-7","category":"낙지덥밥, 직화덮밥, 연포탕","phone":"031-222-3453","naverUrl":"https://map.naver.com/v5/search/%EA%B2%BD%EA%B8%B0%EB%8F%84%20%EC%88%98%EC%9B%90%EC%8B%9C%20%EA%B6%8C%EC%84%A0%EA%B5%AC%20%EB%8D%95%EC%98%81%EB%8C%80%EB%A1%9C%201217%EB%B2%88%EA%B8%B8%2025-7%20"}},{"type":"Feature","geometry":{"type":"Point","coordinates":[127.02481,37.2568]},"properties":{"id":46,"name":"부안아구찜","address":"경기도 수원시 권선구 세권로 181번길 30-2","category":"해물찜, 아구찜, 해물아구탕","phone":"031-267-0999","naverUrl":"https://map.naver.com/v5/search/%EA%B2%BD%EA%B8%B0%EB%8F%84%20%EC%88%98%EC%9B%90%EC%8B%9C%20%EA%B6%8C%EC%84%A0%EA%B5%AC%20%EC%84%B8%EA%B6%8C%EB%A1%9C%20181%EB%B2%88%EA%B8%B8%2030-2%20"}},{"type":"Feature","geometry":{"type":"Point","coordinates":[127.02246,37.26145]},"properties":{"id":47,"name":"감포할아귀","address":"경기도 수원시 권선구 장다리로 125-1","category":"수육, 찜, 탕","phone":"031-236-2040","naverUrl":"https://map.naver.com/v5/search/%EA%B2%BD%EA%B8%B0%EB%8F%84%20%EC%88%98%EC%9B%90%EC%8B%9C%20%EA%B6%8C%EC%84%A0%EA%B5%AC%20%EC%9E%A5%EB%8B%A4%EB%A6%AC%EB%A1%9C%20125-1%20"}},{"type":"Feature","geometry":{"type":"Point","coordinates":[126.97343,37.2687]},"properties":{"id":48,"name":"수원곱창","address":"경기도 수원시 권선구 하탑로 17","category":"소곱창, 소대창, 소막창","phone":"031-292-6347","naverUrl":"https://map.naver.com/v5/search/%EA%B2%BD%EA%B8%B0%EB%8F%84%20%EC%88%98%EC%9B%90%EC%8B%9C%20%EA%B6%8C%EC%84%A0%EA%B5%AC%20%ED%95%98%ED%83%91%EB%A1%9C%2017%20"}},{"type":"Feature","geometry":{"type":"Point","coordinates":[126.94067,37.29065]},"properties":{"id":49,"name":"당초고추치킨","address":"경기도 수원시 권선구 당진로 18","category":"당초고추치킨, 골뱅이, 어묵탕","phone":"031-419-7664","naverUrl":"https://map.naver.com/v5/search/%EA%B2%BD%EA%B8%B0%EB%8F%84%20%EC%88%98%EC%9B%90%EC%8B%9C%20%EA%B6%8C%EC%84%A0%EA%B5%AC%20%EB%8B%B9%EC%A7%84%EB%A1%9C%2018%20"}},{"type":"Feature","geometry":{"type":"Point","coordinates":[127.02367,37.25014]},"properties":{"id":50,"name":"마포구이","address":"경기도 수원시 권선구 덕영대로 1207번길 26-8","category":"생갈비살, 오겹살, 삼겹살","phone":"031-224-0592","naverUrl":"https://map.naver.com/v5/search/%EA%B2%BD%EA%B8%B0%EB%8F%84%20%EC%88%98%EC%9B%90%EC%8B%9C%20%EA%B6%8C%EC%84%A0%EA%B5%AC%20%EB%8D%95%EC%98%81%EB%8C%80%EB%A1%9C%201207%EB%B2%88%EA%B8%B8%2026-8%20"}},{"type":"Feature","geometry":{"type":"Point","coordinates":[127.02876,37.27409]},"properties":{"id":51,"name":"가보정","address":"경기도 수원시 팔달구 장다리로 282","category":"갈비","phone":"031-238-3883","naverUrl":"https://map.naver.com/v5/search/%EA%B2%BD%EA%B8%B0%EB%8F%84%20%EC%88%98%EC%9B%90%EC%8B%9C%20%ED%8C%94%EB%8B%AC%EA%B5%AC%20%EC%9E%A5%EB%8B%A4%EB%A6%AC%EB%A1%9C%20282%20"}},{"type":"Feature","geometry":{"type":"Point","coordinates":[127.0181,37.27968]},"properties":{"id":52,"name":"진미통닭","address":"경기도 수원시 팔달구 정조로800번길 21","category":"통닭","phone":"031-255-3401","naverUrl":"https://map.naver.com/v5/search/%EA%B2%BD%EA%B8%B0%EB%8F%84%20%EC%88%98%EC%9B%90%EC%8B%9C%20%ED%8C%94%EB%8B%AC%EA%B5%AC%20%EC%A0%95%EC%A1%B0%EB%A1%9C800%EB%B2%88%EA%B8%B8%2021%20"}},{"type":"Feature","geometry":{"type":"Point","coordinates":[127.03207,37.25873]},"properties":{"id":53,"name":"유치회관","address":"경기도 수원시 팔달구 효원로292번길 67","category":"해장국","phone":"031-234-6275","naverUrl":"https://map.naver.com/v5/search/%EA%B2%BD%EA%B8%B0%EB%8F%84%20%EC%88%98%EC%9B%90%EC%8B%9C%20%ED%8C%94%EB%8B%AC%EA%B5%AC%20%ED%9A%A8%EC%9B%90%EB%A1%9C292%EB%B2%88%EA%B8%B8%2067%20"}},{"type":"Feature","geometry":{"type":"Point","coordinates":[127.01763,37.27963]},"properties":{"id":54,"name":"용성통닭","address":"경기도 수원시 팔달구 정조로800번길 15, 지하1~지상1","category":"후라이드치킨, 왕갈비치킨, 양념치킨","phone":"031-242-8226","naverUrl":"https://map.naver.com/v5/search/%EA%B2%BD%EA%B8%B0%EB%8F%84%20%EC%88%98%EC%9B%90%EC%8B%9C%20%ED%8C%94%EB%8B%AC%EA%B5%AC%20%EC%A0%95%EC%A1%B0%EB%A1%9C800%EB%B2%88%EA%B8%B8%2015%2C%20%EC%A7%80%ED%95%981~%EC%A7%80%EC%83%811"}},{"type":"Feature","geometry":{"type":"Point","coordinates":[127.02669,37.27237]},"properties":{"id":55,"name":"백청우칼국수","address":"경기도 수원시 팔달구 장다리로 253","category":"칼국수","phone":"031-239-2009","naverUrl":"https://map.naver.com/v5/search/%EA%B2%BD%EA%B8%B0%EB%8F%84%20%EC%88%98%EC%9B%90%EC%8B%9C%20%ED%8C%94%EB%8B%AC%EA%B5%AC%20%EC%9E%A5%EB%8B%A4%EB%A6%AC%EB%A1%9C%20253"}},{"type":"Feature","geometry":{"type":"Point","coordinates":[127.02939,37.27515]},"properties":{"id":56,"name":"로마경양식","address":"경기도 수원시 팔달구 경수대로 549","category":"돈까스","phone":"031-235-8277","naverUrl":"https://map.naver.com/v5/search/%EA%B2%BD%EA%B8%B0%EB%8F%84%20%EC%88%98%EC%9B%90%EC%8B%9C%20%ED%8C%94%EB%8B%AC%EA%B5%AC%20%EA%B2%BD%EC%88%98%EB%8C%80%EB%A1%9C%20549%20"}},{"type":"Feature","geometry":{"type":"Point","coordinates":[127.0031,37.27506]},"properties":{"id":57,"name":"고등반점","address":"경기도 수원시 팔달구 팔달로52번길43","category":"짜장면","phone":"031-255-3291","naverUrl":"https://map.naver.com/v5/search/%EA%B2%BD%EA%B8%B0%EB%8F%84%20%EC%88%98%EC%9B%90%EC%8B%9C%20%ED%8C%94%EB%8B%AC%EA%B5%AC%20%ED%8C%94%EB%8B%AC%EB%A1%9C52%EB%B2%88%EA%B8%B843%20"}},{"type":"Feature","geometry":{"type":"Point","coordinates":[127.02867,37.27594]},"properties":{"id":58,"name":"오리대가","address":"경기도 수원시 팔달구 경수대로565번길 27","category":"오리","phone":"031-223-5292","naverUrl":"https://map.naver.com/v5/search/%EA%B2%BD%EA%B8%B0%EB%8F%84%20%EC%88%98%EC%9B%90%EC%8B%9C%20%ED%8C%94%EB%8B%AC%EA%B5%AC%20%EA%B2%BD%EC%88%98%EB%8C%80%EB%A1%9C565%EB%B2%88%EA%B8%B8%2027%20"}},{"type":"Feature","geometry":{"type":"Point","coordinates":[127.03593,37.26304]},"properties":{"id":59,"name":"이나경송탄부대찌개","address":"경기도 수원시 팔달구 효원로307번길 47","category":"스페셜부대찌개","phone":"031-223-7893","naverUrl":"https://map.naver.com/v5/search/%EA%B2%BD%EA%B8%B0%EB%8F%84%20%EC%88%98%EC%9B%90%EC%8B%9C%20%ED%8C%94%EB%8B%AC%EA%B5%AC%20%ED%9A%A8%EC%9B%90%EB%A1%9C307%EB%B2%88%EA%B8%B8%2047"}},{"type":"Feature","geometry":{"type":"Point","coordinates":[127.01689,37.2875]},"properties":{"id":60,"name":"연포갈비","address":"경기도 수원시 팔달구 정조로906번길 56-1","category":"갈비","phone":"031-255-1337","naverUrl":"https://map.naver.com/v5/search/%EA%B2%BD%EA%B8%B0%EB%8F%84%20%EC%88%98%EC%9B%90%EC%8B%9C%20%ED%8C%94%EB%8B%AC%EA%B5%AC%20%EC%A0%95%EC%A1%B0%EB%A1%9C906%EB%B2%88%EA%B8%B8%2056-1%20"}},{"type":"Feature","geometry":{"type":"Point","coordinates":[127.04057,37.27822]},"properties":{"id":61,"name":"주식회사 본수원","address":"경기도 수원시 팔달구 중부대로223번길 41","category":"갈비","phone":"031-211-8434","naverUrl":"https://map.naver.com/v5/search/%EA%B2%BD%EA%B8%B0%EB%8F%84%20%EC%88%98%EC%9B%90%EC%8B%9C%20%ED%8C%94%EB%8B%AC%EA%B5%AC%20%EC%A4%91%EB%B6%80%EB%8C%80%EB%A1%9C223%EB%B2%88%EA%B8%B8%2041%20"}},{"type":"Feature","geometry":{"type":"Point","coordinates":[127.03007,37.26713]},"properties":{"id":62,"name":"양평해장국","address":"경기도 수원시 팔달구 경수대로466번길 51","category":"해장국","phone":"031-221-0236","naverUrl":"https://map.naver.com/v5/search/%EA%B2%BD%EA%B8%B0%EB%8F%84%20%EC%88%98%EC%9B%90%EC%8B%9C%20%ED%8C%94%EB%8B%AC%EA%B5%AC%20%EA%B2%BD%EC%88%98%EB%8C%80%EB%A1%9C466%EB%B2%88%EA%B8%B8%2051%20"}},{"type":"Feature","geometry":{"type":"Point","coordinates":[127.01373,37.28775]},"properties":{"id":63,"name":"항아리칼국수","address":"경기도 수원시 팔달구 정조로905번길17","category":"칼국수","phone":"031-257-2768","naverUrl":"https://map.naver.com/v5/search/%EA%B2%BD%EA%B8%B0%EB%8F%84%20%EC%88%98%EC%9B%90%EC%8B%9C%20%ED%8C%94%EB%8B%AC%EA%B5%AC%20%EC%A0%95%EC%A1%B0%EB%A1%9C905%EB%B2%88%EA%B8%B817%20"}},{"type":"Feature","geometry":{"type":"Point","coordinates":[127.0036,37.27036]},"properties":{"id":64,"name":"강원도막국수","address":"경기도 수원시 팔달구 갓매산로70","category":"막국수","phone":"031-252-6677","naverUrl":"https://map.naver.com/v5/search/%EA%B2%BD%EA%B8%B0%EB%8F%84%20%EC%88%98%EC%9B%90%EC%8B%9C%20%ED%8C%94%EB%8B%AC%EA%B5%AC%20%EA%B0%93%EB%A7%A4%EC%82%B0%EB%A1%9C70%20"}},{"type":"Feature","geometry":{"type":"Point","coordinates":[127.01136,37.27112]},"properties":{"id":65,"name":"주식회사 두꺼비집","address":"경기도 수원시 팔달구 향교로100","category":"부대찌개","phone":"031-242-4267","naverUrl":"https://map.naver.com/v5/search/%EA%B2%BD%EA%B8%B0%EB%8F%84%20%EC%88%98%EC%9B%90%EC%8B%9C%20%ED%8C%94%EB%8B%AC%EA%B5%AC%20%ED%96%A5%EA%B5%90%EB%A1%9C100%20"}},{"type":"Feature","geometry":{"type":"Point","coordinates":[127.02773,37.27302]},"properties":{"id":66,"name":"유정장어","address":"경기도 수원시 팔달구 장다리로 264","category":"장어","phone":"031-236-0410","naverUrl":"https://map.naver.com/v5/search/%EA%B2%BD%EA%B8%B0%EB%8F%84%20%EC%88%98%EC%9B%90%EC%8B%9C%20%ED%8C%94%EB%8B%AC%EA%B5%AC%20%EC%9E%A5%EB%8B%A4%EB%A6%AC%EB%A1%9C%20264%20"}},{"type":"Feature","geometry":{"type":"Point","coordinates":[127.01948,37.27805]},"properties":{"id":67,"name":"원조엄마네","address":"경기도 수원시 팔달구 팔달문로 19","category":"철판볶음","phone":"031-253-5210","naverUrl":"https://map.naver.com/v5/search/%EA%B2%BD%EA%B8%B0%EB%8F%84%20%EC%88%98%EC%9B%90%EC%8B%9C%20%ED%8C%94%EB%8B%AC%EA%B5%AC%20%ED%8C%94%EB%8B%AC%EB%AC%B8%EB%A1%9C%2019%20"}},{"type":"Feature","geometry":{"type":"Point","coordinates":[127.01386,37.28022]},"properties":{"id":68,"name":"해물천지","address":"경기도 수원시 팔달구 행궁로22번길 17","category":"해물","phone":"0312-236-0740","naverUrl":"https://map.naver.com/v5/search/%EA%B2%BD%EA%B8%B0%EB%8F%84%20%EC%88%98%EC%9B%90%EC%8B%9C%20%ED%8C%94%EB%8B%AC%EA%B5%AC%20%ED%96%89%EA%B6%81%EB%A1%9C22%EB%B2%88%EA%B8%B8%2017%20"}},{"type":"Feature","geometry":{"type":"Point","coordinates":[126.9897,37.2862]},"properties":{"id":69,"name":"채상궁","address":"경기도 수원시 팔달구 수성로157번길5-7","category":"소고기샤브","phone":"031-269-8600","naverUrl":"https://map.naver.com/v5/search/%EA%B2%BD%EA%B8%B0%EB%8F%84%20%EC%88%98%EC%9B%90%EC%8B%9C%20%ED%8C%94%EB%8B%AC%EA%B5%AC%20%EC%88%98%EC%84%B1%EB%A1%9C157%EB%B2%88%EA%B8%B85-7%20"}},{"type":"Feature","geometry":{"type":"Point","coordinates":[127.02937,37.26665]},"properties":{"id":71,"name":"평장원","address":"경기도 수원시 팔달구 인계로108번길 23","category":"평양냉면, 만두국, 만두","phone":"031-221-7003","naverUrl":"https://map.naver.com/v5/search/%EA%B2%BD%EA%B8%B0%EB%8F%84%20%EC%88%98%EC%9B%90%EC%8B%9C%20%ED%8C%94%EB%8B%AC%EA%B5%AC%20%EC%9D%B8%EA%B3%84%EB%A1%9C108%EB%B2%88%EA%B8%B8%2023%20"}},{"type":"Feature","geometry":{"type":"Point","coordinates":[127.02829,37.27299]},"properties":{"id":72,"name":"팔덕식당수원직영점","address":"경기도 수원시 팔달구 경수대로519번길 12-10","category":"등갈비찜","phone":"031-223-5214","naverUrl":"https://map.naver.com/v5/search/%EA%B2%BD%EA%B8%B0%EB%8F%84%20%EC%88%98%EC%9B%90%EC%8B%9C%20%ED%8C%94%EB%8B%AC%EA%B5%AC%20%EA%B2%BD%EC%88%98%EB%8C%80%EB%A1%9C519%EB%B2%88%EA%B8%B8%2012-10%20"}},{"type":"Feature","geometry":{"type":"Point","coordinates":[127.02835,37.27329]},"properties":{"id":73,"name":"황태해장국","address":"경기도 수원시 팔달구 경수대로519번길 12-18 트윈빌","category":"황태국","phone":"031-239-4131","naverUrl":"https://map.naver.com/v5/search/%EA%B2%BD%EA%B8%B0%EB%8F%84%20%EC%88%98%EC%9B%90%EC%8B%9C%20%ED%8C%94%EB%8B%AC%EA%B5%AC%20%EA%B2%BD%EC%88%98%EB%8C%80%EB%A1%9C519%EB%B2%88%EA%B8%B8%2012-18%20%ED%8A%B8%EC%9C%88%EB%B9%8C"}},{"type":"Feature","geometry":{"type":"Point","coordinates":[126.98937,37.28746]},"properties":{"id":74,"name":"화서염소탕","address":"경기도 수원시 팔달구 수성로157번길27-4","category":"염소탕","phone":"031-269-5798","naverUrl":"https://map.naver.com/v5/search/%EA%B2%BD%EA%B8%B0%EB%8F%84%20%EC%88%98%EC%9B%90%EC%8B%9C%20%ED%8C%94%EB%8B%AC%EA%B5%AC%20%EC%88%98%EC%84%B1%EB%A1%9C157%EB%B2%88%EA%B8%B827-4%20"}},{"type":"Feature","geometry":{"type":"Point","coordinates":[127.02614,37.27048]},"properties":{"id":75,"name":"옥동이","address":"경기도 수원시 팔달구 장다리로 231","category":"중식","phone":"031-238-4270","naverUrl":"https://map.naver.com/v5/search/%EA%B2%BD%EA%B8%B0%EB%8F%84%20%EC%88%98%EC%9B%90%EC%8B%9C%20%ED%8C%94%EB%8B%AC%EA%B5%AC%20%EC%9E%A5%EB%8B%A4%EB%A6%AC%EB%A1%9C%20231"}},{"type":"Feature","geometry":{"type":"Point","coordinates":[127.04924,37.27378]},"properties":{"id":76,"name":"신라갈비","address":"경기도 수원시 영통구 동수원로 538","category":"한우생갈비, 한우양념갈비","phone":"031-212-2354","naverUrl":"https://map.naver.com/v5/search/%EA%B2%BD%EA%B8%B0%EB%8F%84%20%EC%88%98%EC%9B%90%EC%8B%9C%20%EC%98%81%ED%86%B5%EA%B5%AC%20%EB%8F%99%EC%88%98%EC%9B%90%EB%A1%9C%20538%20"}},{"type":"Feature","geometry":{"type":"Point","coordinates":[127.05721,37.23963]},"properties":{"id":77,"name":"항아리보쌈","address":"경기도 수원시 영통구 영통로130번길 17","category":"보쌈,쟁반국수,파전","phone":"031-205-1998","naverUrl":"https://map.naver.com/v5/search/%EA%B2%BD%EA%B8%B0%EB%8F%84%20%EC%88%98%EC%9B%90%EC%8B%9C%20%EC%98%81%ED%86%B5%EA%B5%AC%20%EC%98%81%ED%86%B5%EB%A1%9C130%EB%B2%88%EA%B8%B8%2017%20"}},{"type":"Feature","geometry":{"type":"Point","coordinates":[127.05259,37.2736]},"properties":{"id":78,"name":"삼부자갈비본점","address":"경기도 수원시 영통구 중부대로 335","category":"양념갈비, 생갈비, 한우갈비탕","phone":"031-211-8959","naverUrl":"https://map.naver.com/v5/search/%EA%B2%BD%EA%B8%B0%EB%8F%84%20%EC%88%98%EC%9B%90%EC%8B%9C%20%EC%98%81%ED%86%B5%EA%B5%AC%20%EC%A4%91%EB%B6%80%EB%8C%80%EB%A1%9C%20335"}},{"type":"Feature","geometry":{"type":"Point","coordinates":[127.07548,37.25088]},"properties":{"id":79,"name":"두꺼비집","address":"경기도 수원시 영통구 반달로 32","category":"부대찌개","phone":"031-202-4267","naverUrl":"https://map.naver.com/v5/search/%EA%B2%BD%EA%B8%B0%EB%8F%84%20%EC%88%98%EC%9B%90%EC%8B%9C%20%EC%98%81%ED%86%B5%EA%B5%AC%20%EB%B0%98%EB%8B%AC%EB%A1%9C%2032%20"}},{"type":"Feature","geometry":{"type":"Point","coordinates":[127.05523,37.29535]},"properties":{"id":80,"name":"오늘의초밥","address":"경기도 수원시 영통구 센트럴파크로127번길 18","category":"오늘의초밥, 카이센동, 후터마끼","phone":"031-305-9468","naverUrl":"https://map.naver.com/v5/search/%EA%B2%BD%EA%B8%B0%EB%8F%84%20%EC%88%98%EC%9B%90%EC%8B%9C%20%EC%98%81%ED%86%B5%EA%B5%AC%20%EC%84%BC%ED%8A%B8%EB%9F%B4%ED%8C%8C%ED%81%AC%EB%A1%9C127%EB%B2%88%EA%B8%B8%2018"}},{"type":"Feature","geometry":{"type":"Point","coordinates":[127.04803,37.27412]},"properties":{"id":81,"name":"낙지한마리수제비","address":"경기도 수원시 영통구 동수원로537번길 15-4","category":"낙지볶음,수제비,해물파전","phone":"031-215-8605","naverUrl":"https://map.naver.com/v5/search/%EA%B2%BD%EA%B8%B0%EB%8F%84%20%EC%88%98%EC%9B%90%EC%8B%9C%20%EC%98%81%ED%86%B5%EA%B5%AC%20%EB%8F%99%EC%88%98%EC%9B%90%EB%A1%9C537%EB%B2%88%EA%B8%B8%2015-4"}},{"type":"Feature","geometry":{"type":"Point","coordinates":[127.04548,37.24844]},"properties":{"id":82,"name":"우판등심수원점","address":"경기도 수원시 영통구 권선로908번길 10","category":"한우생등심","phone":"031-204-0086","naverUrl":"https://map.naver.com/v5/search/%EA%B2%BD%EA%B8%B0%EB%8F%84%20%EC%88%98%EC%9B%90%EC%8B%9C%20%EC%98%81%ED%86%B5%EA%B5%AC%20%EA%B6%8C%EC%84%A0%EB%A1%9C908%EB%B2%88%EA%B8%B8%2010"}},{"type":"Feature","geometry":{"type":"Point","coordinates":[127.07524,37.2519]},"properties":{"id":83,"name":"즉석깡우동","address":"경기도 수원시 영통구 청명남로28번길 2","category":"우동, 닭발","phone":"031-241-3301","naverUrl":"https://map.naver.com/v5/search/%EA%B2%BD%EA%B8%B0%EB%8F%84%20%EC%88%98%EC%9B%90%EC%8B%9C%20%EC%98%81%ED%86%B5%EA%B5%AC%20%EC%B2%AD%EB%AA%85%EB%82%A8%EB%A1%9C28%EB%B2%88%EA%B8%B8%202%20"}},{"type":"Feature","geometry":{"type":"Point","coordinates":[127.05953,37.28574]},"properties":{"id":84,"name":"행궁정찬","address":"경기도 수원시 영통구 광교중앙로 140","category":"간장꼬막정식, 보리굴비정식, 행궁진찬","phone":"031-303-6915","naverUrl":"https://map.naver.com/v5/search/%EA%B2%BD%EA%B8%B0%EB%8F%84%20%EC%88%98%EC%9B%90%EC%8B%9C%20%EC%98%81%ED%86%B5%EA%B5%AC%20%EA%B4%91%EA%B5%90%EC%A4%91%EC%95%99%EB%A1%9C%20140"}},{"type":"Feature","geometry":{"type":"Point","coordinates":[127.06154,37.25344]},"properties":{"id":85,"name":"동산참숯갈비","address":"경기도 수원시 영통구 영통로 305","category":"돼지갈비, 소갈비","phone":"031-216-2772","naverUrl":"https://map.naver.com/v5/search/%EA%B2%BD%EA%B8%B0%EB%8F%84%20%EC%88%98%EC%9B%90%EC%8B%9C%20%EC%98%81%ED%86%B5%EA%B5%AC%20%EC%98%81%ED%86%B5%EB%A1%9C%20305"}},{"type":"Feature","geometry":{"type":"Point","coordinates":[127.0578,37.28703]},"properties":{"id":86,"name":"거궁광교점","address":"경기도 수원시 영통구 광교중앙로 145","category":"거한상, 특거한상, 행복한거한상","phone":"031-215-4007","naverUrl":"https://map.naver.com/v5/search/%EA%B2%BD%EA%B8%B0%EB%8F%84%20%EC%88%98%EC%9B%90%EC%8B%9C%20%EC%98%81%ED%86%B5%EA%B5%AC%20%EA%B4%91%EA%B5%90%EC%A4%91%EC%95%99%EB%A1%9C%20145"}},{"type":"Feature","geometry":{"type":"Point","coordinates":[127.04716,37.26389]},"properties":{"id":87,"name":"노대감감자탕","address":"경기도 수원시 영통구 산남로 2","category":"뼈해장국, 묵은지뼈찜","phone":"031-293-5070","naverUrl":"https://map.naver.com/v5/search/%EA%B2%BD%EA%B8%B0%EB%8F%84%20%EC%88%98%EC%9B%90%EC%8B%9C%20%EC%98%81%ED%86%B5%EA%B5%AC%20%EC%82%B0%EB%82%A8%EB%A1%9C%202"}},{"type":"Feature","geometry":{"type":"Point","coordinates":[127.03677,37.25605]},"properties":{"id":88,"name":"강원칡냉면","address":"경기도 수원시 영통구 동수원로 298-1","category":"냉면, 찐만두","phone":"031-239-8998","naverUrl":"https://map.naver.com/v5/search/%EA%B2%BD%EA%B8%B0%EB%8F%84%20%EC%88%98%EC%9B%90%EC%8B%9C%20%EC%98%81%ED%86%B5%EA%B5%AC%20%EB%8F%99%EC%88%98%EC%9B%90%EB%A1%9C%20298-1%20"}},{"type":"Feature","geometry":{"type":"Point","coordinates":[127.07105,37.25292]},"properties":{"id":89,"name":"윤가곰탕","address":"경기도 수원시 영통구 매영로345번길 7","category":"곰탕, 수육, 떡갈비","phone":"031-202-2211","naverUrl":"https://map.naver.com/v5/search/%EA%B2%BD%EA%B8%B0%EB%8F%84%20%EC%88%98%EC%9B%90%EC%8B%9C%20%EC%98%81%ED%86%B5%EA%B5%AC%20%EB%A7%A4%EC%98%81%EB%A1%9C345%EB%B2%88%EA%B8%B8%207"}},{"type":"Feature","geometry":{"type":"Point","coordinates":[127.07631,37.25292]},"properties":{"id":90,"name":"와우정육식당","address":"경기도 수원시 영통구 청명남로 40","category":"소고기","phone":"031-203-0306","naverUrl":"https://map.naver.com/v5/search/%EA%B2%BD%EA%B8%B0%EB%8F%84%20%EC%88%98%EC%9B%90%EC%8B%9C%20%EC%98%81%ED%86%B5%EA%B5%AC%20%EC%B2%AD%EB%AA%85%EB%82%A8%EB%A1%9C%2040%20"}},{"type":"Feature","geometry":{"type":"Point","coordinates":[127.0552,37.27197]},"properties":{"id":91,"name":"(주)대가원","address":"경기도 수원시 영통구 중부대로368번길 8-12","category":"한우생등심","phone":"031-212-2120","naverUrl":"https://map.naver.com/v5/search/%EA%B2%BD%EA%B8%B0%EB%8F%84%20%EC%88%98%EC%9B%90%EC%8B%9C%20%EC%98%81%ED%86%B5%EA%B5%AC%20%EC%A4%91%EB%B6%80%EB%8C%80%EB%A1%9C368%EB%B2%88%EA%B8%B8%208-12"}},{"type":"Feature","geometry":{"type":"Point","coordinates":[127.05604,37.24334]},"properties":{"id":92,"name":"금화루","address":"경기도 수원시 영통구 영통로174번길 9","category":"탕수육, 짜장면, 양장피","phone":"031-205-0203","naverUrl":"https://map.naver.com/v5/search/%EA%B2%BD%EA%B8%B0%EB%8F%84%20%EC%88%98%EC%9B%90%EC%8B%9C%20%EC%98%81%ED%86%B5%EA%B5%AC%20%EC%98%81%ED%86%B5%EB%A1%9C174%EB%B2%88%EA%B8%B8%209"}},{"type":"Feature","geometry":{"type":"Point","coordinates":[127.05641,37.24667]},"properties":{"id":93,"name":"엄지민물매운탕","address":"경기도 수원시 영통구 영통로217번길 11","category":"민물매운탕","phone":"031-203-2581","naverUrl":"https://map.naver.com/v5/search/%EA%B2%BD%EA%B8%B0%EB%8F%84%20%EC%88%98%EC%9B%90%EC%8B%9C%20%EC%98%81%ED%86%B5%EA%B5%AC%20%EC%98%81%ED%86%B5%EB%A1%9C217%EB%B2%88%EA%B8%B8%2011"}},{"type":"Feature","geometry":{"type":"Point","coordinates":[127.04713,37.23326]},"properties":{"id":94,"name":"제주할망돈가","address":"경기도 수원시 영통구 동탄지성로 454-11","category":"제주오겹살,제주삼겹살","phone":"031-252-5292","naverUrl":"https://map.naver.com/v5/search/%EA%B2%BD%EA%B8%B0%EB%8F%84%20%EC%88%98%EC%9B%90%EC%8B%9C%20%EC%98%81%ED%86%B5%EA%B5%AC%20%EB%8F%99%ED%83%84%EC%A7%80%EC%84%B1%EB%A1%9C%20454-11"}},{"type":"Feature","geometry":{"type":"Point","coordinates":[127.0558,37.24664]},"properties":{"id":95,"name":"남도","address":"경기도 수원시 영통구 영통로217번길 21","category":"보리굴비, 꼬막비빔밥","phone":"031-235-4777","naverUrl":"https://map.naver.com/v5/search/%EA%B2%BD%EA%B8%B0%EB%8F%84%20%EC%88%98%EC%9B%90%EC%8B%9C%20%EC%98%81%ED%86%B5%EA%B5%AC%20%EC%98%81%ED%86%B5%EB%A1%9C217%EB%B2%88%EA%B8%B8%2021%20"}},{"type":"Feature","geometry":{"type":"Point","coordinates":[127.05324,37.24598]},"properties":{"id":96,"name":"서울24시감자탕해장국","address":"경기도 수원시 영통구 덕영대로 1485","category":"감자탕,뼈찜,뼈해장국","phone":"031-206-2324","naverUrl":"https://map.naver.com/v5/search/%EA%B2%BD%EA%B8%B0%EB%8F%84%20%EC%88%98%EC%9B%90%EC%8B%9C%20%EC%98%81%ED%86%B5%EA%B5%AC%20%EB%8D%95%EC%98%81%EB%8C%80%EB%A1%9C%201485%20"}},{"type":"Feature","geometry":{"type":"Point","coordinates":[127.04155,37.27519]},"properties":{"id":97,"name":"운봉농장","address":"경기도 수원시 영통구 중부대로 236","category":"생오리, 훈제오리","phone":"031-213-5668","naverUrl":"https://map.naver.com/v5/search/%EA%B2%BD%EA%B8%B0%EB%8F%84%20%EC%88%98%EC%9B%90%EC%8B%9C%20%EC%98%81%ED%86%B5%EA%B5%AC%20%EC%A4%91%EB%B6%80%EB%8C%80%EB%A1%9C%20236%20"}},{"type":"Feature","geometry":{"type":"Point","coordinates":[127.07366,37.25618]},"properties":{"id":98,"name":"고기잡이(명품관)","address":"경기도 수원시 영통구 매영로345번길 111","category":"민어, 보리굴비","phone":"031-206-7888","naverUrl":"https://map.naver.com/v5/search/%EA%B2%BD%EA%B8%B0%EB%8F%84%20%EC%88%98%EC%9B%90%EC%8B%9C%20%EC%98%81%ED%86%B5%EA%B5%AC%20%EB%A7%A4%EC%98%81%EB%A1%9C345%EB%B2%88%EA%B8%B8%20111"}},{"type":"Feature","geometry":{"type":"Point","coordinates":[127.05885,37.24673]},"properties":{"id":99,"name":"연화담","address":"경기도 수원시 영통구 영통로214번길 31","category":"돼지양념갈비, 소왕갈비, 냉면","phone":"031-546-0311","naverUrl":"https://map.naver.com/v5/search/%EA%B2%BD%EA%B8%B0%EB%8F%84%20%EC%88%98%EC%9B%90%EC%8B%9C%20%EC%98%81%ED%86%B5%EA%B5%AC%20%EC%98%81%ED%86%B5%EB%A1%9C214%EB%B2%88%EA%B8%B8%2031"}},{"type":"Feature","geometry":{"type":"Point","coordinates":[127.04733,37.26437]},"properties":{"id":100,"name":"스시선율","address":"경기도 수원시 영통구 산남로 8","category":"초밥,사시미,카이센동","phone":"031-212-9467","naverUrl":"https://map.naver.com/v5/search/%EA%B2%BD%EA%B8%B0%EB%8F%84%20%EC%88%98%EC%9B%90%EC%8B%9C%20%EC%98%81%ED%86%B5%EA%B5%AC%20%EC%82%B0%EB%82%A8%EB%A1%9C%208%20"}}]}